<?xml version="1.0" encoding="UTF-8"?>
<kml xmlns="http://www.opengis.net/kml/2.2" xmlns:gx="http://www.google.com/kml/ext/2.2" xmlns:kml="http://www.opengis.net/kml/2.2" xmlns:atom="http://www.w3.org/2005/Atom">
<Document>
	<name>AGG-4.4-NANHNN11_AGG-4.3-NADLG11_LienTinh.kml</name>
	<visibility>0</visibility>
	<open>1</open>
	<atom:link rel="app" href="https://www.google.com/earth/about/versions/#earth-pro" title="Google Earth Pro 7.3.7.1155"></atom:link>
	<Style id="failed">
	</Style>
	<StyleMap id="failed0">
		<Pair>
			<key>normal</key>
			<styleUrl>#failed</styleUrl>
		</Pair>
		<Pair>
			<key>highlight</key>
			<styleUrl>#failed1</styleUrl>
		</Pair>
	</StyleMap>
	<Style id="failed1">
	</Style>
	<Placemark>
		<name>Tuyen_Cap_Chuan_Hoa</name>
		<visibility>0</visibility>
		<styleUrl>#failed0</styleUrl>
		<LineString>
			<tessellate>1</tessellate>
			<coordinates>
				105.6343174444333,18.67128967821942,0 105.6344057228464,18.67133343282111,0 105.6346279867855,18.67124059737489,0 105.6349126666014,18.67107988103244,0 105.6357654832359,18.67070103525907,0 105.6359199457536,18.6706858527302,0 105.6357651691259,18.67059921216958,0 105.6356132909596,18.67018757540157,0 105.6367163282571,18.66981694150645,0 105.6375331480837,18.66957776781641,0 105.6374637606626,18.66939561099883,0 105.6371505330353,18.66949874964728,0 105.6371227055457,18.66956782225503,0 105.6367269216297,18.66968396718729,0 105.6356168731166,18.6700242193435,0 105.6355933221957,18.67019651678625,0 105.6357211384763,18.6706342099299,0 105.6359244628813,18.67072415332598,0 105.636089547372,18.67143651755291,0 105.6359804810351,18.67159820490155,0 105.6349341501581,18.67458759560449,0 105.6343347043271,18.67622686368588,0 105.6334184509904,18.67814014501482,0 105.6330782169879,18.67917481261071,0 105.6329091501887,18.67930370101269,0 105.6323342438389,18.67919224134495,0 105.6316300579416,18.67890468651698,0 105.6299143196206,18.67838787810427,0 105.6268898281256,18.67746048793367,0 105.6280887741215,18.67284645748299,0 105.627945462529,18.67267375225621,0 105.6238291926833,18.67292803344389,0 105.6232499325231,18.67490730915454,0 105.6221388337062,18.67497040142595,0 105.6220648128306,18.67649015630629,0 105.6193226897891,18.67642838901162,0 105.6193743598055,18.67503027541855,0 105.61830502262,18.67524002384513,0 105.6182754069318,18.6755133784862,0 105.6175362286059,18.67551518799524,0 105.6089240413184,18.6778122111785,0 105.6083951078517,18.67741307815682,0 105.6075257231111,18.67822526582309,0 105.607235332242,18.67806195130756,0 105.6065252340013,18.67864135962059,0 105.6055775064474,18.67875287602718,0 105.6034358600767,18.67854848377931,0 105.6026372978792,18.67867900607825,0 105.6011748077986,18.67848315049439,0 105.6011107387008,18.67882973086653,0 105.6004018322534,18.67870615361901,0 105.5934386267544,18.67899351899436,0 105.5918492549792,18.6793295928259,0 105.5905233184635,18.67939496598086,0 105.5851949003703,18.68141643593551,0 105.5775148649096,18.68422145078605,0 105.5727947708032,18.68623339120956,0 105.5729651007674,18.68705503589214,0 105.5720008534508,18.68730417146576,0 105.5718454103917,18.68651506168942,0 105.5581283893011,18.68976771939722,0 105.5441973534621,18.69259007425437,0 105.5372101386286,18.69431532841811,0 105.5312969594776,18.69599654159667,0 105.5229306256908,18.6983899519544,0 105.5212620480379,18.69857339111775,0 105.5207520094133,18.69831374544078,0 105.5206606236356,18.69834239860072,0 105.520368923753,18.69766945873857,0 105.5203661097425,18.69743330851373,0 105.5189949494423,18.69774343300365,0 105.5182583874104,18.69791486908641,0 105.5177506472574,18.69801236359911,0 105.5155082317955,18.69847068552474,0 105.5145658436632,18.69863642211283,0 105.5136843393558,18.69867833976777,0 105.5126728142142,18.69861271699163,0 105.5111579241278,18.69869294364396,0 105.5100586996434,18.69863766879237,0 105.5080095477673,18.69856681654994,0 105.5068306202766,18.69848894896924,0 105.5046728522162,18.69824459258274,0 105.5046645537042,18.69836042592387,0 105.4996697500933,18.6977430328641,0 105.4987510808921,18.69775767701433,0 105.4971478032338,18.69769743601593,0 105.4965241790907,18.69743465947589,0 105.4959694571185,18.69720461877522,0 105.4954462428098,18.69727568223854,0 105.4949971706757,18.69739780228569,0 105.4947008548677,18.6974770393466,0 105.4944782622359,18.69763409116601,0 105.4943666422553,18.6977212794136,0 105.4942431007689,18.69781790300408,0 105.4940938222098,18.69810183650366,0 105.4941293427587,18.69826689549033,0 105.4939863822454,18.69864370284964,0 105.4935771305031,18.69938766240305,0 105.493592054141,18.69995001320818,0 105.4937017460489,18.70036665399077,0 105.4936307353845,18.70053418318112,0 105.4939945828089,18.70053695036898,0 105.4943404896453,18.70057826277001,0 105.4945307899644,18.70069291557518,0 105.4928740727472,18.70241102241231,0 105.4909340251498,18.7034511656358,0 105.4913881666568,18.70546628282937,0 105.4893662103147,18.70686587790221,0 105.4774089169079,18.70945862462128,0 105.4752790231632,18.70994516774226,0 105.4725334725124,18.71105617330955,0 105.4713650479144,18.71117102754671,0 105.4701619698054,18.71116214545555,0 105.4687499487354,18.71151691089613,0 105.4677675216013,18.71191471642701,0 105.4668016041001,18.71169276438027,0 105.4644761241644,18.71116708414364,0 105.4596427727051,18.7101583105181,0 105.4589890831483,18.71037722091496,0 105.4571814874786,18.7107214113655,0 105.4507412909021,18.71130000592692,0 105.4482859650046,18.71078078980296,0 105.4446907700758,18.70867862114393,0 105.444277432677,18.7084941348883,0 105.4435840095105,18.70833064934396,0 105.4440604922945,18.70701919531899,0 105.4426414121115,18.6995972199497,0 105.4415548221184,18.69385103984066,0 105.440724091601,18.68966260407053,0 105.4402614184564,18.68875364314772,0 105.4434931080631,18.68607112085218,0 105.4421809122575,18.68477361967699,0 105.4414134188927,18.68160390113911,0 105.4414338284305,18.67983643233196,0 105.4416036120954,18.67875501569948,0 105.4415258673323,18.67791410139453,0 105.4421473284388,18.67571043129516,0 105.4418915469103,18.67398538299598,0 105.4418967475436,18.67321985950473,0 105.4368449081375,18.66922284512537,0 105.4316576718937,18.66507606398824,0 105.4308142965537,18.66537786498806,0 105.4305425291417,18.66623001810737,0 105.4285914446395,18.66789316334827,0 105.4272526514753,18.66942988344887,0 105.4232477735132,18.67158412775727,0 105.4194166106762,18.66802110900734,0 105.4130887967191,18.66994927005028,0 105.4109228548962,18.67162207586349,0 105.4093439796615,18.67140905924528,0 105.3914644590266,18.67599777825173,0 105.3907340364359,18.67582589581279,0 105.38221856539,18.69362110588489,0 105.3823514704614,18.69445794236831,0 105.3815565376105,18.69451308057893,0 105.3813875291949,18.69729571964661,0 105.3816913101982,18.69845106542159,0 105.382117065913,18.702987420959,0 105.3824548477045,18.70400097475174,0 105.3791563913252,18.70993582505156,0 105.374124310146,18.7177304697719,0 105.3674349821155,18.72364315645031,0 105.3657423642917,18.7247068365781,0 105.3644294805779,18.72577036105989,0 105.364122238247,18.72585686350572,0 105.3642830747254,18.72606112409752,0 105.3630211427674,18.72648484501314,0 105.3632708705456,18.72690892851654,0 105.3629471887051,18.72710889636411,0 105.362703949033,18.72684343776778,0 105.3616495497772,18.72691478037616,0 105.3603780720805,18.72727418276995,0 105.3594564516295,18.72728314424322,0 105.3584316274099,18.72779865552392,0 105.3532053526634,18.7313632077055,0 105.3525385429602,18.73203701313951,0 105.3518094737309,18.73390991826074,0 105.3459585201326,18.73738179714275,0 105.345096477658,18.7380204340412,0 105.3433572210175,18.73902290246049,0 105.3419596588718,18.74000291449986,0 105.335121022787,18.74653351645998,0 105.3279966219309,18.74790817222026,0 105.3257973042947,18.74284562382727,0 105.3251981861097,18.74242369147882,0 105.3241994697454,18.74270434106223,0 105.3236241949499,18.74305140550011,0 105.3230486208811,18.74358885039435,0 105.3178024426322,18.74708757247393,0 105.3171019225272,18.7481156479728,0 105.3168492017577,18.74904256657385,0 105.3158376148656,18.75107311824533,0 105.3145835066616,18.75207514080532,0 105.3142234772414,18.75282457647634,0 105.3141081115637,18.75353814735823,0 105.3141533871588,18.75413757339341,0 105.3141081117737,18.75454136708016,0 105.3138473204466,18.75505029954825,0 105.3134986155907,18.75710570242432,0 105.3130368245116,18.75820308692593,0 105.3132056111896,18.759204991055,0 105.3131106581158,18.76015868726808,0 105.3122335601174,18.7640805368902,0 105.3124496417835,18.76577350082493,0 105.3115874968882,18.76666356060008,0 105.3023383412371,18.77369498320363,0 105.3016848947406,18.77466509930193,0 105.3009165832742,18.77555520688459,0 105.3016454742,18.77673146015055,0 105.3025799168734,18.778880140649,0 105.3079723237185,18.78190695428247,0 105.3062917983841,18.78958553410221,0 105.2997219049129,18.79030003105133,0 105.3001117016946,18.79100567314861,0 105.2999564280828,18.79368602211803,0 105.3021254896727,18.79582517351555,0 105.3028818966013,18.79695521825792,0 105.3037363788993,18.7978894803222,0 105.3067000839957,18.79913324259077,0 105.3093142422847,18.80042008787552,0 105.3104374739537,18.80113697401356,0 105.3132820859671,18.80230867570598,0 105.314169943415,18.80324888370679,0 105.3151398565644,18.80394313721031,0 105.3158243273305,18.80461865417946,0 105.3167460564125,18.80522151269863,0 105.3182579062597,18.80783194437753,0 105.3184238331403,18.8087170335357,0 105.3175659877226,18.8094460638205,0 105.3165400971586,18.80973919203631,0 105.3156879899337,18.81052012075916,0 105.3099438231887,18.81229614187394,0 105.3054343807343,18.8145846900107,0 105.3056424420302,18.81897493629122,0 105.3054936524634,18.81973840427139,0 105.3056797558821,18.82055474204241,0 105.3083197712092,18.82359340111332,0 105.308618013919,18.82717823351798,0 105.307523092131,18.82929917456764,0 105.3065939526878,18.83050136193813,0 105.3058907737953,18.83211753270568,0 105.3032038847174,18.83704763051798,0 105.3034730139359,18.8382799589941,0 105.3035185931589,18.84076380708338,0 105.3030737687285,18.84208627404906,0 105.3037357896505,18.84222624658523,0 105.3038726938046,18.84262123085153,0 105.3045180896507,18.85439649258477,0 105.3045838295606,18.86677019049808,0 105.304749273636,18.87014026558198,0 105.3046013610391,18.87128749966076,0 105.3041399548262,18.87156297042548,0 105.304052860909,18.87179429622844,0 105.3042154051839,18.87218126394669,0 105.3052732015557,18.87283958305436,0 105.3055401413343,18.87284679410739,0 105.3067709242765,18.87481458605212,0 105.3077212924086,18.87592831655286,0 105.30825462275,18.87690692095024,0 105.3077837752258,18.87992433019279,0 105.3075064231539,18.87987291299752,0 105.3073709382972,18.87982448324634,0 105.3074113818632,18.87989099667116,0 105.3074160129408,18.88047184588882,0 105.3073223045305,18.88220207912537,0 105.3076374106459,18.88296129140146,0 105.3083361359964,18.88409092347363,0 105.3089640281086,18.88517843027281,0 105.3094252880615,18.88587527879457,0 105.310338723017,18.88728302336712,0 105.3107656466735,18.88724839290396,0 105.3110412428153,18.88729546683661,0 105.3124617622128,18.88800778937868,0 105.3126568833233,18.88823981793472,0 105.3129797718602,18.88893861698327,0 105.313049655118,18.88921880907955,0 105.3136745342799,18.88986268527433,0 105.3138002059207,18.88989238583195,0 105.3130537397176,18.89235422661879,0 105.3136117894047,18.89393476286228,0 105.3140387471424,18.89521267082383,0 105.3128190911414,18.89579113291985,0 105.3133380097279,18.89701222122927,0 105.3134866001001,18.896861007324,0 105.3132143996517,18.89664292938288,0 105.31301517241,18.89632357925846,0 105.3127513254029,18.89578058546295,0 105.312410011474,18.89583940775631,0 105.3108826209047,18.89653027682594,0 105.3107233041523,18.89670381600229,0 105.3101213179739,18.8979527567625,0 105.3101344785706,18.89811780912814,0 105.3100019260603,18.89839523832615,0 105.3098901734846,18.89853533092125,0 105.3098567253232,18.89856327785458,0 105.3084211756611,18.89828420943797,0 105.3078585178294,18.89974175423097,0 105.3081510575542,18.90015750746045,0 
			</coordinates>
		</LineString>
	</Placemark>
</Document>
</kml>
