<?xml version="1.0" encoding="UTF-8"?>
<kml xmlns="http://www.opengis.net/kml/2.2">
<Document>
    <name>NA_QLU_ CAU_GIAT-NA_HMA_ QUYNH_XUAN.kml</name>
    <Placemark>
        <name>Tuyen_Cap_Chuan_Hoa</name>
        <LineString>
            <tessellate>1</tessellate>
            <coordinates>105.6883831441053,19.21297404736054,0
105.6872731382741,19.21297818373473,0
105.6868335762508,19.21229768034692,0
105.6862362751491,19.2126142463047,0
105.6861906003312,19.21206902721558,0
105.6862231098925,19.21142117113313,0
105.68608734191,19.21121064793805,0
105.6856838490297,19.21054289320303,0
105.6859832357577,19.21007156623922,0
105.6861576038724,19.20940300746597,0
105.6864370369496,19.20848715414685,0
105.6867855643223,19.20755215728008,0
105.6862799921591,19.20733957689363,0
105.6850966108014,19.20612669146161,0
105.6826661197826,19.20366444357229,0
105.6813907478254,19.20244939966695,0
105.6796535622561,19.20067139881972,0
105.6778290456958,19.19884081079435,0
105.6781840356482,19.19852905561864,0
105.6771733919638,19.19710069406205,0
105.6759871715472,19.19561734610705,0
105.6754471107044,19.19565844471768,0
105.6747515773742,19.19478881479588,0
105.6735680828935,19.19333336699793,0
105.6727469393669,19.19219212032046,0
105.6718994188603,19.19107385228596,0
105.6711066248069,19.19006871597541,0
105.6702162477419,19.18924171030701,0
105.6695115154088,19.18847230999256,0
105.6686298546073,19.18760207653443,0
105.667974700697,19.18698256100629,0
105.6673116960164,19.18745633152444,0
105.6670318643272,19.18769209277176,0
105.66629643102,19.1869132144647,0
105.6657710543257,19.18632739288347,0
105.6652248852208,19.18566059157389,0
105.6645108279264,19.1849072442062,0
105.663498943262,19.183827974658,0
105.6626756315912,19.18293477941269,0
105.6617319347288,19.1818752020496,0
105.6611331358633,19.18118487507899,0
105.6611201752406,19.18118461964887,0
105.6595953642881,19.17955274553085,0
105.6570485363951,19.17673484904417,0
105.6509915397027,19.17002397822103,0
105.6444637889167,19.16306540146326,0
105.6431328200612,19.16248117900615,0
105.6410517816223,19.16149229751517,0
105.6394453104539,19.16072228052561,0
105.6396764129879,19.1600617775122,0
105.6415175054227,19.15909027015766,0
105.6436150332108,19.15810403498341,0
105.6421963681382,19.15722522442463,0
105.6420907542477,19.15714536498968,0
105.6420910641401,19.15707117172745,0
105.6410244053459,19.1559860077232,0
105.6393861301923,19.15439402207848,0
105.6379693536735,19.15294873357003,0
105.636806247761,19.15161758220384,0
105.6355669573918,19.15014514728247,0
105.6351178600964,19.15051418782204,0
105.6343764884597,19.15106976411376,0
105.6333678872519,19.1500041205591,0
105.6324344400191,19.14897308197155,0
105.6310902696347,19.14753382504112,0
105.6306283419476,19.14703572242454,0
105.6308212598819,19.14679569868979,0
105.6303531483423,19.14634333278891,0
105.6301100980643,19.14642921413778,0
105.6297031451128,19.14598775451654,0
105.6288565281813,19.14504424047115,0
105.6276869048508,19.14377316020128,0
105.626864476643,19.1428977751399,0
105.6265387711013,19.14256878479972,0
105.6267627962262,19.14234756180669,0
105.6260379103122,19.14165610297389,0
105.6259945031026,19.1412830032455,0
105.6264321920105,19.14055276064664,0
105.626640461156,19.14013236205049,0
105.626954801304,19.13974189082958,0
105.6274577837972,19.13914724285473,0
105.6264492875226,19.13814519557366,0
105.6252167783967,19.13694613229037,0
105.6247282078182,19.13642425306669,0
105.6236148143969,19.13648640924267,0
105.6232817798093,19.13622205083814,0
105.6230376968084,19.13650892901632,0
105.6229959794771,19.13658164249975,0
105.622926147108,19.13683653051282,0
105.623066255068,19.13702322255612,0
105.62318702576,19.13711754056821,0
105.6231946867459,19.137125487529,0
105.6232561598683,19.13718371932168,0
105.6234822292478,19.13726534871816,0
105.6234117251172,19.13747003035119,0
105.6235180328459,19.13753117524208,0</coordinates>
        </LineString>
    </Placemark>
</Document>
</kml>