<?xml version="1.0" encoding="UTF-8"?>
<kml xmlns="http://www.opengis.net/kml/2.2">
<Document>
    <name>AGG.NA_NLC_NGHI_THUAN_2-NA_VIH_SVD_VINH.kml</name>
    <Placemark>
        <name>AGG.NA_NLC_NGHI_THUAN_2-NA_VIH_SVD_VINH</name>
        <LineString>
            <tessellate>1</tessellate>
            <coordinates>105.6478759509419,18.80069195789823,0
105.6474574888243,18.80079293705711,0
105.6473157332484,18.80033968535058,0
105.6471962900601,18.79998250393526,0
105.6462634368456,18.8001978785541,0
105.6460255992481,18.80023687459,0
105.6454671306505,18.80065529539342,0
105.6449003113805,18.80107362687752,0
105.6445027424287,18.80129734280288,0
105.644227465505,18.80144779088056,0
105.6425746775447,18.80203192140587,0
105.6436596487197,18.80498339103822,0
105.6414113955744,18.80576996855262,0
105.6413558174418,18.80581364586667,0
105.6411891664417,18.80597380958131,0
105.6397720555252,18.80665100311466,0
105.636538468324,18.80795796962454,0
105.6335082595684,18.8091122936113,0
105.6332029831893,18.80910814045809,0
105.6332113939317,18.80882252005576,0
105.6326494899687,18.80727735788217,0
105.6337663873683,18.80696206095707,0
105.6338453325927,18.80622572151482,0
105.6344583912194,18.80228912604358,0
105.6314024590957,18.80102967613377,0
105.6304746225101,18.80088102388925,0
105.6271680347413,18.79965988074269,0
105.6266198511393,18.79959297794485,0
105.6265259515411,18.79879820757759,0
105.6262173850397,18.79752380271336,0
105.6262546858339,18.79744557605755,0
105.6249410364227,18.79775782751243,0
105.6242133529541,18.79769413215285,0
105.6242422294175,18.79710799586769,0
105.6243190400027,18.79490079077657,0
105.6241098838134,18.79243003499942,0
105.6238520778979,18.7894938122272,0
105.6232912173324,18.78958727945026,0
105.6230597092899,18.78878126792995,0
105.623241701449,18.78866070752883,0
105.623561234898,18.78858139134562,0
105.623736632174,18.78852769958759,0
105.6238479861353,18.78857237214719,0
105.6238388909742,18.78848948684044,0
105.6238312182906,18.78848547538946,0
105.623702189994,18.7878547953165,0
105.6236104814555,18.78744037042815,0
105.6235030336752,18.78683400725151,0
105.6238166011974,18.78691553935295,0
105.6236149334971,18.7844702635487,0
105.623405819633,18.78452780180494,0
105.6231848194494,18.78459778161563,0
105.623069965894,18.78458126565732,0
105.6225432960158,18.78067406995165,0
105.6219782718414,18.7787542642926,0
105.6213247950785,18.77596656241435,0
105.6205415549457,18.76925385208533,0
105.6213123117811,18.76643083684194,0
105.6249461289977,18.75559638816974,0
105.6249615503488,18.75545847202429,0
105.6260217491667,18.75278471739691,0
105.6262635749343,18.75001478240423,0
105.62770685068,18.7467761472962,0
105.6289064821118,18.73978821585886,0
105.6296538975951,18.73734575065644,0
105.63143261736,18.73164789900269,0
105.6327340634384,18.72963818029467,0
105.6337032248178,18.7280597634946,0
105.6353706993675,18.72472699128755,0
105.6353907633485,18.72478207437618,0
105.6368139467783,18.72213155537696,0
105.6384951117269,18.71914937884414,0
105.6394190645112,18.71692801937292,0
105.6409482377491,18.71237727436235,0
105.6425007705603,18.70805863306853,0
105.644896445838,18.69793523527864,0
105.6488213107061,18.69853541165071,0
105.6492510870963,18.69776693714616,0
105.6503002559339,18.69816375871313,0
105.6509775582423,18.69853075576795,0
105.6511300056542,18.69835950713555,0
105.6513452929264,18.69802676495225,0
105.651589286981,18.69801161605065,0
105.6532824733422,18.6952322727885,0
105.6532442341306,18.69523257907825,0
105.6530609118716,18.69514264830904,0
105.6543961413959,18.6929988815342,0
105.6563702285302,18.69093468528833,0
105.6590690735501,18.68610993355298,0
105.6614869187088,18.68231388349618,0
105.6622679377915,18.68117758474822,0
105.664684875893,18.681109197862,0
105.6649287725875,18.68147070939452,0
105.6649919378438,18.68454892157255,0
105.6655834751027,18.68895728019209,0
105.6659343216743,18.69229987887769,0
105.669734457331,18.6918989861473,0
105.6709292628965,18.69172965542253,0
105.6720296448009,18.69163355997258,0
105.6720478606613,18.69137492664078,0
105.6720268794142,18.69143332620668,0
105.672055079641,18.69165539200788,0
105.6708523930877,18.69176647446467,0
105.6708046035849,18.69020747757909,0
105.6707901303669,18.68885306610702,0
105.6707660476433,18.68714370398517,0
105.6710429385197,18.68710627125528,0
105.674561747721,18.68671200285197,0
105.674575621348,18.68623554899251,0
105.6745271829571,18.68392276320209,0
105.6744613807822,18.68184795698598,0
105.674347106253,18.68020182434816,0
105.6743269070465,18.67673734384156,0
105.6742215319567,18.67662161376774,0
105.6741738730215,18.67643988646154,0
105.673044429847,18.67647160518758,0
105.6730051645165,18.674546880499,0
105.6715012166785,18.67456897007281,0
105.6715139648199,18.67354227819368,0
105.6715485485086,18.67347792347852,0
105.6714681376928,18.67334003261477,0
105.6720174857617,18.67179087456848,0
105.671564107652,18.67159944595008,0
105.671143373265,18.67137134092251,0
105.6699686053565,18.67139141584984,0
105.6691054795805,18.67142746847772,0
105.6687164509529,18.67144879820002,0
105.6680744587223,18.67143683821199,0
105.6674281746234,18.67155878824984,0
105.6673072865063,18.67129323055891,0
105.6674052803357,18.67129881458745,0
105.6674822665745,18.67123460381249,0</coordinates>
        </LineString>
    </Placemark>
</Document>
</kml>