<?xml version="1.0" encoding="UTF-8"?>
<kml xmlns="http://www.opengis.net/kml/2.2">
<Document>
    <name>NA_VIH_ROADM_VINH_2-NA_VIH_NGUYEN_CANH_HOAN.kml</name>
    <Placemark>
        <name>Tuyen_Cap_Chuan_Hoa</name>
        <LineString>
            <tessellate>1</tessellate>
            <coordinates>105.6720268794142,18.69143332620668,0
105.672055079641,18.69165539200788,0
105.6708523930877,18.69176647446467,0
105.6708046035849,18.69020747757909,0
105.6707901303669,18.68885306610702,0
105.6707660476433,18.68714370398517,0
105.6710429385197,18.68710627125528,0
105.674561747721,18.68671200285197,0
105.674575621348,18.68623554899251,0
105.6745271829571,18.68392276320209,0
105.6744613807822,18.68184795698598,0
105.674347106253,18.68020182434816,0
105.6743269070465,18.67673734384156,0
105.6742215319567,18.67662161376774,0
105.6741738730215,18.67643988646154,0
105.673044429847,18.67647160518758,0
105.6730051645165,18.674546880499,0
105.6715012166785,18.67456897007281,0
105.6715139648199,18.67354227819368,0
105.6715485485086,18.67347792347852,0
105.6714681376928,18.67334003261477,0
105.6720174857617,18.67179087456848,0
105.671564107652,18.67159944595008,0
105.671143373265,18.67137134092251,0
105.6699686053565,18.67139141584984,0
105.6691054795805,18.67142746847772,0
105.6687164509529,18.67144879820002,0
105.6680744587223,18.67143683821199,0
105.6674281746234,18.67155878824984,0
105.6673072865063,18.67129323055891,0
105.6674052803357,18.67129881458745,0
105.6674822665745,18.67123460381249,0</coordinates>
        </LineString>
    </Placemark>
</Document>
</kml>