<?xml version="1.0" encoding="UTF-8"?>
<kml xmlns="http://www.opengis.net/kml/2.2">
<Document>
    <name>AGG.NA_NLC_NGHI_THUAN_2-NA_VIH_SVD_VINH_CSG7.kml</name>
    <Placemark>
        <name>AGG.NA_NLC_NGHI_THUAN_2-NA_VIH_SVD_VINH_CSG7</name>
        <LineString>
            <tessellate>1</tessellate>
            <coordinates>105.6478332851891,18.80072665494021,0
105.6474747682158,18.80080856857134,0
105.6472064000433,18.80005705915083,0
105.648123715473,18.79987464292393,0
105.6491950246145,18.7996774532641,0
105.6492199374286,18.79958014224189,0
105.6471531086603,18.79409618402215,0
105.6467369706284,18.79400097396493,0
105.6462460814655,18.79190882066498,0
105.6456142904926,18.79021799650381,0
105.6450439384543,18.78866257626487,0
105.6443428235871,18.78396694106751,0
105.6439613280267,18.78133182305641,0
105.6439613280267,18.78133182305641,0
105.6439759144934,18.78133268140818,0
105.6449773875164,18.78119273109801,0
105.6463222095623,18.78095210978953,0
105.6462672362491,18.77971777650704,0
105.6462519838902,18.77930109374019,0
105.6456492537195,18.77929572769398,0
105.6456292503058,18.7793110762339,0
105.6462422765508,18.77929408140194,0
105.6462479100559,18.77898283994396,0
105.6462041763052,18.77865821082686,0
105.6450702999799,18.77874654347373,0
105.6442904762971,18.77880494882027,0
105.6437467961389,18.77866539009896,0
105.6440513903505,18.7774812669584,0
105.6443025575896,18.77558398116639,0
105.6465520625266,18.77129109936906,0
105.6478949306497,18.76874135052359,0
105.6488028689171,18.76650375395029,0
105.6490251530815,18.76602013843584,0
105.6505315385865,18.76230457740819,0
105.6527266873807,18.75713665172299,0
105.6554822562,18.75075392388968,0
105.6562003394432,18.74497479420912,0
105.656584511506,18.74326454256655,0
105.6573303803247,18.74006987431533,0
105.6579491568535,18.73748945424744,0
105.6581917201997,18.73662314714714,0
105.6587852176879,18.73573511686282,0
105.6590212800681,18.73516335259643,0
105.6597425220182,18.73550149181902,0
105.6602266371504,18.7354565815124,0
105.6607077079079,18.73547530013378,0
105.6604284789993,18.73516695980933,0
105.6606153523666,18.73460788963841,0
105.6602795058872,18.73454399293268,0
105.6602728931722,18.73461015862395,0
105.660630688168,18.7346136944866,0
105.6616642329415,18.73081047358608,0
105.6621920315523,18.72897366837001,0
105.6624811560188,18.72732673750912,0
105.6625346514745,18.72688123749047,0
105.6625726928009,18.72666825727411,0
105.662789743526,18.72630188599579,0
105.6619577173823,18.72604859288001,0
105.6620510081633,18.72571132414333,0
105.6636989495758,18.72307008319619,0
105.6604104160638,18.72256208103122,0
105.6587394067985,18.72204607882303,0
105.6594423379708,18.72077260929156,0
105.6599512198014,18.71960263014686,0
105.6604752438077,18.71855991171069,0
105.6588939423085,18.71805533737865,0
105.659384851369,18.71711842069642,0
105.6606702430695,18.71514526423741,0
105.6621365184345,18.71297046412878,0
105.6622902043464,18.7128600120321,0
105.6641369236724,18.71323216501237,0
105.6643663687341,18.71320736600856,0
105.6650118614183,18.71166488381505,0
105.6653059176723,18.71148147680127,0
105.6653157205585,18.71141851333164,0
105.6649200401927,18.71156336076772,0
105.6639062652676,18.71129783442118,0
105.6643458029487,18.71051843784232,0
105.6649797004869,18.7098039494702,0
105.6659856081828,18.70957829721009,0
105.6662212747133,18.71027128011782,0
105.6667046301039,18.71106242395734,0
105.6672416088395,18.71196410558774,0
105.6673110665483,18.71254173914776,0
105.6674765466412,18.71314820290173,0
105.6669445633796,18.71386135635728,0
105.6672317373965,18.7139724571885,0
105.6675247956162,18.71394128443228,0
105.6678139305435,18.7139618667602,0
105.6683560454694,18.71252140567518,0
105.6688872405196,18.71121470907148,0
105.6694154206277,18.70984794894082,0
105.6699680611198,18.70878578017965,0
105.6708161706891,18.70714090578304,0
105.6715587108209,18.70571776533423,0
105.6723795719907,18.70407839628682,0
105.6731538789992,18.70256473854537,0
105.6739025993125,18.70115017320968,0
105.6743077444351,18.70031489047639,0
105.6734360435147,18.69985604272874,0
105.6734373643058,18.69986997181905,0
105.6743075862432,18.70031898208204,0
105.6749033945216,18.69916757909223,0
105.6746673378971,18.69905026655662,0
105.67472531718,18.69890024394007,0
105.6748618591455,18.69826677875687,0
105.6751896578731,18.69804883173948,0
105.6751473500176,18.69720702742094,0
105.6750897282772,18.69546136949937,0
105.6750588012375,18.69351101773583,0
105.6750068226767,18.69182722096627,0
105.674725842344,18.69182348939908,0
105.6742318473993,18.69178491959572,0
105.6735835184299,18.69177233758656,0
105.6730022959651,18.69176294660756,0
105.6729962715929,18.69157546852648,0
105.6721647569523,18.69161855331852,0
105.6713795398127,18.69166174351233,0
105.6707315925076,18.69171739629368,0
105.6702522690683,18.69179679696028,0
105.6697985098152,18.6918529723003,0
105.6689999747422,18.6919519065246,0
105.6685692022065,18.69199867458032,0
105.6680047685608,18.69206676490943,0
105.6677067345797,18.69209930283787,0
105.6672043861004,18.69215370665017,0
105.6666088386838,18.69222748763229,0
105.666165525028,18.69226340025714,0
105.6661954232591,18.69241804688443,0
105.6659986515833,18.69243206075501,0
105.6657587193798,18.69088879406073,0
105.6655541444225,18.68919652690026,0
105.6654177953525,18.68782631162962,0
105.665259498849,18.68662493597533,0
105.6650072972128,18.68493809690018,0
105.6649097887683,18.68420657747628,0
105.6649312905914,18.68308923547509,0
105.6649102708445,18.68179319389174,0
105.6648399116726,18.68067174839893,0
105.6648143601016,18.67896721301237,0
105.6647901484345,18.67745831965875,0
105.664772919329,18.67671133136456,0
105.6647332451337,18.67625955749409,0
105.6646761018325,18.67489738910081,0
105.6646523028258,18.67420938275189,0
105.6646353577434,18.67359533317701,0
105.6646190108932,18.67318543436116,0
105.6646018113856,18.67295898843877,0
105.664767749627,18.67291947095874,0
105.6648536220169,18.67299860689048,0
105.6651413276708,18.67280261666021,0
105.6657467037259,18.67243359485369,0
105.6662706408876,18.67218724067375,0
105.6666382213333,18.67196030671273,0
105.6669895115744,18.67171784494454,0
105.6673673749273,18.67149362619024,0
105.6674332179997,18.67130348439263,0</coordinates>
        </LineString>
    </Placemark>
</Document>
</kml>