<?xml version="1.0" encoding="UTF-8"?>
<kml xmlns="http://www.opengis.net/kml/2.2">
<Document>
    <name>AGG.NA_DCU_DIEN_CHAU-NA_QLU_CAU_GIAT.kml</name>
    <Placemark>
        <name>AGG.NA_DCU_DIEN_CHAU-NA_QLU_CAU_GIAT</name>
        <LineString>
            <tessellate>1</tessellate>
            <coordinates>105.6005866614875,18.97709850662276,0
105.600662071268,18.9760539488023,0
105.6029393691849,18.97615628048974,0
105.6029541775797,18.97884672958697,0
105.6005260163297,18.97872765294765,0
105.6001367467222,18.97876466650764,0
105.5985867491803,18.97838834854159,0
105.5974121509391,18.97646411376903,0
105.5934708130274,18.97464438217605,0
105.5910927953012,18.9731458114248,0
105.5888076379832,18.97723539936482,0
105.5851486043638,18.9847820870082,0
105.5846683200518,18.98648177283728,0
105.5826277386877,18.98818316276329,0
105.5784609848676,18.99272867640511,0
105.5783430307959,18.99632215903035,0
105.5783552947328,19.0104421097747,0
105.5805056288768,19.01045243935543,0
105.5813632966766,19.01042432034058,0
105.5822918065714,19.01029241064287,0
105.5828185093766,19.01009602668763,0
105.5824808342963,19.01227621100367,0
105.5820164392963,19.0123309499609,0
105.5819953308598,19.0124857743576,0
105.5820011205529,19.01247648604752,0
105.5820000677334,19.01234578302948,0
105.5816235142295,19.01233434608376,0
105.5815309433575,19.01242357088901,0
105.5806322655376,19.01237007323844,0
105.5788719612595,19.01222829771578,0
105.5783073925436,19.01252308556952,0
105.5786724147793,19.01661448297818,0
105.579229001734,19.02232254887946,0
105.579499506086,19.02561645375238,0
105.579702334834,19.02868955553354,0
105.5795054807985,19.03230718388982,0
105.5799755266881,19.03485918977132,0
105.5806320636079,19.03480496265542,0
105.5808243958969,19.03746567400707,0
105.5812720692858,19.04639605793997,0
105.5816046621275,19.04628370435037,0
105.5816069850072,19.04628088627835,0
105.5818691181121,19.04659315746276,0
105.5818873060896,19.046598716986,0
105.5816225756896,19.04624289312407,0
105.5812738415825,19.04641328182087,0
105.5814118690691,19.05467889882726,0
105.5813430487958,19.05692234429687,0
105.5814776321851,19.05830041022234,0
105.5815106705139,19.05923959935263,0
105.5815893128004,19.06029017298217,0
105.5807884508082,19.06077348251671,0
105.5813815529013,19.06353238837378,0
105.5827727047909,19.06982043181503,0
105.5832995000082,19.07311051717857,0
105.5841709818669,19.07754511453107,0
105.5847114741961,19.08041004721869,0
105.5859634035445,19.07949627746746,0
105.5867809024582,19.0790641543675,0
105.5877238248174,19.08199706819631,0
105.5881011398952,19.08298954111445,0
105.588426040869,19.08390977490605,0
105.5886112443993,19.08360505165223,0
105.5886189019217,19.08367965040068,0
105.5884076098895,19.083931933621,0
105.58791741895,19.08259004168693,0
105.5867812440024,19.0791004054898,0
105.5859600866055,19.07949200482155,0
105.5847181218481,19.08039248462856,0
105.5864505031083,19.08745734102235,0
105.5925542540327,19.09833541534536,0
105.5986976868532,19.10913454738031,0
105.6022180559633,19.11560780288007,0
105.6030519644257,19.1164567894412,0
105.604927038677,19.12016922465077,0
105.6099835983179,19.12910464840164,0
105.6105327040223,19.12965468458653,0
105.6106788602385,19.13040152200022,0
105.6109490706801,19.13044558577176,0
105.6151581109737,19.1310319702351,0
105.6158286648633,19.13075791797172,0
105.615902648698,19.13060334527384,0
105.620567259101,19.13581499850758,0
105.6207363849321,19.13571484393382,0
105.6222620006653,19.1374285691998,0
105.6225453568791,19.13724421363044,0
105.6228707039393,19.13685018449584,0
105.6232296513708,19.13709309382952,0
105.6234790128503,19.13726547213632,0
105.6234162894554,19.13744196057956,0
105.6235074607266,19.13751943162354,0</coordinates>
        </LineString>
    </Placemark>
</Document>
</kml>