<?xml version="1.0" encoding="UTF-8"?>
<kml xmlns="http://www.opengis.net/kml/2.2">
<Document>
    <name>AGG.NA_VIH_ROADM_VINH_1-NA_CLO_CUA_HOI.kml</name>
    <Placemark>
        <name>AGG.NA_VIH_ROADM_VINH_1-NA_CLO_CUA_HOI</name>
        <LineString>
            <tessellate>1</tessellate>
            <coordinates>105.7515761604624,18.7666670337066,0
105.7515359999518,18.76665585071484,0
105.7520280344153,18.76639426392568,0
105.7523371297493,18.76682684344915,0
105.7523604992492,18.76693568718292,0
105.7520753147093,18.76709070533878,0
105.7515187241394,18.76752319877023,0
105.7513547642686,18.76766150210371,0
105.7519133276853,18.76829277990153,0
105.7520766708399,18.76849548635414,0
105.7526518937433,18.76911220672491,0
105.7526588375866,18.76911181440634,0
105.7522681540709,18.76957563451571,0
105.7516513368845,18.77044377646693,0
105.7510807636602,18.77114134454792,0
105.7503115928343,18.77219247501454,0
105.749473821601,18.77323862856892,0
105.7484887521365,18.7745142259447,0
105.7477397606828,18.77542245205839,0
105.7470301028824,18.77645207308341,0
105.746493525875,18.77717100257617,0
105.7454336382808,18.77864202898984,0
105.7443669679247,18.78006117496681,0
105.7441407942046,18.78038453835734,0
105.7440977468777,18.78043041183684,0
105.7439396112773,18.78038359288323,0
105.7435516029495,18.78083468943782,0
105.7435826905655,18.78111962921898,0
105.7433055062689,18.78156980525599,0
105.7429750943923,18.78201875105525,0
105.7425664830656,18.78251556286653,0
105.7421312012173,18.7829693742416,0
105.7414345656555,18.78380352139777,0
105.7409337373008,18.784435164753,0
105.7400418925677,18.78547310552831,0
105.7388191130961,18.78682377418937,0
105.7377087636519,18.78809707680698,0
105.7363629223529,18.78948938715382,0
105.7363552855214,18.78946828721529,0
105.735710775333,18.79022460389362,0
105.7349201274145,18.79113149220622,0
105.7344002466205,18.79176538316569,0
105.7334431531235,18.79290899188089,0
105.7334137923695,18.79300546668191,0
105.7331928225443,18.79281882322783,0
105.7331783722205,18.79285261436609,0
105.7328837880915,18.7931586486005,0
105.732955516454,18.79317613745698,0
105.7332446488323,18.79274864633092,0
105.7325740510766,18.79226111040106,0
105.7322707703118,18.79201021525076,0
105.7314252970777,18.79143164218795,0
105.731090438544,18.79166041375805,0
105.7306972751839,18.79214382211568,0
105.7300045926796,18.7931070828403,0
105.7291387028846,18.79422188803211,0
105.7281688918376,18.79548015734434,0
105.7273391052871,18.79655547462308,0
105.7263677089989,18.79773817927117,0
105.7259119179234,18.79838356947553,0
105.7256035236738,18.79916383996486,0
105.7253488777036,18.79922256897143,0
105.7247332643786,18.80020266077604,0
105.7239950141191,18.80168105748106,0
105.7235365078039,18.80266718399774,0
105.7225989387935,18.80450105101431,0
105.7238126990243,18.80508058074521,0
105.7234075019866,18.80581276838794,0
105.7232491611932,18.80565720052411,0
105.7232060098827,18.80576614404227,0
105.7232519129604,18.80564878494863,0
105.7222602660563,18.80514626264153,0
105.7221329811019,18.80537018225086,0
105.7217490372523,18.80617700330819,0
105.7208671444995,18.80778976804647,0
105.7209987772672,18.80782981549487,0
105.7208737949985,18.80807692164233,0
105.7200185187849,18.80959761201424,0
105.7199362207908,18.80978781549107,0
105.7197060446816,18.80962934094398,0
105.7173605228684,18.8085025598209,0
105.7169764107434,18.80829560188184,0
105.7165986209121,18.80813186894504,0
105.7154885148608,18.80794172149849,0
105.7130692739621,18.80704520003266,0
105.7121443147765,18.80672109979533,0
105.7106635597931,18.80628422858683,0
105.7087330139424,18.80574417896422,0
105.7084526821045,18.80570372541828,0
105.7084903791375,18.8064658451473,0
105.7085130502363,18.8071395957436,0
105.7085354791646,18.80777215875994,0
105.7085866106571,18.80842087639041,0
105.7085593922899,18.80925541886128,0
105.708696240761,18.81019510891203,0
105.708861319376,18.8107765705742,0
105.7090236513373,18.81160446143084,0
105.7090140534147,18.81294196849223,0
105.7089657076793,18.81395374496113,0
105.7088757487014,18.81522074012304,0
105.7088179577326,18.81590396847323,0
105.7077698055629,18.81572743413473,0
105.7044815992417,18.81523976526385,0
105.704068863614,18.8151104545606,0
105.70399356949,18.81476032405656,0
105.7039942462305,18.81463326199514,0
105.7040071737171,18.81444931191986,0
105.7040216674973,18.81444930178948,0
105.7039695808755,18.81450367646492,0
105.7038510636032,18.81443608088448,0
105.7031774263837,18.81433665356112,0
105.7018399945831,18.81357383044572,0
105.7009134849647,18.81301027593992,0
105.6999617738768,18.81255270157513,0
105.6987369150505,18.81193002583221,0
105.698474641999,18.81177778152586,0
105.698272882432,18.81149119498805,0
105.69775359721,18.81162599828033,0
105.6968379722511,18.81188980225384,0
105.6954906027664,18.81254584299024,0
105.6949449295627,18.81309211399512,0
105.69406225051,18.81301821527461,0
105.6921644485991,18.81307958550802,0
105.6905882238284,18.8132710439122,0
105.6889966886164,18.8134583511823,0
105.687510184698,18.81364693360072,0
105.6868854797144,18.81391720229345,0
105.6867589865069,18.81412919867649,0
105.6871842150182,18.81540257222004,0
105.6877268314185,18.81725644800827,0
105.688384964913,18.81872007226814,0
105.6890211163913,18.81965980475118,0
105.6893104485242,18.820328697876,0
105.6898416901667,18.82235460061543,0
105.6904143869071,18.82420203000462,0
105.6910280257356,18.82520700622834,0
105.6911115821788,18.82600969334571,0
105.691263914318,18.82726307400423,0
105.6895783050863,18.8278764832713,0
105.6894558212043,18.8279557683015,0
105.6887567177173,18.82802635277532,0
105.6884891820692,18.82792024177715,0
105.6882914683189,18.82790647350758,0
105.6877699748573,18.8278273142671,0
105.687498497366,18.82780534270093,0
105.6872508240438,18.82760387883931,0
105.686866622417,18.82727639660505,0
105.6865423279656,18.82696433454457,0
105.6863058277584,18.82665296837175,0
105.6860619836566,18.82577708493595,0
105.6858995009387,18.825262120156,0
105.685937684034,18.82513192982124,0
105.6860069923254,18.82496884890791,0
105.6861968500514,18.82449363907607,0
105.6864762619256,18.82463800111743,0
105.6864678685388,18.82478862444813,0
105.6865491286144,18.82499873155133,0
105.6865729702252,18.82502071223941,0
105.686477702109,18.82477417737543,0
105.6864814815034,18.82463257384015,0
105.6862088897033,18.82448156926904,0
105.6860489468489,18.82481074486834,0
105.6859367586257,18.82512511160862,0
105.6858964077406,18.82524513933908,0
105.6859834996638,18.82553785576242,0
105.686189701146,18.82625498525845,0
105.6863274531695,18.82666229363323,0
105.6860653561642,18.82676517363369,0
105.6858413698083,18.8267838725728,0
105.6856592395232,18.82686477100248,0
105.6853717451521,18.82700087265353,0
105.6850204531102,18.82701907345756,0
105.6846368482678,18.82699678018477,0
105.684350588441,18.82699235668234,0
105.6840759383417,18.82692216369606,0
105.6838729013353,18.82675822447053,0
105.683634462302,18.82651899266486,0
105.6834195899594,18.82639734463306,0
105.6826091830059,18.82662761227841,0
105.6815162455788,18.82692380046718,0
105.6810868822928,18.82693411857946,0
105.6802274167448,18.82691861659007,0
105.6789598374776,18.82689912573288,0
105.6782137448526,18.82694310917603,0
105.6778826048388,18.82704442311697,0
105.677508928709,18.8272454725217,0
105.6773542784645,18.82726104422762,0
105.6774480221804,18.82581200640963,0
105.6772672166767,18.82566665588365,0
105.6748118937304,18.82579585788763,0
105.6713014035619,18.82751557364247,0
105.6681669003538,18.82906524685367,0
105.6672883797829,18.82924230144273,0
105.6649500449095,18.83028484951055,0
105.6610597645103,18.83198197971707,0
105.6605094333431,18.83203788515634,0
105.660169603852,18.83213795718718,0
105.6598494545778,18.83260621928315,0
105.6595312353871,18.83294074481766,0
105.6587738725135,18.8339480837251,0
105.6570387401386,18.83398800824867,0
105.6569757451155,18.83514716670906,0
105.6568181722062,18.83545700811381,0
105.6565559796937,18.83581754661236,0
105.6555732782446,18.83661157619776,0
105.6547210183839,18.8371078474742,0
105.6542454946252,18.83711335740285,0
105.6535632156061,18.83713302029107,0
105.6524346594365,18.83765825516365,0
105.6521189890714,18.83792899977717,0
105.6516784205074,18.83795402336356,0
105.651774931619,18.83686999329411,0
105.6517596214675,18.83624244427125,0
105.6509567988939,18.83613054100571,0
105.6509690437734,18.83613965989184,0
105.6517512996825,18.83624251917964,0
105.6516875328776,18.83815120097787,0
105.6516248529228,18.83904929874732,0
105.6514974589685,18.83986130853136,0
105.6507661520266,18.83978858267018,0
105.6507069565212,18.84022335352766,0
105.6497602747294,18.84065641300662,0
105.6491450545009,18.84009323097498,0
105.6467117504156,18.83862546951958,0
105.6463321292168,18.83841879454967,0
105.6454488753121,18.8373715607217,0
105.6446835393307,18.83651453824951,0
105.643910434014,18.8355169033864,0
105.6436047186353,18.83494718551474,0
105.643155757786,18.83368881256113,0
105.6432086817799,18.83218698557874,0
105.643235281425,18.83095957322753,0
105.6433138181319,18.82974435740116,0
105.643396232079,18.82851269194347,0
105.6434387442297,18.82728843774882,0
105.6432517066791,18.82661838694137,0
105.643152308148,18.82586104947529,0
105.6438239079985,18.82526757021979,0
105.645718377175,18.82516416298386,0
105.6473673246156,18.825239276836,0
105.6501435283743,18.82483693125539,0
105.6502703047245,18.82145564810147,0
105.6502026755475,18.82017232586713,0
105.6491999914342,18.81904747167506,0
105.6514299654413,18.81782077387587,0
105.6513924818038,18.81698162684865,0
105.6522113801692,18.81693989306541,0
105.652251000266,18.81626055804193,0
105.6526620666223,18.81618416978655,0
105.6526758891793,18.81600872775603,0
105.6526269527551,18.81571850429905,0
105.6524878062583,18.81570061192765,0
105.6502098887626,18.81554421680231,0
105.6491013471265,18.81534910161169,0
105.6495468609338,18.81104457129593,0
105.649938860328,18.80666944669271,0
105.6500929599504,18.80281832610057,0
105.648265117481,18.80344889031445,0
105.6477153368499,18.80166252131,0
105.64746726167,18.80080686428893,0
105.6478396809438,18.80071590856665,0</coordinates>
        </LineString>
    </Placemark>
</Document>
</kml>