<?xml version="1.0" encoding="UTF-8"?>
<kml xmlns="http://www.opengis.net/kml/2.2">
<Document>
    <name>NA_VIH_ ROADM_VINH_1-NA_CLO_ CUA_HOI.kml</name>
    <Placemark>
        <name>Tuyen_Cap_Chuan_Hoa</name>
        <LineString>
            <tessellate>1</tessellate>
            <coordinates>105.6839872839855,18.67045949350537,0
105.6836437251758,18.6701838866175,0
105.6836708018728,18.66987539336943,0
105.6836001715706,18.66973466900774,0
105.6830104964269,18.6695390653779,0
105.6824640579243,18.66933308674701,0
105.6802783704698,18.66864167777494,0
105.6809571049208,18.66724844167151,0
105.68123529454,18.66672530670403,0
105.6817883685037,18.66675172000287,0
105.6825508734165,18.66673145003194,0
105.6831385424686,18.66669340339454,0
105.6831727233882,18.6665580280923,0
105.682993469961,18.66596369895226,0
105.6834463851791,18.6658905921772,0
105.6836606154666,18.66573916861038,0
105.683655609037,18.66551958596869,0
105.6861291563918,18.66543762076501,0
105.6868798210619,18.6654205835281,0
105.688801601911,18.66523005227847,0
105.6888207823692,18.66504995586338,0
105.6888402182625,18.66486194605004,0
105.6886835987803,18.6643974595644,0
105.6889227045531,18.66403268356855,0
105.6889782227254,18.66370881179164,0
105.6892277074106,18.66324465682474,0
105.6892830594469,18.66315778330496,0
105.6906180563339,18.6641471409841,0
105.6915463734113,18.66486468786802,0
105.6924408544105,18.66559827879595,0
105.6926080798405,18.66595626802768,0
105.6927957149932,18.66767801169174,0
105.6928559658038,18.66947367500449,0
105.6929768939431,18.67063060993271,0
105.6932493175114,18.67183727671154,0
105.6934432470281,18.67179153373621,0
105.6934973279558,18.67199492523234,0
105.6957084718319,18.67193847035648,0
105.6978854677932,18.67194880537518,0
105.7006870265527,18.67191634856085,0
105.7023613647339,18.67191415762585,0
105.7057284751917,18.67180710895861,0
105.7079760450596,18.67184397297396,0
105.7093752642959,18.67185140879158,0
105.709372618617,18.67143759657815,0
105.7101123677992,18.67109518035235,0
105.7108229380535,18.6704356001667,0
105.7118048142769,18.66958302304116,0
105.7120960684843,18.66926706539418,0
105.7125283313663,18.66935031228826,0
105.7135737239308,18.67023663141099,0
105.7164337819192,18.6727774352584,0
105.7183631757393,18.67443463702368,0
105.7202012389676,18.67623939041825,0
105.7214681901153,18.67729342090852,0
105.7215065068862,18.67794671600471,0
105.7217123463202,18.67815711220883,0
105.7219892230777,18.67833104863086,0
105.7233061505092,18.67884847286826,0
105.7242846163224,18.67930239984503,0
105.7252940689102,18.68021215274831,0
105.7291741890422,18.6822566850579,0
105.7305641012074,18.68306755584467,0
105.7314063716681,18.67975028126742,0
105.7330067846415,18.67918520434329,0
105.7338068222839,18.67888249536926,0
105.7337662150425,18.6788511877211,0
105.7343836396592,18.68058912238077,0
105.7349272268312,18.68247267251409,0
105.7357074837313,18.68415599316255,0
105.7378106403409,18.6830679349952,0
105.7394950909778,18.682120142854,0
105.7404219737898,18.68150510145527,0
105.7405885693309,18.6817385335892,0
105.7409455210834,18.68200957582953,0
105.7421243523192,18.68308190192431,0
105.7429663294879,18.68456062411391,0
105.7440110441977,18.68687220844752,0
105.7437943582993,18.68703898594558,0
105.7448830334694,18.68791827814664,0
105.7452897849359,18.68848542727312,0
105.7466772553559,18.69145972302995,0
105.7472092478402,18.69239475076741,0
105.7470868063878,18.69576252172146,0
105.7469981450182,18.69679879975786,0
105.746352095048,18.6968645601806,0
105.744590257669,18.69812549865925,0
105.7435232691347,18.69899861030421,0
105.7423075202213,18.70018969937661,0
105.7435526697377,18.70182334735899,0
105.7443387469829,18.70434031430083,0
105.7445807469974,18.70714796898889,0
105.7454184634458,18.70959608724027,0
105.7458606676629,18.71228803927374,0
105.7463384341032,18.7138004728181,0
105.7467639654153,18.71440766015208,0
105.7457836880502,18.71733828582372,0
105.7453587751618,18.71812576469084,0
105.7451440017739,18.72027536210327,0
105.7450098383751,18.72100910388903,0
105.744905720074,18.72126789293846,0
105.7430291970562,18.72304120810967,0
105.7410610987947,18.72470063614516,0
105.7410979258462,18.72495530394996,0
105.7425907834722,18.72524358057208,0
105.7425126249483,18.72713501022664,0
105.7422754744568,18.72716860994818,0
105.7421576069738,18.72884498268682,0
105.7424185517433,18.72875556627671,0
105.7422676636554,18.73060985091991,0
105.742098937842,18.73116098053317,0
105.7417137051517,18.73183692965688,0
105.7408468632333,18.73304237816284,0
105.7391394237108,18.73582160352073,0
105.7380793445705,18.73822891498104,0
105.7373718552804,18.73976879093249,0
105.7368514248548,18.74049698582068,0
105.7369214695096,18.74080247604868,0
105.7361022511429,18.74308711779603,0
105.7357816582936,18.74470321773607,0
105.7356104459692,18.74559477576512,0
105.735462952356,18.74691690475746,0
105.7356839159633,18.74862681035099,0
105.7356859499446,18.74863035768316,0
105.7354808650859,18.74864200090674,0
105.7353282227784,18.74878625452253,0
105.7349997080298,18.74926052689545,0
105.7345435555351,18.74985225631358,0
105.7341519912091,18.75037441682917,0
105.7337748841285,18.75072737164313,0
105.7338295920586,18.75103476147741,0
105.7338587502579,18.75138355349836,0
105.7340238918967,18.75188657526204,0
105.7353472492545,18.75385606693341,0
105.7359572235523,18.75593050312937,0
105.7361196079353,18.75596607142133,0
105.7366798715036,18.75682026701567,0
105.7373143913162,18.75742293350875,0
105.7379099658676,18.75802416230548,0
105.7391598670253,18.75865585757013,0
105.7401730265945,18.75934212502699,0
105.7406726092255,18.75990624875085,0
105.7410350134254,18.75991309431511,0
105.7424588554967,18.76006733421035,0
105.7441713449812,18.76037041327431,0
105.7452014596819,18.76063562551654,0
105.7455916049173,18.76084420584633,0
105.7461933326578,18.76139905329953,0
105.7475426819062,18.76318872597275,0
105.7488134827474,18.76470386058961,0
105.7493988104649,18.76536941624137,0
105.7504861282381,18.76667198514726,0
105.7511581433431,18.76614223724651,0
105.7514328576839,18.76583453389743,0
105.7515664525836,18.76588422440714,0
105.7520182273766,18.76642984380696,0
105.7517112585311,18.7666679711724,0</coordinates>
        </LineString>
    </Placemark>
</Document>
</kml>