<?xml version="1.0" encoding="UTF-8"?>
<kml xmlns="http://www.opengis.net/kml/2.2">
<Document>
    <name>AGG-4.4-NANHNN11_MTC-NANVIH21_LienTinh.kml</name>
    <Placemark>
        <name>Tuyen_Cap_Chuan_Hoa</name>
        <LineString>
            <tessellate>1</tessellate>
            <coordinates>105.6674266779235,18.67127476715274,0
105.6673817154358,18.67141780473627,0
105.6673309174932,18.67149316029984,0
105.6665983385097,18.67196674067078,0
105.6661182023431,18.67146888133412,0
105.665573457061,18.67089428292005,0
105.6654231147312,18.67060859518908,0
105.6652485161579,18.67041990705462,0
105.6648669882999,18.67035083649296,0
105.6619758741222,18.67041080806452,0
105.6616071977622,18.67045756986279,0
105.6612222718934,18.67043036639322,0
105.6609407480517,18.67049334460311,0
105.6606331652531,18.67038730059983,0
105.6577689223468,18.66848663362741,0
105.6577533520242,18.66738948901719,0
105.6559807030172,18.66745543903063,0
105.6519960759721,18.66784552773975,0
105.6491937985336,18.66647756033854,0
105.6482456189136,18.66613968086061,0
105.6452152448002,18.66711415092474,0
105.6390752795546,18.6691147410056,0
105.6389397447981,18.66896331618003,0
105.6371949899265,18.66954329962197,0
105.6371258787981,18.66956158101705,0
105.6371128251093,18.66952263325131,0
105.6371728625396,18.66949521137388,0
105.6367539944197,18.66967354323136,0
105.6356364586297,18.67001406642712,0
105.6342374327487,18.67041399594879,0
105.6342638152885,18.67062189710251,0
105.6341092544524,18.67069598428015,0
105.6341095989523,18.67132910258734,0
105.6343124553606,18.6713983735529,0
105.6343326870589,18.67130338188657,0</coordinates>
        </LineString>
    </Placemark>
</Document>
</kml>