<?xml version="1.0" encoding="UTF-8"?>
<kml xmlns="http://www.opengis.net/kml/2.2">
<Document>
    <name>NA_HMA_ QUYNH_XUAN-NA_YTH_ HOA_THANH.kml</name>
    <Placemark>
        <name>Tuyen_Cap_Chuan_Hoa</name>
        <LineString>
            <tessellate>1</tessellate>
            <coordinates>105.4968774840044,18.99936699775163,0
105.4966535019081,18.99924554147499,0
105.4967445896377,18.99901822160748,0
105.4969699458684,18.99913232812648,0
105.497261155695,18.99928633419977,0
105.4978783476171,18.99961983337407,0
105.497959542226,18.99973196952678,0
105.497724200251,19.00010222355511,0
105.4970162737491,19.0012350089316,0
105.4968526788308,19.00140172971574,0
105.4975022707443,19.00160988669054,0
105.4977830894819,19.00174021599005,0
105.4984288205811,19.00248204204696,0
105.4991831837622,19.00334525251506,0
105.4999721573805,19.00414244098291,0
105.5009617498025,19.00479510902805,0
105.5013632170948,19.00473789279639,0
105.5023273495724,19.00508875804099,0
105.5045342204262,19.00566377364754,0
105.5069648195793,19.00612543076404,0
105.5078641155768,19.00651659382585,0
105.509579977583,19.00678259724425,0
105.5095474214122,19.00733954085251,0
105.509321010039,19.00760968548711,0
105.5093977550773,19.00785600369121,0
105.5096363951244,19.00806274222814,0
105.5097235305523,19.00854175704534,0
105.5115410853298,19.00829400148048,0
105.5133257030561,19.00806761938238,0
105.5133019571254,19.00865463328851,0
105.512568991946,19.01391651941299,0
105.5121206145366,19.01624936350494,0
105.5121039012158,19.01623749247027,0
105.5116737516795,19.01938007563859,0
105.511214718382,19.02324293056679,0
105.5105251540548,19.02734446171769,0
105.5116812293885,19.03166467080401,0
105.5124577930876,19.0344061830066,0
105.5155300458682,19.03646626955314,0
105.51911514019,19.0377212836778,0
105.5245440968372,19.04530019638076,0
105.5292965611201,19.05186656469457,0
105.5296786713865,19.05787606388652,0
105.5345252142512,19.06512648226671,0
105.5410281095019,19.06883713223861,0
105.541185591043,19.07312833875717,0
105.5403768708254,19.08666630015428,0
105.5402126499631,19.09233952409957,0
105.5400392301659,19.09502465032534,0
105.5397206742376,19.09518042649674,0
105.5401579948267,19.10089792085068,0
105.5391204925374,19.10214548110289,0
105.5346997886596,19.10525674146079,0
105.5347305407945,19.10533262499159,0
105.5320847831815,19.10677642110856,0
105.529787224447,19.11010240722354,0
105.5284669701374,19.11190491710738,0
105.5333168784245,19.11560512402924,0
105.5339345432162,19.11566014716044,0
105.5341278629455,19.11578161865648,0
105.5339922113446,19.11608477269214,0
105.5340762862751,19.11643182582314,0
105.5342746913071,19.11662173693529,0
105.5343344796576,19.1181691891285,0
105.537422514453,19.11824738935811,0
105.5413985834135,19.11839819896685,0
105.541919713109,19.12029640377675,0
105.5420448785779,19.12035435635709,0
105.5416915822899,19.1204867547812,0
105.5389887870633,19.12198013273131,0
105.5405010568951,19.12586812952853,0
105.5409181351926,19.12673387958838,0
105.5409176446474,19.12674636492459,0
105.5412645290378,19.12767982611173,0
105.5422538943295,19.13009758006137,0
105.5431814124833,19.13244917570148,0
105.5472963609443,19.13105870287267,0
105.553925186245,19.12888373429497,0
105.5529810061678,19.1318731922991,0
105.5515757809889,19.13642946523187,0
105.550531705453,19.13987528334723,0
105.5492028956388,19.1446308550442,0
105.5491995343228,19.14461407810908,0
105.5479446140707,19.14903511849364,0
105.5499812239067,19.15066446249104,0
105.5501594681721,19.15086212467389,0
105.550122550399,19.15124580507569,0
105.5534253619954,19.15465578416814,0
105.5541737323003,19.15558650659541,0
105.5547946117421,19.15729960153991,0
105.5550895253522,19.15772831359061,0
105.5552568601382,19.15888075712483,0
105.5553540980653,19.15980831380241,0
105.5555878934131,19.15992382347725,0
105.5557682431367,19.1599998998375,0
105.5562101778054,19.15961553623931,0
105.5569266920538,19.15970085077076,0
105.5572689990203,19.15974290014599,0
105.5581728480974,19.15973566807702,0
105.5587782002505,19.15945531470646,0
105.5596008384461,19.15932333757099,0
105.5601445827627,19.15930214760339,0
105.5605736701598,19.15926703890403,0
105.5606397571363,19.15999678078546,0
105.5605113636964,19.1604446445941,0
105.5602630713956,19.16520410929368,0
105.5601759802849,19.16806163936293,0
105.5602701750577,19.16838957700978,0
105.5614154806168,19.16775024559545,0
105.5626331080644,19.1672334766963,0
105.5635829513328,19.16683592754351,0
105.5656505413464,19.16597260140509,0
105.5680701643571,19.16505416209669,0
105.5695877295432,19.16437183448256,0
105.5719488139244,19.16984969712404,0
105.5742228733821,19.17494639761263,0
105.5753909847959,19.177860799552,0
105.5812131916374,19.18005721345753,0
105.5856470921597,19.17904610755568,0
105.5856329195947,19.17902738355086,0
105.5941445637889,19.17736817710841,0
105.5953003710861,19.17702375996118,0
105.5955952893479,19.17761965687134,0
105.5967916217948,19.17794385252511,0
105.5985039611911,19.17847278968536,0
105.6010873579653,19.17901398436716,0
105.6034205554349,19.17720880690727,0
105.6042389299871,19.17557772257158,0
105.6057404270031,19.172327131641,0
105.6077462593447,19.16860785459625,0
105.6074477529147,19.16834974593167,0
105.6078884987357,19.16770620777089,0
105.6083027252665,19.16693869140757,0
105.60879588294,19.16600165188654,0
105.6090015943039,19.16542687302786,0
105.609308003668,19.16462059320915,0
105.6094234311817,19.16418123990985,0
105.6095799043368,19.16415624882634,0
105.6096925247378,19.16360945488194,0
105.6097436416468,19.16297674903679,0
105.6097428944783,19.16297580879519,0
105.6102069966039,19.16093619440469,0
105.6104969259775,19.15964039927542,0
105.6118303447991,19.1593251926782,0
105.6127551786243,19.158378096619,0
105.6137986729789,19.15806795694562,0
105.6146195360715,19.15792127736329,0
105.6151697220497,19.15785336263396,0
105.6150590590674,19.15766439110351,0
105.6148512381142,19.15746195889129,0
105.6161370597744,19.1569935991291,0
105.61878339643,19.1563315807155,0
105.6201550156437,19.15553361132529,0
105.620333092855,19.15661659099047,0
105.6208008762588,19.15868087182724,0
105.6211404945338,19.16132209354636,0
105.6217438424718,19.16445361704006,0
105.6238124136665,19.17108682039277,0
105.6216624814389,19.17377428619558,0
105.6218071411345,19.17386358000854,0
105.6218004554794,19.17386639163858,0
105.6272053477916,19.17754974455496,0
105.6347735039232,19.18205258399852,0
105.6406463394743,19.18609176030229,0
105.6481213654676,19.19069344191622,0
105.65606175471,19.19632960281414,0
105.6560661425076,19.19633973738222,0
105.6627898314217,19.20075716443553,0
105.6679909765776,19.20427838274052,0
105.6713944150337,19.20787579238073,0
105.6739028636677,19.21035981600956,0
105.6758330132478,19.2123279889116,0
105.6789167748859,19.21593350674218,0
105.6809924502225,19.21627334982759,0
105.6815180560022,19.21629705012476,0
105.6821077346131,19.21638005125885,0
105.6825916439607,19.2164796917549,0
105.6833959703676,19.21656668242046,0
105.6834152569349,19.2165703439493,0
105.6834161694478,19.21657213897052,0
105.6837370292437,19.21656521429487,0
105.6852160421163,19.2146384492689,0
105.6853598084818,19.21384183439952,0
105.6854536001581,19.21324482464938,0
105.6858491937787,19.21317920310664,0
105.6856857082884,19.21290941376591,0
105.6859024668662,19.21287721225459,0
105.6861862445371,19.21350023688603,0
105.686467971766,19.21404934095229,0
105.6870691247807,19.21369622614538,0
105.6873839977718,19.2135540897376,0
105.6878937394377,19.21329634680683,0
105.6883713428664,19.21295453546796,0</coordinates>
        </LineString>
    </Placemark>
</Document>
</kml>