<?xml version="1.0" encoding="UTF-8"?>
<kml xmlns="http://www.opengis.net/kml/2.2">
<Document>
    <name>NA_VIH_ROADM_VINH_1-NA_VIH_NGUYEN_CANH_HOAN.kml</name>
    <Placemark>
        <name>Tuyen_Cap_Chuan_Hoa</name>
        <LineString>
            <tessellate>1</tessellate>
            <coordinates>105.6720402104803,18.69135592033592,0
105.6721047817718,18.69168422932064,0
105.6727278276384,18.69163345087582,0
105.672898846222,18.69178581066849,0
105.6747385143349,18.69180208592422,0
105.6747799381955,18.69149051942729,0
105.6746541627477,18.68842507239514,0
105.6745563939104,18.68672554873198,0
105.6748836468035,18.68671767126594,0
105.6747452311781,18.68488375558211,0
105.6746852066882,18.68282899847492,0
105.6745709323683,18.68004344535611,0
105.6745657051394,18.67803011888751,0
105.6760613040678,18.67674215502744,0
105.6765421351186,18.67663329693265,0
105.6770273097964,18.67641313650307,0
105.6772730228237,18.67631188391277,0
105.6779364705732,18.67627375488519,0
105.681187308963,18.67625612670815,0
105.6814695126131,18.67615516943738,0
105.6829841196913,18.67615808472951,0
105.6849059833845,18.67613869971977,0
105.6852716246698,18.67541785391769,0
105.6854881119104,18.67491824091866,0
105.6859049287367,18.67432861036096,0
105.6859814078667,18.67438370283006,0
105.6864277092722,18.67376565513932,0
105.6866825158678,18.67314295380039,0
105.6867966524744,18.67293756708947,0
105.6863754846356,18.67283165178381,0
105.685950935311,18.67261962517632,0
105.6858421866222,18.67256642571878,0
105.6854575913818,18.67227248059665,0
105.6853189434428,18.67211553415662,0
105.6846680475883,18.67159988693031,0
105.6847592123421,18.67104933467038,0
105.6842698181316,18.6708509856575,0
105.6843792156433,18.670516140732,0
105.6841161226127,18.67046267263387,0
105.6839743779911,18.67045385014559,0</coordinates>
        </LineString>
    </Placemark>
</Document>
</kml>