<?xml version="1.0" encoding="UTF-8"?>
<kml xmlns="http://www.opengis.net/kml/2.2">
<Document>
    <name>NA_NLC_NGHI_THUAN_2-NA_DCU_ DIEN_CHAU.kml</name>
    <Placemark>
        <name>Tuyen_Cap_Chuan_Hoa</name>
        <LineString>
            <tessellate>1</tessellate>
            <coordinates>105.6478211972721,18.80067321840479,0
105.6474579228545,18.80082016482307,0
105.648250917309,18.80345120147001,0
105.6500123326479,18.80290424074061,0
105.6500043254189,18.80504287887321,0
105.6497695147848,18.80885411274704,0
105.6496093313483,18.81087739654016,0
105.6490740438641,18.81535522166345,0
105.6501999787331,18.81550436608651,0
105.6508688111268,18.81552752248225,0
105.65194810382,18.81560557708594,0
105.6526583878367,18.8156931576061,0
105.6526603507786,18.81613758321864,0
105.652373065999,18.81620670714302,0
105.6522081551847,18.81689137289771,0
105.6514733716749,18.81691413121435,0
105.6515101828969,18.81745380123797,0
105.6515998513726,18.81777271780139,0
105.6510867382875,18.81802859020279,0
105.6507234934729,18.81821335182613,0
105.6506529459752,18.81851674667461,0
105.650189326451,18.81870694180854,0
105.6492191193513,18.81914713815718,0
105.650410059891,18.82054477973855,0
105.6502002297977,18.82481448506127,0
105.649174914689,18.82506164077041,0
105.6467288619895,18.82507420562165,0
105.6450366193169,18.8250265390932,0
105.6445131650476,18.82503011745238,0
105.6437123051508,18.82506151126142,0
105.643452563403,18.82707531190313,0
105.6435233623271,18.82834492161411,0
105.6432561103771,18.8313344556828,0
105.6432123070022,18.83362109495527,0
105.6442591286475,18.83606498341355,0
105.6460590124596,18.83809425914189,0
105.6497142228138,18.84051475353952,0
105.6499751748033,18.84435593763678,0
105.6487578575452,18.84641997664826,0
105.6478920106883,18.84805547681121,0
105.64837991711,18.85097914752899,0
105.6483872287864,18.85095961468882,0
105.6485190385849,18.85198411795684,0
105.6484054758426,18.85301605885436,0
105.6484403890794,18.8536127381325,0
105.6487980017283,18.85446998929899,0
105.6494454872588,18.85587153575285,0
105.6497868289974,18.85657728670424,0
105.6493491759013,18.85723159735204,0
105.6487331524043,18.85799762450114,0
105.6477781888573,18.85870821695717,0
105.6472750509317,18.85936397630491,0
105.6468123746784,18.86025373465399,0
105.6463373329882,18.86085234544018,0
105.6455578112807,18.86126850016377,0
105.6441433238269,18.86157821478571,0
105.6428840823441,18.86194618188713,0
105.6398253044504,18.86324664542966,0
105.6366249248463,18.86444188641508,0
105.6328400329381,18.8660713273934,0
105.6268668757977,18.86908413249093,0
105.6230905011553,18.870961151792,0
105.6205104475428,18.87250961755162,0
105.6173195023032,18.87410009193573,0
105.6163784538926,18.87470109074072,0
105.6114980021825,18.87582662550853,0
105.6086618186087,18.87679053419953,0
105.6060624395155,18.87751505067782,0
105.6036157232289,18.87860471103943,0
105.6002140490193,18.87998301810353,0
105.6000198160379,18.88234665642886,0
105.6001555155046,18.88390758794984,0
105.5996661746421,18.88615691653428,0
105.5998194330819,18.89072933198286,0
105.5995983078703,18.89384811954702,0
105.5991840589639,18.90326297986142,0
105.5993792921162,18.90452017987915,0
105.6001477939011,18.91030845141871,0
105.6008394117745,18.91397631316081,0
105.600902765823,18.91599291913153,0
105.6029381559025,18.91968466401783,0
105.6049326257969,18.9228253428116,0
105.6057331427064,18.92467460682864,0
105.6042917836136,18.93373969377728,0
105.602473341881,18.9471971323575,0
105.6011868261647,18.95561318111445,0
105.6000949263918,18.96324816385084,0
105.5982536958267,18.96444421917955,0
105.5947783496673,18.96740574949047,0
105.5938558168198,18.9680913110232,0
105.5931342913536,18.96866796726117,0
105.5928140588893,18.96884451795753,0
105.5925311521319,18.96931539943188,0
105.5923297600743,18.96965541884093,0
105.5922328816145,18.97038696554032,0
105.5923603299192,18.97062392543827,0
105.5920246235447,18.97149198602742,0
105.5928758234305,18.97154808535711,0
105.5930950388222,18.97164257833698,0
105.5938111223103,18.97208721859836,0
105.5951691830712,18.97221771461188,0
105.5969031541062,18.97254314139651,0
105.5970397647439,18.9716139693133,0
105.5970511003514,18.97161024073768,0
105.5971102618377,18.97090641696594,0
105.5972220452433,18.97080128259213,0
105.5977668619352,18.97091126658045,0
105.5986669797794,18.9709761335243,0
105.5998464036576,18.97097856919899,0
105.5998210752844,18.97111580445326,0
105.599769109779,18.97192548988992,0
105.5996320639024,18.97260714236297,0
105.5996036505081,18.97382440901255,0
105.6008168696476,18.97392402114833,0
105.6007636339362,18.97564745002194,0
105.6006339078357,18.97623577401901,0
105.6006463633786,18.97689353934352,0
105.6004392984792,18.97688595782583,0
105.6004300894518,18.97695248545835,0</coordinates>
        </LineString>
    </Placemark>
</Document>
</kml>