<?xml version="1.0" encoding="UTF-8"?>
<kml xmlns="http://www.opengis.net/kml/2.2">
<Document>
    <name>AGG.NA_DCU_DIEN_CHAU-NA_VIH_ROADM_VINH_1.kml</name>
    <Placemark>
        <name>AGG.NA_DCU_DIEN_CHAU-NA_VIH_ROADM_VINH_1</name>
        <LineString>
            <tessellate>1</tessellate>
            <coordinates>105.6839743779911,18.67045385014559,0
105.6841161226127,18.67046267263387,0
105.6843792156433,18.670516140732,0
105.6842698181316,18.6708509856575,0
105.6847592123421,18.67104933467038,0
105.6846680475883,18.67159988693031,0
105.6853189434428,18.67211553415662,0
105.6854575913818,18.67227248059665,0
105.6858421866222,18.67256642571878,0
105.685950935311,18.67261962517632,0
105.6863754846356,18.67283165178381,0
105.6867966524744,18.67293756708947,0
105.6866825158678,18.67314295380039,0
105.6864277092722,18.67376565513932,0
105.6859814078667,18.67438370283006,0
105.6859049287367,18.67432861036096,0
105.6854881119104,18.67491824091866,0
105.6852716246698,18.67541785391769,0
105.6849059833845,18.67613869971977,0
105.6829841196913,18.67615808472951,0
105.6814695126131,18.67615516943738,0
105.681187308963,18.67625612670815,0
105.6779364705732,18.67627375488519,0
105.6772730228237,18.67631188391277,0
105.6770273097964,18.67641313650307,0
105.6765421351186,18.67663329693265,0
105.6760613040678,18.67674215502744,0
105.6745657051394,18.67803011888751,0
105.6745709323683,18.68004344535611,0
105.6746852066882,18.68282899847492,0
105.6747452311781,18.68488375558211,0
105.6748836468035,18.68671767126594,0
105.6745563939104,18.68672554873198,0
105.6746541627477,18.68842507239514,0
105.6747799381955,18.69149051942729,0
105.6747385143349,18.69180208592422,0
105.672898846222,18.69178581066849,0
105.6727278276384,18.69163345087582,0
105.6721047817718,18.69168422932064,0
105.6720402104803,18.69135592033592,0
105.6720478606613,18.69137492664078,0
105.6720296448009,18.69163355997258,0
105.6709292628965,18.69172965542253,0
105.669734457331,18.6918989861473,0
105.6659343216743,18.69229987887769,0
105.6655834751027,18.68895728019209,0
105.6649919378438,18.68454892157255,0
105.6649287725875,18.68147070939452,0
105.664684875893,18.681109197862,0
105.6622679377915,18.68117758474822,0
105.6614869187088,18.68231388349618,0
105.6590690735501,18.68610993355298,0
105.6563702285302,18.69093468528833,0
105.6543961413959,18.6929988815342,0
105.6530609118716,18.69514264830904,0
105.6532442341306,18.69523257907825,0
105.6532824733422,18.6952322727885,0
105.651589286981,18.69801161605065,0
105.6513452929264,18.69802676495225,0
105.6511300056542,18.69835950713555,0
105.6509775582423,18.69853075576795,0
105.6503002559339,18.69816375871313,0
105.6492510870963,18.69776693714616,0
105.6488213107061,18.69853541165071,0
105.644896445838,18.69793523527864,0
105.6425007705603,18.70805863306853,0
105.6409482377491,18.71237727436235,0
105.6394190645112,18.71692801937292,0
105.6384951117269,18.71914937884414,0
105.6368139467783,18.72213155537696,0
105.6353907633485,18.72478207437618,0
105.6353706993675,18.72472699128755,0
105.6337032248178,18.7280597634946,0
105.6327340634384,18.72963818029467,0
105.63143261736,18.73164789900269,0
105.6296538975951,18.73734575065644,0
105.6289064821118,18.73978821585886,0
105.62770685068,18.7467761472962,0
105.6262635749343,18.75001478240423,0
105.6260217491667,18.75278471739691,0
105.6249615503488,18.75545847202429,0
105.6249461289977,18.75559638816974,0
105.6213123117811,18.76643083684194,0
105.6205415549457,18.76925385208533,0
105.6213247950785,18.77596656241435,0
105.6219782718414,18.7787542642926,0
105.6225432960158,18.78067406995165,0
105.623069965894,18.78458126565732,0
105.6231848194494,18.78459778161563,0
105.623405819633,18.78452780180494,0
105.6236149334971,18.7844702635487,0
105.6238166011974,18.78691553935295,0
105.6235030336752,18.78683400725151,0
105.6236104814555,18.78744037042815,0
105.623702189994,18.7878547953165,0
105.6238312182906,18.78848547538946,0
105.6238388909742,18.78848948684044,0
105.6238479861353,18.78857237214719,0
105.623736632174,18.78852769958759,0
105.623561234898,18.78858139134562,0
105.623241701449,18.78866070752883,0
105.6230597092899,18.78878126792995,0
105.6232912173324,18.78958727945026,0
105.6238520778979,18.7894938122272,0
105.6241098838134,18.79243003499942,0
105.6243190400027,18.79490079077657,0
105.6242422294175,18.79710799586769,0
105.6242133529541,18.79769413215285,0
105.6249410364227,18.79775782751243,0
105.6262546858339,18.79744557605755,0
105.6262173850397,18.79752380271336,0
105.6265259515411,18.79879820757759,0
105.6266198511393,18.79959297794485,0
105.6271680347413,18.79965988074269,0
105.6304746225101,18.80088102388925,0
105.6314024590957,18.80102967613377,0
105.6344583912194,18.80228912604358,0
105.6338453325927,18.80622572151482,0
105.6337663873683,18.80696206095707,0
105.6326494899687,18.80727735788217,0
105.6332113939317,18.80882252005576,0
105.6332029831893,18.80910814045809,0
105.6335082595684,18.8091122936113,0
105.636538468324,18.80795796962454,0
105.6397720555252,18.80665100311466,0
105.6411891664417,18.80597380958131,0
105.6413558174418,18.80581364586667,0
105.6414113955744,18.80576996855262,0
105.6436596487197,18.80498339103822,0
105.6425746775447,18.80203192140587,0
105.644227465505,18.80144779088056,0
105.6445027424287,18.80129734280288,0
105.6449003113805,18.80107362687752,0
105.6454671306505,18.80065529539342,0
105.6460255992481,18.80023687459,0
105.6462634368456,18.8001978785541,0
105.6471962900601,18.79998250393526,0
105.6473157332484,18.80033968535058,0
105.6474574888243,18.80079293705711,0
105.6478759509419,18.80069195789823,0
105.6478211972721,18.80067321840479,0
105.6474579228545,18.80082016482307,0
105.648250917309,18.80345120147001,0
105.6500123326479,18.80290424074061,0
105.6500043254189,18.80504287887321,0
105.6497695147848,18.80885411274704,0
105.6496093313483,18.81087739654016,0
105.6490740438641,18.81535522166345,0
105.6501999787331,18.81550436608651,0
105.6508688111268,18.81552752248225,0
105.65194810382,18.81560557708594,0
105.6526583878367,18.8156931576061,0
105.6526603507786,18.81613758321864,0
105.652373065999,18.81620670714302,0
105.6522081551847,18.81689137289771,0
105.6514733716749,18.81691413121435,0
105.6515101828969,18.81745380123797,0
105.6515998513726,18.81777271780139,0
105.6510867382875,18.81802859020279,0
105.6507234934729,18.81821335182613,0
105.6506529459752,18.81851674667461,0
105.650189326451,18.81870694180854,0
105.6492191193513,18.81914713815718,0
105.650410059891,18.82054477973855,0
105.6502002297977,18.82481448506127,0
105.649174914689,18.82506164077041,0
105.6467288619895,18.82507420562165,0
105.6450366193169,18.8250265390932,0
105.6445131650476,18.82503011745238,0
105.6437123051508,18.82506151126142,0
105.643452563403,18.82707531190313,0
105.6435233623271,18.82834492161411,0
105.6432561103771,18.8313344556828,0
105.6432123070022,18.83362109495527,0
105.6442591286475,18.83606498341355,0
105.6460590124596,18.83809425914189,0
105.6497142228138,18.84051475353952,0
105.6499751748033,18.84435593763678,0
105.6487578575452,18.84641997664826,0
105.6478920106883,18.84805547681121,0
105.64837991711,18.85097914752899,0
105.6483872287864,18.85095961468882,0
105.6485190385849,18.85198411795684,0
105.6484054758426,18.85301605885436,0
105.6484403890794,18.8536127381325,0
105.6487980017283,18.85446998929899,0
105.6494454872588,18.85587153575285,0
105.6497868289974,18.85657728670424,0
105.6493491759013,18.85723159735204,0
105.6487331524043,18.85799762450114,0
105.6477781888573,18.85870821695717,0
105.6472750509317,18.85936397630491,0
105.6468123746784,18.86025373465399,0
105.6463373329882,18.86085234544018,0
105.6455578112807,18.86126850016377,0
105.6441433238269,18.86157821478571,0
105.6428840823441,18.86194618188713,0
105.6398253044504,18.86324664542966,0
105.6366249248463,18.86444188641508,0
105.6328400329381,18.8660713273934,0
105.6268668757977,18.86908413249093,0
105.6230905011553,18.870961151792,0
105.6205104475428,18.87250961755162,0
105.6173195023032,18.87410009193573,0
105.6163784538926,18.87470109074072,0
105.6114980021825,18.87582662550853,0
105.6086618186087,18.87679053419953,0
105.6060624395155,18.87751505067782,0
105.6036157232289,18.87860471103943,0
105.6002140490193,18.87998301810353,0
105.6000198160379,18.88234665642886,0
105.6001555155046,18.88390758794984,0
105.5996661746421,18.88615691653428,0
105.5998194330819,18.89072933198286,0
105.5995983078703,18.89384811954702,0
105.5991840589639,18.90326297986142,0
105.5993792921162,18.90452017987915,0
105.6001477939011,18.91030845141871,0
105.6008394117745,18.91397631316081,0
105.600902765823,18.91599291913153,0
105.6029381559025,18.91968466401783,0
105.6049326257969,18.9228253428116,0
105.6057331427064,18.92467460682864,0
105.6042917836136,18.93373969377728,0
105.602473341881,18.9471971323575,0
105.6011868261647,18.95561318111445,0
105.6000949263918,18.96324816385084,0
105.5982536958267,18.96444421917955,0
105.5947783496673,18.96740574949047,0
105.5938558168198,18.9680913110232,0
105.5931342913536,18.96866796726117,0
105.5928140588893,18.96884451795753,0
105.5925311521319,18.96931539943188,0
105.5923297600743,18.96965541884093,0
105.5922328816145,18.97038696554032,0
105.5923603299192,18.97062392543827,0
105.5920246235447,18.97149198602742,0
105.5928758234305,18.97154808535711,0
105.5930950388222,18.97164257833698,0
105.5938111223103,18.97208721859836,0
105.5951691830712,18.97221771461188,0
105.5969031541062,18.97254314139651,0
105.5970397647439,18.9716139693133,0
105.5970511003514,18.97161024073768,0
105.5971102618377,18.97090641696594,0
105.5972220452433,18.97080128259213,0
105.5977668619352,18.97091126658045,0
105.5986669797794,18.9709761335243,0
105.5998464036576,18.97097856919899,0
105.5998210752844,18.97111580445326,0
105.599769109779,18.97192548988992,0
105.5996320639024,18.97260714236297,0
105.5996036505081,18.97382440901255,0
105.6008168696476,18.97392402114833,0
105.6007636339362,18.97564745002194,0
105.6006339078357,18.97623577401901,0
105.6006463633786,18.97689353934352,0
105.6004392984792,18.97688595782583,0
105.6004300894518,18.97695248545835,0</coordinates>
        </LineString>
    </Placemark>
</Document>
</kml>