<?xml version="1.0" encoding="UTF-8"?>
<kml xmlns="http://www.opengis.net/kml/2.2">
<Document>
    <name>AGG-4.5-NANTKY11_AGG-4.3-NANDLG11_LienTinh.kml</name>
    <Placemark>
        <name>Tuyen_Cap_Chuan_Hoa</name>
        <LineString>
            <tessellate>1</tessellate>
            <coordinates>105.3081604159374,18.89996434288938,0
105.3081996770935,18.89995069033601,0
105.3090573162257,18.90029782607594,0
105.3095770112819,18.89926867631719,0
105.3097879048209,18.89884131858319,0
105.3101066771363,18.89833755499093,0
105.3108473414675,18.89862153099909,0
105.3126328250364,18.89886127520685,0
105.3137547830005,18.89913313812904,0
105.314509861767,18.89929863815084,0
105.3147520756648,18.89869865946267,0
105.3145388718592,18.89823651786532,0
105.3143076326441,18.89788036871446,0
105.3137329082005,18.89759070536876,0
105.313514303977,18.89718127140415,0
105.3134690596241,18.89684136632449,0
105.3134752501452,18.89685199417414,0
105.3133419459459,18.89701977065697,0
105.3142397624012,18.89757689815324,0
105.3154770811366,18.89910170754731,0
105.3165882256938,18.90153932545538,0
105.3171334293226,18.90234447083219,0
105.3173619722137,18.90308223851239,0
105.3162869108066,18.9036908317742,0
105.3164921130724,18.90408602427127,0
105.3166271421288,18.90415358944699,0
105.3181765862399,18.90380466102735,0
105.3183348458339,18.90424088038895,0
105.3182905793658,18.90425669374561,0
105.3183472131472,18.90441874822523,0
105.3193043486548,18.90697494603677,0
105.3203283609224,18.90969480280339,0
105.3209328047937,18.91073948208878,0
105.3133927553238,18.91266059629448,0
105.3116658496491,18.91430050537743,0
105.3093611352912,18.91625721730286,0
105.3073404124981,18.91797239615691,0
105.3054926252454,18.91954962226428,0
105.3035223214066,18.92121423272547,0
105.3017904982518,18.92268476772662,0
105.3000368406559,18.92416261492914,0
105.2978705215093,18.92600563966883,0
105.2964982911415,18.92717712651208,0
105.2949298157863,18.92849991800152,0
105.2931906512346,18.92995899536185,0
105.2927287467041,18.93063436373206,0
105.2925860606268,18.93117435822784,0
105.2919107389503,18.93355977223513,0
105.291222309521,18.93596668260212,0
105.2906572852867,18.93796040636383,0
105.2907147284707,18.93874128423288,0
105.2912762398555,18.94023553324476,0
105.2922608785142,18.94126890076113,0
105.2918726581202,18.94439821389248,0
105.2915092372743,18.94641415007656,0
105.2911164739875,18.94877824242135,0
105.2906257061242,18.95155939529974,0
105.2911260901527,18.95296513528558,0
105.2921717015997,18.95373547465982,0
105.2929226009678,18.95411529034707,0
105.2936218756341,18.95473416628578,0
105.2937240996156,18.95557955712597,0
105.2935950270555,18.95641942820966,0
105.292210905655,18.95711648101704,0
105.2920443831435,18.95726532921086,0
105.2913490615309,18.95791282764863,0
105.2909268258887,18.95987657249644,0
105.2907901288123,18.96046934516063,0
105.2906989883227,18.96125283026198,0
105.2907397047902,18.96202299050496,0
105.290550460094,18.96264038710539,0
105.2914353503697,18.96347880371076,0
105.2922018148858,18.96468130716545,0
105.293015221366,18.96713054883987,0
105.2932836310435,18.96933808820594,0
105.2939505555186,18.97742866404188,0
105.2967088238979,18.97807962754653,0
105.2981137818785,18.98121697807348,0
105.2989862167229,18.98569898523857,0
105.2981868985337,18.99183270211271,0
105.2969616179103,18.99455338976001,0
105.2949686930405,18.99878702639631,0
105.2927918781941,19.00258848861722,0
105.288505304492,19.00488102705384,0
105.2880109608943,19.00474356611525,0
105.2858835020751,19.00506189554875,0
105.2841047018974,19.00548245140184,0
105.2823011873484,19.00597692255523,0
105.2800545521233,19.00651549420026,0
105.2779880999733,19.00702369157917,0
105.2769604886937,19.00793536455735,0
105.2764136030128,19.00888675559371,0
105.275624430515,19.00986881287153,0
105.2752596683881,19.01155212760881,0
105.2748554149636,19.01225274959285,0
105.2743164557079,19.01374207553676,0
105.2724189944294,19.01758640009965,0
105.272088308558,19.01805674228212,0
105.27157663961,19.01860057757346,0
105.2705962322307,19.01925983104229,0
105.2698263904736,19.02112612119116,0
105.2690082904572,19.02243567257059,0
105.2693337271162,19.02366643621616,0
105.2694060237033,19.02453576985548,0
105.2689909477534,19.02513582807312,0
105.2672207699077,19.02633146952264,0
105.2659699593274,19.02858526007849,0
105.2661698033068,19.02982540476661,0
105.2659418565901,19.03144675433508,0
105.267362068911,19.03459390222539,0
105.2680169571535,19.03569492173406,0
105.268307509371,19.03586683117586,0
105.2690992225895,19.03784300210733,0
105.2690938180488,19.03816645961099,0
105.2690601612822,19.0387782676105,0
105.2692543687071,19.03879317170053,0
105.268728849397,19.04118246259963,0
105.2690429696341,19.04419162806794,0
105.2697026484668,19.0443076988285,0
105.2696268548993,19.04475014330939,0
105.2690801751372,19.04500369400036,0
105.269428331791,19.0457369903032,0
105.2696795024634,19.04592391487606,0
105.269795382259,19.04626785235049,0
105.2696432436923,19.04699525750948,0
105.2696189157468,19.0480324655178,0
105.2693873496668,19.04812483766991,0
105.2696127206448,19.05057280507475,0
105.269410401565,19.05069417849817,0
105.2698261279039,19.05124685746534,0
105.2710874674094,19.05214820702291,0
105.2742205965837,19.05550737126287,0
105.2761602818943,19.05810253803949,0
105.2772835803714,19.05867482232437,0
105.2780261754903,19.05962372116092,0
105.2791966135245,19.06248785509098,0
105.2800345099098,19.06298234273315,0
105.2810849103632,19.06437910793095,0
105.2813845123278,19.0649979506931,0
105.2817849899127,19.06535690854675,0
105.2829874481251,19.06551202690533,0
105.2848990367986,19.06728493710088,0
105.2865176524493,19.06906922507709,0
105.2870128662527,19.06926014748391,0
105.2973009558708,19.06516278796136,0
105.2997779435078,19.06693212090551,0
105.3013940962166,19.06850734031261,0
105.3021226636936,19.06927684846667,0
105.3027075406314,19.06969425985071,0
105.3033130828447,19.07006744001908,0
105.3032879399013,19.07016014951535,0</coordinates>
        </LineString>
    </Placemark>
</Document>
</kml>