<?xml version="1.0" encoding="UTF-8"?>
<kml xmlns="http://www.opengis.net/kml/2.2">
<Document>
    <name>CSG13_2. NA_QLU_QUYNH_HAU - NA_QLU_QUYNH_VAN_4.kml</name>
    <Placemark>
        <name>Tuyen_Cap_Chuan_Hoa</name>
        <LineString>
            <tessellate>1</tessellate>
            <coordinates>105.6734961361494,19.19881414593554,0
105.673624069786,19.19879181468517,0
105.6738826107516,19.19860552376232,0
105.6740357370835,19.19883765242231,0
105.6744523641665,19.19958652205813,0
105.6747315287849,19.19937712132783,0
105.6759982005849,19.19855150693162,0
105.6762607922253,19.19845091178618,0
105.6765135251446,19.19827600070452,0
105.6767740934306,19.19816409008117,0
105.6775202045672,19.19766900696542,0
105.6759929232944,19.19557129218221,0
105.6754509955857,19.19569623175265,0
105.6710535067196,19.19008686987931,0
105.6680312518988,19.18690420388552,0
105.667070629602,19.18770701519054,0
105.6628468369284,19.18309035295244,0
105.6555672445346,19.17499523605952,0
105.6542159209785,19.17352109655884,0
105.6451911163238,19.16386606100684,0
105.6453686777939,19.16362173383749,0
105.6457379388164,19.16329813915149,0
105.6464459708675,19.16297289159681,0
105.6485206225025,19.16169925453894,0
105.6485751868314,19.1616088823355,0
105.648554612679,19.1614629357976,0
105.6473684465937,19.15962629595035,0
105.6474929794029,19.15961735977226,0</coordinates>
        </LineString>
    </Placemark>
</Document>
</kml>