<?xml version="1.0" encoding="UTF-8"?>
<kml xmlns="http://www.opengis.net/kml/2.2">
<Document>
    <name>CSG14_6. NA_HMA_QUYNH_LIEN_2 - NA_HMA_QUYNH_THIEN.kml</name>
    <Placemark>
        <name>Tuyen_Cap_Chuan_Hoa</name>
        <LineString>
            <tessellate>1</tessellate>
            <coordinates>105.7067050586201,19.24752361400177,0
105.7067224100687,19.24731442218814,0
105.7074354587603,19.24794572152495,0
105.7076342002132,19.24775183553123,0
105.7095078089343,19.24866741579784,0
105.7101058180669,19.24943453228142,0
105.7105120723219,19.25058647192648,0
105.7108075801737,19.2496331197843,0
105.7111178927933,19.24953626905555,0
105.7113722623,19.24911098137383,0
105.7117157486261,19.24915210926866,0
105.7123721241554,19.24874066312911,0
105.7128543424014,19.25086110345062,0
105.7124654367018,19.25126067495823,0
105.7124718619264,19.25126430984549,0
105.7126574967127,19.25192653083576,0
105.7133850104604,19.25226784383863,0
105.7146146415307,19.25206750398751,0
105.7155627056693,19.25505417757207,0
105.7158625681634,19.25591320061643,0
105.7164616800376,19.25589004106373,0
105.7193641462105,19.2510004310858,0
105.720970699815,19.24814606573323,0
105.7236319995145,19.24374277123287,0
105.7263000913902,19.23921817532369,0
105.7268185767397,19.23847198422315,0
105.72708916708,19.23782756378656,0
105.7275183233234,19.23718319923642,0
105.728513720776,19.2355644516951,0
105.7286419153144,19.23529745760215,0
105.7285338803087,19.2349263285051,0
105.7335101904787,19.23270690220951,0
105.7341050328979,19.23242138183689,0
105.7351996090792,19.23192500986238,0
105.7355980706527,19.23170994740872,0
105.7358651700605,19.23139952468439,0
105.7365195127479,19.23069723921137,0
105.7367201784377,19.23064574047856,0
105.7368527211409,19.23042360766819,0
105.7371798047872,19.22969493344328,0
105.7375939821963,19.22850702814528,0
105.7376414577401,19.22737526308093,0
105.7376367627148,19.22664294923698,0
105.7374818577433,19.22656730517882,0
105.735744776294,19.22614733512573,0
105.7357362702327,19.22614472657459,0
105.7350972727516,19.22594389882809,0
105.7342856262744,19.22506182536888,0
105.7338614038747,19.22449558993157,0
105.7331497105621,19.22345150759509,0
105.7322391994135,19.22219979571173,0
105.731805289786,19.22160988701221,0
105.7315034066982,19.22119957420664,0
105.7310685556487,19.22067333438985,0
105.7297720323888,19.21882783463338,0
105.7293526281125,19.21853701935531,0
105.7290280849668,19.21839219420002,0
105.7272858184918,19.21777019166787,0
105.7255032375002,19.21713933480252,0
105.7243203227837,19.21557380740791,0
105.724669084227,19.21547031436933,0
105.7281505182742,19.21406911109054,0
105.7280485154754,19.2138993851523,0
105.7277348755603,19.21337014613166,0
105.7276584845044,19.21326484479641,0
105.7274850279984,19.21332731573893,0</coordinates>
        </LineString>
    </Placemark>
</Document>
</kml>