<?xml version="1.0" encoding="UTF-8"?>
<kml xmlns="http://www.opengis.net/kml/2.2">
<Document>
    <name>CSG14_1. NA_QLU_CAU_GIAT - NA_QLU_QUYNH_NGOC_2.kml</name>
    <Placemark>
        <name>Tuyen_Cap_Chuan_Hoa</name>
        <LineString>
            <tessellate>1</tessellate>
            <coordinates>105.6234431300807,19.13756111760168,0
105.6234040238992,19.13748227247939,0
105.6234910222341,19.13726851732317,0
105.6232667293936,19.13717795308845,0
105.6228667543622,19.13684668017924,0
105.6225658462344,19.13726615846701,0
105.6222331557625,19.13743866468381,0
105.6232245151558,19.13864470299492,0
105.6252748601803,19.14077057155501,0
105.6267668812083,19.14239345739886,0
105.6265236176606,19.14257802371107,0
105.6279404054588,19.14410146778457,0
105.6300806648046,19.14648696087756,0
105.6303485659946,19.14633203171477,0
105.6305700408331,19.14656413582889,0
105.6307962388893,19.14685921709161,0
105.6306210220619,19.14704019502082,0
105.632443567155,19.14909709483446,0
105.6343524372525,19.15113038969362,0
105.6345660707979,19.15096526640669,0
105.6355670194627,19.15017129897661,0
105.6362643938084,19.14953716425949,0
105.6389152021667,19.14614501952957,0
105.6415640654395,19.14274854871422,0
105.6451643444364,19.13797769675192,0
105.6458475300827,19.13727947081681,0
105.6467741871551,19.13685175133719,0
105.6468513943518,19.1363802610082,0
105.6508475461877,19.13580365051418,0
105.6539587709102,19.13546163604276,0
105.6542181364831,19.13540404683846,0
105.6543652776052,19.13538637078024,0
105.6551922212769,19.13519726520654,0
105.6550954962583,19.13483382520097,0
105.655627722978,19.13477669077598,0
105.6572836362235,19.13421156606096,0
105.6602755618405,19.13487449970469,0
105.6603133812538,19.13309318844869,0
105.6611706220595,19.12226602482918,0
105.6611831112206,19.12228590830257,0
105.6608070182058,19.12162259267512,0
105.6604653582877,19.12122927417697,0
105.6613271918122,19.11959977389348,0
105.6630059836337,19.11740768165739,0
105.6636742159518,19.11786695750133,0
105.663728099058,19.11810514626734,0
105.6639222285328,19.11818260825499,0
105.6642034849502,19.11840504866423,0
105.664615033771,19.11843804435582,0</coordinates>
        </LineString>
    </Placemark>
</Document>
</kml>