<?xml version="1.0" encoding="UTF-8"?>
<kml xmlns="http://www.opengis.net/kml/2.2">
<Document>
    <name>CSG1_6. NA_HNN_HUNG_TAN - NA_HNN_HUNG_NGUYEN.kml</name>
    <Placemark>
        <name>Tuyen_Cap_Chuan_Hoa</name>
        <LineString>
            <tessellate>1</tessellate>
            <coordinates>105.634429386775,18.67121410813582,0
105.6343193370012,18.67128975197405,0
105.6341138208992,18.67075332044863,0
105.6340486202881,18.67073299619295,0
105.634117841916,18.67065017122293,0
105.6338139329183,18.67070997096409,0
105.6329289320372,18.67080633310917,0
105.6320583704102,18.67084223932974,0
105.6315458942695,18.670920075339,0
105.6307076540019,18.67107610092611,0
105.629685834743,18.67117818957888,0
105.6287880967939,18.67127058175518,0
105.6282385888387,18.67137549997422,0
105.6277351780369,18.6713969406504,0
105.6275432453311,18.67142349431716,0
105.627285378364,18.67142248715439,0
105.6271523956789,18.67142339154372,0
105.6271554365959,18.67116940197464,0
105.6273651998386,18.67061144530128,0
105.6275229582282,18.6701095562653,0
105.6279221075198,18.66901828150455,0
105.6283752628482,18.66773658147359,0
105.6291286785921,18.66550456327149,0
105.6295874026727,18.66428020624494,0
105.6299807333974,18.66306972324767,0
105.6303707480556,18.66204096443172,0
105.6310388566409,18.66163791916532,0
105.6306164421191,18.66086115820835,0
105.6310009058986,18.65969561326337,0
105.6312249705692,18.65864084527935,0
105.6311979031064,18.65740521042198,0
105.6311204089445,18.65643810675109,0
105.6310379321046,18.65584583386246,0
105.6309769393979,18.65552046305819,0
105.6309377005221,18.65483830129349,0
105.6309214361038,18.65398554271417,0
105.6308921792845,18.65344532589972,0
105.6307006678769,18.65245017885663,0
105.6305958454587,18.65178338207727,0
105.6304813087843,18.65084834920422,0
105.630194720804,18.65032155682664,0
105.6297453295965,18.64969971275268,0
105.6294799497489,18.64937989760212,0
105.629090418792,18.64886953451704,0
105.6288240827736,18.64842485128549,0
105.6282021414301,18.64790680115144,0
105.6276170557679,18.64700152811515,0
105.6266847703337,18.64577400675006,0
105.6261639538234,18.64504866421997,0
105.6257834814623,18.64453230003831,0
105.6251982968215,18.64379665302322,0
105.6250239384951,18.64345929978503,0
105.6245083421169,18.64267903336855,0
105.6241754324974,18.64205000044723,0
105.6249036463686,18.64159815883091,0
105.6253570580808,18.64128599744664,0
105.6255797408786,18.64113809022122,0
105.6254860213398,18.64108138398686,0
105.6252412534442,18.6407037911282,0
105.6247973237297,18.64007935407539,0
105.6247171707715,18.63993969238196,0
105.6244046893889,18.63951260791297,0
105.6242148404928,18.63929118054607,0
105.6240855084108,18.639123736381,0
105.6242848779231,18.63907515252306,0</coordinates>
        </LineString>
    </Placemark>
</Document>
</kml>