<?xml version="1.0" encoding="UTF-8"?>
<kml xmlns="http://www.opengis.net/kml/2.2">
<Document>
    <name>CSG12_4. NA_DCU_DIEN_TRUONG - NA_QLU_CAU_GIAT.kml</name>
    <Placemark>
        <name>Tuyen_Cap_Chuan_Hoa</name>
        <LineString>
            <tessellate>1</tessellate>
            <coordinates>105.6106192254593,19.09839963818317,0
105.6104812373693,19.09834771620153,0
105.6096729980428,19.09891415838303,0
105.6090012689939,19.09818408209897,0
105.6043699231759,19.10205484270353,0
105.6032824830984,19.10308181382553,0
105.5997117006768,19.1054619733512,0
105.5977639121396,19.10754342679029,0
105.6099477494253,19.12905973136494,0
105.6105608070481,19.1296552582302,0
105.6106807713734,19.13039009546481,0
105.6151136397584,19.13099498267917,0
105.6158168266879,19.13073867318102,0
105.6159026306651,19.13061853964712,0
105.6205676332669,19.13582319999631,0
105.6207668500243,19.13570185412825,0
105.6222593245093,19.13745185113671,0
105.6225506178058,19.13725694565315,0
105.6228847520518,19.1368445764849,0
105.6234862781473,19.13725689845738,0
105.6234127477526,19.13745968527085,0
105.6235238331986,19.1375284593599,0</coordinates>
        </LineString>
    </Placemark>
</Document>
</kml>