<?xml version="1.0" encoding="UTF-8"?>
<kml xmlns="http://www.opengis.net/kml/2.2">
<Document>
    <name>CSG14_4. NA_QLU_QUYNH_LUONG - NA_QLU_QUYNH_BANG.kml</name>
    <Placemark>
        <name>Tuyen_Cap_Chuan_Hoa</name>
        <LineString>
            <tessellate>1</tessellate>
            <coordinates>105.7145782969486,19.17393422270107,0
105.7143093079953,19.17387971891033,0
105.7141141179493,19.17403148675937,0
105.7139525773188,19.17434740052542,0
105.7151563238593,19.174431624871,0
105.7160574152457,19.17451874027823,0
105.7165504512067,19.17456594086131,0
105.716593713306,19.17452560225988,0
105.717461877792,19.16650245473804,0
105.7167881536095,19.16653200331294,0
105.716057549269,19.16653010539702,0
105.7152158107023,19.16648356619176,0
105.7129578359433,19.16262742652903,0
105.7119769409208,19.15834036151535,0
105.711558722699,19.15629842714378,0
105.711354188968,19.15622156450118,0
105.7112805904662,19.1558960320516,0
105.713778728645,19.15537386641715,0
105.714677381896,19.15520544973837,0
105.7147887655311,19.15509060459587,0
105.7143470466538,19.15297047566199,0
105.7142768358505,19.15266122908959,0
105.7141203755145,19.152700732641,0
105.7139656333885,19.15286546399991,0
105.7137819995141,19.15291528787163,0
105.7135741167508,19.15298689158602,0
105.7136358965096,19.15302817610673,0</coordinates>
        </LineString>
    </Placemark>
</Document>
</kml>