<?xml version="1.0" encoding="UTF-8"?>
<kml xmlns="http://www.opengis.net/kml/2.2">
<Document>
    <name>CSG1_7. NA_HNN_HUNG_NGUYEN - NA_VIH_ROADM_VINH_2.kml</name>
    <Placemark>
        <name>Tuyen_Cap_Chuan_Hoa</name>
        <LineString>
            <tessellate>1</tessellate>
            <coordinates>105.6674991322363,18.67122857117565,0
105.6673679281864,18.67132894481307,0
105.6673673639491,18.67138927696487,0
105.6674269140874,18.67155562573126,0
105.6670698806651,18.67176616724661,0
105.6668041845075,18.67190715072935,0
105.6663368004823,18.67214658602613,0
105.6660145228568,18.67230600440951,0
105.6651585221828,18.67283267825766,0
105.6650480918803,18.67291715746503,0
105.6648119608568,18.67311523523832,0
105.664576780928,18.67299410361325,0
105.6645890769045,18.67273139291656,0
105.6645869679536,18.67241063206301,0
105.6645666334089,18.67210228099433,0
105.6645528515684,18.6717329272983,0
105.6645416129337,18.67124274489575,0
105.6645175108138,18.67102144902255,0
105.6645085308501,18.67073867406161,0
105.6644767965378,18.67055502158608,0
105.6644635434784,18.67037423492759,0
105.6642938282849,18.67039332351327,0
105.6639367412796,18.670399408726,0
105.663705848604,18.67039669938092,0
105.6633822955328,18.67039895170167,0
105.6630997114651,18.67042277490434,0
105.6625564839789,18.67043136431838,0
105.6617890701349,18.6704671871351,0
105.6612730523559,18.67044958305338,0
105.6610586150141,18.67054247642572,0
105.6606983751524,18.67042007941713,0
105.6602040656519,18.67008956412347,0
105.6595953321603,18.66968416432828,0
105.6588497587527,18.66918570143919,0
105.6583096515129,18.66884978277218,0
105.6580089755838,18.66866903558273,0
105.6578301937217,18.66855413106833,0
105.6578311556651,18.66833237039594,0
105.6578228636188,18.66806821979612,0
105.6577845831037,18.6678244262601,0
105.6578025512001,18.66740764001544,0
105.6575112186428,18.66742775877608,0
105.6570497829926,18.66742648561114,0
105.6564823892846,18.66745536474737,0
105.6560086852822,18.66745209895189,0
105.6555378677354,18.66748701509796,0
105.6550086916325,18.66753415878248,0
105.6543815705471,18.66759627706551,0
105.6537248404512,18.66769581796237,0
105.653269774476,18.66774325515879,0
105.6529547078667,18.66777907442359,0
105.6525448010034,18.66782975327473,0
105.6521337029492,18.66781868015944,0
105.6518508127942,18.66779445895301,0
105.6515815253853,18.66768640147655,0
105.6511811721267,18.66752774396122,0
105.6508018836304,18.66733112111922,0
105.6504959300807,18.6671934958015,0
105.6501768668008,18.66702518347416,0
105.6498560857698,18.66683817319277,0
105.6494754288463,18.66663321782851,0
105.6490995342935,18.66649958578023,0
105.648616024927,18.66629999912851,0
105.648243173981,18.66617213915835,0
105.6480525993906,18.66615293928851,0
105.6477609008761,18.66623491367119,0
105.6477171923855,18.66603064169244,0
105.64650417124,18.66641607055448,0
105.6464880603293,18.66658887836904,0
105.6455089934135,18.66696429072639,0
105.6451878992012,18.66705065954465,0
105.6447470187318,18.66720987434821,0
105.6439538464707,18.66750754788553,0
105.6433518844643,18.66765443447717,0
105.6425957360051,18.66783847609297,0
105.6417154238182,18.66813938528166,0
105.6410886557161,18.66836028892741,0
105.6404152790514,18.66861100838214,0
105.6397779296282,18.66887827436444,0
105.6389627857564,18.66913479357742,0
105.6388825425715,18.66897579080775,0
105.6383015056188,18.66916844013587,0
105.6377867921093,18.66934390594358,0
105.6370691234307,18.66955795205702,0
105.6364807087965,18.66975397377996,0
105.6357914914081,18.66998021211291,0
105.6355227136363,18.67004592736173,0
105.6355793846932,18.67017039129499,0
105.6358382173343,18.67069828711108,0
105.6352921121843,18.67092796308879,0
105.6347672568251,18.67117974622358,0
105.6346930284497,18.67115241324593,0
105.6344211319737,18.67121924811634,0</coordinates>
        </LineString>
    </Placemark>
</Document>
</kml>