<?xml version="1.0" encoding="UTF-8"?>
<kml xmlns="http://www.opengis.net/kml/2.2">
<Document>
    <name>CSG10_3.NA_YTH_YEN_THANH_2 - NA_YTH_VIEN_THANH.kml</name>
    <Placemark>
        <name>Tuyen_Cap_Chuan_Hoa</name>
        <LineString>
            <tessellate>1</tessellate>
            <coordinates>105.4385408541532,18.92080107921205,0
105.4385206920138,18.92050561753571,0
105.4386397908052,18.92058954966819,0
105.4420646415958,18.92067552855773,0
105.4420254595096,18.91996923137827,0
105.4433609519843,18.91976157167949,0
105.4440501016184,18.9199697145986,0
105.4436777188061,18.92256004270561,0
105.4435881328599,18.92287913504485,0
105.4448466480442,18.92276699744669,0
105.4449201424611,18.92382409945902,0
105.4450473099419,18.92557923338795,0
105.4454905590373,18.92544430311343,0
105.4480704412586,18.92754184058278,0
105.448992253518,18.92852400380601,0
105.4530883406564,18.92873865903507,0
105.456109081628,18.9304852325117,0
105.4563319454823,18.92986722549576,0
105.4641880086294,18.92777369854175,0
105.4636385215062,18.92662941137774,0
105.4634444252633,18.92625501707244,0
105.4628211299978,18.92605228783918,0
105.4628256697438,18.92556745154626,0
105.463011967203,18.92445751404192,0
105.4666718840962,18.92524373317251,0
105.4668466043114,18.92509477129449,0
105.4679096071575,18.92535686109994,0
105.4706272599387,18.92549009106803,0
105.4728603463991,18.9262961686083,0
105.4749181690845,18.92698912389507,0
105.4776304639891,18.9278167247724,0
105.4790815320769,18.92830951487333,0
105.478981052037,18.92846870736813,0
105.4814469840388,18.92941793475613,0
105.4815256726753,18.92927045555012,0
105.4826931999152,18.9297066210281,0
105.4848562194182,18.93037853696162,0
105.4870204884461,18.93103233864971,0
105.4875497390998,18.93115066166473,0
105.4888018649556,18.93107503320714,0
105.4895804291308,18.93091275896349,0
105.4897363111632,18.93028105817354,0
105.4893520389798,18.93028407372864,0
105.4890635949972,18.93020083103907,0
105.4889581756901,18.93034273306989,0</coordinates>
        </LineString>
    </Placemark>
</Document>
</kml>