<?xml version="1.0" encoding="UTF-8"?>
<kml xmlns="http://www.opengis.net/kml/2.2">
<Document>
    <name>CSG12_1. NA_DCU_DIEN_CHAU - NA_DCU_DIEN_KIM.kml</name>
    <Placemark>
        <name>Tuyen_Cap_Chuan_Hoa</name>
        <LineString>
            <tessellate>1</tessellate>
            <coordinates>105.6005998482235,18.97704065721685,0
105.6006428189442,18.97604073427057,0
105.6029336201623,18.97616318061971,0
105.6029667957372,18.97889985923289,0
105.6006339444359,18.97885726295602,0
105.5987749705982,18.9785847964672,0
105.597634596066,18.97654675006058,0
105.5935064860122,18.9746314437962,0
105.5910971605281,18.97308868273103,0
105.5901851265846,18.97511490616068,0
105.5887548391985,18.97797460964778,0
105.5877273651298,18.98007734145853,0
105.5864461210926,18.98273121548233,0
105.5846143578732,18.98642614856918,0
105.5845724479258,18.98653703323245,0
105.5786125799698,18.99282613457121,0
105.5785249158275,18.99304878551884,0
105.5785441199797,19.00392859211673,0
105.5785405448677,19.01676113280462,0
105.5796450983743,19.02872178697713,0
105.5793531388368,19.03251735545297,0
105.5793520759963,19.03255510211637,0
105.5799821601014,19.03475083852194,0
105.5805217581649,19.03507578719939,0
105.5807464016679,19.03756957262906,0
105.5832144576258,19.03757219202887,0
105.5832899790022,19.03757449913983,0
105.5832472176695,19.03847335609143,0
105.585427724756,19.0381466843147,0
105.5886195716424,19.03770603434181,0
105.5891859559834,19.03764188091366,0
105.5912604451624,19.03759877212905,0
105.5910448381425,19.04017363706491,0
105.591048626603,19.04020819418716,0
105.5911072259854,19.04088324369771,0
105.6007693600637,19.04204652150635,0
105.6012965387833,19.04107012931898,0
105.6015065747419,19.04014178820713,0
105.6016453685325,19.03901094763406,0
105.6021602770168,19.03744853463933,0
105.6025108620023,19.03664009390945,0
105.6037847264651,19.03433670147254,0
105.6047481082917,19.03275021284219,0
105.6052173359195,19.03266304929204,0
105.6064812244626,19.03228009027971,0
105.6081620823492,19.03178795884526,0
105.6093488487282,19.03153419944328,0
105.6113483737743,19.03115771142178,0
105.6133918919076,19.03094606482472,0
105.6145869322755,19.03079480744449,0
105.6163962151804,19.02917974033989,0
105.6171882591948,19.02845710213569,0
105.6173117746362,19.02818726011405,0
105.6182788460406,19.02730040084823,0
105.6180323539422,19.0270167092349,0</coordinates>
        </LineString>
    </Placemark>
</Document>
</kml>