<?xml version="1.0" encoding="UTF-8"?>
<kml xmlns="http://www.opengis.net/kml/2.2">
<Document>
    <name>CSG1_2. NA_VIH_PHUONG_HOANG_2 - NA_HNN_HUNG_THINH.kml</name>
    <Placemark>
        <name>Tuyen_Cap_Chuan_Hoa</name>
        <LineString>
            <tessellate>1</tessellate>
            <coordinates>105.6711704841053,18.64164802632948,0
105.6710432297119,18.64174797923197,0
105.6710217522254,18.64201500794519,0
105.6709898463264,18.64224945310579,0
105.6709801796723,18.64255245132583,0
105.6709695782235,18.6431133886029,0
105.6709898837854,18.64319547657447,0
105.6712529902982,18.64332334127535,0
105.6715465457861,18.64360119048509,0
105.6717793969807,18.64373249139981,0
105.6721085483003,18.64388643433911,0
105.6723716030816,18.6439501730247,0
105.6727257052964,18.64399939203068,0
105.672942449219,18.64410383828842,0
105.6733654626505,18.64417930710187,0
105.6736604288969,18.64414555514913,0
105.6739349510632,18.64428681563818,0
105.6743924348418,18.64449284700244,0
105.6749348075445,18.64476304812007,0
105.675083846985,18.64526416951188,0
105.6755647096957,18.64519269076949,0
105.6759685439677,18.6451429863537,0
105.6760085141445,18.64539341636536,0
105.676530962963,18.64538848547412,0
105.6769250575147,18.64535857946965,0
105.6772197523357,18.64540576451855,0
105.6773905230385,18.64543141821165,0
105.6773043793112,18.64564129569955,0
105.6774919410597,18.64641955491597,0
105.6774831548229,18.64669003670974,0
105.6774634068135,18.64696630654318,0
105.6775440027029,18.64719514416974,0
105.6776174012601,18.64734016376877,0
105.6777816291791,18.64757397101461,0
105.677892353311,18.64778578224397,0
105.6780562146443,18.64799882210537,0
105.6782213543239,18.64814628420104,0
105.6785397225245,18.64849892682511,0
105.678741880891,18.64831644209312,0
105.678919281011,18.64817162311385,0
105.6792322896748,18.64792945111815,0
105.6794545520523,18.64810968226286,0
105.67966162924,18.64793190650729,0
105.6797922533239,18.64787780038032,0
105.6799492725252,18.64783029510217,0
105.6801030504802,18.64777811101536,0
105.6803204754645,18.64768569597787,0
105.6804782046911,18.64761879370138,0
105.6806211345872,18.64754768386068,0
105.6807482039081,18.64748578632364,0
105.6808172679416,18.64747817429774,0
105.6808345369844,18.64754941446206,0
105.6809489329639,18.64786999439901,0
105.6810604164827,18.64823667047817,0
105.6810182401426,18.64845594404252,0
105.6809711682509,18.64889162023014,0
105.6811658229857,18.64911534956474,0
105.6814263417493,18.6489568743635,0
105.6816863864741,18.64884968506387,0
105.6820628412836,18.64863769367039,0
105.6825074236532,18.6483974178871,0
105.6828409027411,18.64816348948793,0
105.6831750406823,18.64797670757427,0
105.6834909384968,18.64781854879693,0
105.6836484322866,18.64764564386572,0
105.68387579341,18.64814564324855,0
105.6839677258506,18.64825076372714,0
105.6841062999239,18.64846263421586,0
105.6842730733146,18.64864822624944,0
105.6847594333603,18.64903324754463,0
105.6849043405639,18.64911233439336,0
105.6850838939212,18.64918091905142,0
105.6853620995856,18.64926432667029,0
105.6857129319353,18.6493791528379,0
105.6860419411449,18.64946656369363,0
105.6862567856002,18.64953508380569,0
105.6865084263996,18.64958223975897,0
105.6865710834485,18.64997897389737,0
105.6864175569201,18.65019984533625,0
105.686521528162,18.65037036579601,0
105.686856606476,18.65061855258331,0
105.6871136772725,18.65077002555739,0
105.6873013107761,18.65088587031835,0
105.6875625188814,18.65112203455984,0
105.6877385168694,18.65127032330825,0
105.6880676929408,18.65150207796856,0
105.6883480709136,18.65170951322217,0
105.6889306422826,18.65220229642483,0
105.6892191248143,18.6523543167331,0
105.6896758441222,18.65274762738912,0
105.6901703972887,18.65309176812168,0
105.6906975546918,18.65346855964831,0
105.6910163151119,18.65372363884191,0
105.6914049205897,18.65397528280581,0
105.6920360942237,18.6544409726603,0
105.6923297155957,18.65470832667586,0
105.6927755137945,18.65502175054432,0
105.6931572120354,18.6553053392975,0
105.6935216747199,18.65561431547254,0
105.6939784952609,18.65595211954521,0
105.6944234285934,18.65628687812363,0
105.6947259741813,18.65651549911155,0
105.6949613492994,18.6567116422405,0
105.6951257619313,18.65682729105231,0
105.6952060980447,18.65665468145847,0
105.6953975794981,18.6563308269678,0
105.6956000039114,18.65608498576981,0
105.6957566980983,18.65610187354656,0
105.6961926366862,18.65559097517455,0
105.6970691567575,18.6562563061111,0
105.6969131993638,18.65649206008428,0
105.6966657555389,18.65672382742413,0
105.6963948537843,18.65664710444128,0</coordinates>
        </LineString>
    </Placemark>
</Document>
</kml>