<?xml version="1.0" encoding="UTF-8"?>
<kml xmlns="http://www.opengis.net/kml/2.2">
<Document>
    <name>CSG14_5. NA_QLU_QUYNH_BANG - NA_HMA_QUYNH_LIEN_2.kml</name>
    <Placemark>
        <name>Tuyen_Cap_Chuan_Hoa</name>
        <LineString>
            <tessellate>1</tessellate>
            <coordinates>105.7145692567375,19.17393592638579,0
105.714551750961,19.1738868376401,0
105.7143033216167,19.17385696132166,0
105.7141024241686,19.17401629714971,0
105.7139090703577,19.17436856177236,0
105.7148186162776,19.174455262628,0
105.7160673427178,19.17453459872449,0
105.716555213852,19.1745772799481,0
105.7165926926584,19.17452184612966,0
105.7164781612002,19.17540976245564,0
105.7166258201228,19.1849345054991,0
105.7169656097434,19.18775910257038,0
105.7183934333825,19.1884555742736,0
105.7192565851946,19.19351191871251,0
105.7199327585167,19.19483538367683,0
105.7209951120575,19.20013192627692,0
105.7210347266205,19.20031848616888,0
105.7215423505092,19.20306685389226,0
105.721893095734,19.20463857468932,0
105.7228122749568,19.20733296399846,0
105.7247405961427,19.21291427179926,0
105.7270473265205,19.21212658575571,0
105.7273738773043,19.21266404385984,0
105.7276168158581,19.21312033592766,0
105.7275948970332,19.21314124721278,0
105.7276132911213,19.21330269522894,0
105.7274851916092,19.21331108751688,0
105.7274727288855,19.21338165817913,0</coordinates>
        </LineString>
    </Placemark>
</Document>
</kml>