<?xml version="1.0" encoding="UTF-8"?>
<kml xmlns="http://www.opengis.net/kml/2.2">
<Document>
    <name>CSG11_3. NA_DCU_DIEN_HONG - NA_DCU_YEN_LY.kml</name>
    <Placemark>
        <name>Tuyen_Cap_Chuan_Hoa</name>
        <LineString>
            <tessellate>1</tessellate>
            <coordinates>105.5818873060896,19.046598716986,0
105.5816225756896,19.04624289312407,0
105.5812738415825,19.04641328182087,0
105.5814118690691,19.05467889882726,0
105.5813430487958,19.05692234429687,0
105.5814776321851,19.05830041022234,0
105.5815106705139,19.05923959935263,0
105.5815893128004,19.06029017298217,0
105.5807884508082,19.06077348251671,0
105.5813815529013,19.06353238837378,0
105.5827727047909,19.06982043181503,0
105.5832995000082,19.07311051717857,0
105.5841709818669,19.07754511453107,0
105.5847114741961,19.08041004721869,0
105.5859634035445,19.07949627746746,0
105.5867809024582,19.0790641543675,0
105.5877238248174,19.08199706819631,0
105.5881011398952,19.08298954111445,0
105.588426040869,19.08390977490605,0
105.5886112443993,19.08360505165223,0</coordinates>
        </LineString>
    </Placemark>
</Document>
</kml>