<?xml version="1.0" encoding="UTF-8"?>
<kml xmlns="http://www.opengis.net/kml/2.2">
<Document>
    <name>CSG14_2. NA_QLU_QUYNH_NGOC_2 - NA_QLU_KHANH_THANH.kml</name>
    <Placemark>
        <name>Tuyen_Cap_Chuan_Hoa</name>
        <LineString>
            <tessellate>1</tessellate>
            <coordinates>105.6939069104919,19.12048114392806,0
105.6938889721404,19.12046579243835,0
105.6938415504969,19.1205025480621,0
105.6940824557,19.12151366319731,0
105.6921993711575,19.12229426034018,0
105.6921250209406,19.1224583840167,0
105.6918547176666,19.12272745245458,0
105.6917677153687,19.12258985982569,0
105.6923017430345,19.12333692395823,0
105.6921930227816,19.12619157146148,0
105.689686699096,19.12843747022567,0
105.689125590358,19.12853046158227,0
105.6851993701401,19.12801294613744,0
105.6814696927564,19.12740487665782,0
105.680339426507,19.12714528141542,0
105.6792903806833,19.12696059855486,0
105.6761376216317,19.12627055917534,0
105.6706814299562,19.12581498073901,0
105.6663157877866,19.12544034373113,0
105.6655114226597,19.12597705748532,0
105.6652337226701,19.12568710426313,0
105.6613293041479,19.12258098850249,0
105.6611788148381,19.12223136784639,0
105.6608029904352,19.12164901721189,0
105.660483506088,19.1212932333226,0
105.6613119775235,19.1196719341128,0
105.6629652353504,19.11741769751312,0
105.6636856857024,19.11787307884149,0
105.6634362500286,19.11812586488952,0
105.6639425681103,19.11817453849965,0
105.6641964920826,19.11837522298044,0
105.6645711005416,19.11837091617078,0
105.6646550307959,19.11842199946715,0</coordinates>
        </LineString>
    </Placemark>
</Document>
</kml>