<?xml version="1.0" encoding="UTF-8"?>
<kml xmlns="http://www.opengis.net/kml/2.2">
<Document>
    <name>CSG12_3. NA_DCU_DIEN_HUNG - NA_DCU_DIEN_TRUONG.kml</name>
    <Placemark>
        <name>Tuyen_Cap_Chuan_Hoa</name>
        <LineString>
            <tessellate>1</tessellate>
            <coordinates>105.6106072642066,19.09841249656792,0
105.6104854232701,19.09837344529399,0
105.6099284537203,19.09878437928316,0
105.6107122210986,19.09973400850381,0
105.6123507064377,19.09852981979869,0
105.612674273839,19.09848255234389,0
105.6128849875588,19.09830404672066,0
105.6139851453696,19.09748397550747,0
105.6139892464321,19.09727383073436,0
105.6179791633336,19.09408323827683,0
105.6183463562822,19.09468603959465,0
105.6206407285454,19.09536581869326,0
105.6213181052118,19.0956114007746,0
105.6217430188171,19.09516188947138,0
105.6226519865441,19.09358171562161,0
105.6242023456058,19.09400413325469,0
105.6268230075916,19.09160024014772,0
105.6266927736192,19.09118299664233,0
105.6245306139433,19.08993402389974,0
105.6259505403464,19.08755923744845,0
105.6277307998413,19.08639137732008,0
105.6304028408184,19.07930823014212,0
105.631078957032,19.07638048431469,0
105.6388057350963,19.07745678331352,0
105.6398362907306,19.07794518908124,0
105.6400038178688,19.07875742439265,0
105.6477906745876,19.08471340463541,0
105.6477048989458,19.08450679574408,0
105.6486748841081,19.08335373059321,0
105.6484078309887,19.08302575148354,0
105.6485700933871,19.08286934751083,0</coordinates>
        </LineString>
    </Placemark>
</Document>
</kml>