<?xml version="1.0" encoding="UTF-8"?>
<kml xmlns="http://www.opengis.net/kml/2.2">
<Document>
    <name>CSG12_2. NA_DCU_DIEN_KIM - NA_DCU_DIEN_HUNG.kml</name>
    <Placemark>
        <name>Tuyen_Cap_Chuan_Hoa</name>
        <LineString>
            <tessellate>1</tessellate>
            <coordinates>105.6485485938761,19.08286960521837,0
105.648406640171,19.08302579260475,0
105.6486872332688,19.08337504942743,0
105.6477029198424,19.08452606075922,0
105.647499248631,19.08461063582507,0
105.646691009471,19.08558671846586,0
105.6454246881519,19.08470444024824,0
105.6433520445141,19.0830217549598,0
105.6420386318593,19.08195699231732,0
105.6410895893112,19.081155379454,0
105.6399229092211,19.07980097228566,0
105.63830775787,19.07777853889804,0
105.6371320564143,19.07615540605078,0
105.6355787487378,19.07397516569191,0
105.6343331954998,19.07201233182461,0
105.6335208741687,19.07059992883712,0
105.6321456122395,19.06826578274474,0
105.6312969355306,19.0667670489312,0
105.6311273165834,19.06681780981243,0
105.6303510602703,19.06528363467076,0
105.6291837400851,19.06322984925346,0
105.6278999698453,19.06105266900616,0
105.6263826598396,19.05827384029595,0
105.6260609992816,19.05768883464781,0
105.6256839624229,19.05658627397327,0
105.6248906038465,19.05525107761069,0
105.6237026999905,19.05307044568135,0
105.6229152930453,19.05130223922731,0
105.6221421954728,19.04923315842771,0
105.6216025367281,19.04951016300926,0
105.6214250929486,19.04757905833674,0
105.6215354724398,19.0472691508556,0
105.6211246179634,19.04633364186741,0
105.6206898444996,19.04567598972721,0
105.6203943539749,19.04387177575468,0
105.6221611856924,19.03535173802394,0
105.6217167536425,19.03502032628412,0
105.6198399169555,19.0326100524931,0
105.6163845985421,19.02919609038584,0
105.6172165888609,19.02844672713326,0
105.6173202780229,19.02817539604743,0
105.6182589617745,19.02729867584041,0
105.6182070067319,19.02712748475707,0</coordinates>
        </LineString>
    </Placemark>
</Document>
</kml>