<?xml version="1.0" encoding="UTF-8"?>
<kml xmlns="http://www.opengis.net/kml/2.2">
<Document>
    <name>CSG10_2. NA_YTH_NAM_THANH - NA_YTH_YEN_THANH_2.kml</name>
    <Placemark>
        <name>Tuyen_Cap_Chuan_Hoa</name>
        <LineString>
            <tessellate>1</tessellate>
            <coordinates>105.4385617294759,18.92072953491155,0
105.4385378912158,18.92055093138342,0
105.4387741195266,18.92059643236228,0
105.4420651183267,18.92068830975627,0
105.4420663061283,18.91995094343928,0
105.4433452419345,18.91973075632885,0
105.4440603582048,18.9199559797444,0
105.443777419698,18.92209216638568,0
105.4436768182122,18.92257590818852,0
105.443578455088,18.9228410919449,0
105.4448381667057,18.92275349597863,0
105.4449248205553,18.92380314230204,0
105.4450482245218,18.92555894777913,0
105.4454515336793,18.92539358745376,0
105.4480433975468,18.92748661548781,0
105.4470765582186,18.93284226110684,0
105.4476204973847,18.93599410209664,0
105.4480321021394,18.94032497466871,0
105.4479300868683,18.95564778557578,0
105.4482092911037,18.95631417974038,0
105.4479385196444,18.95656760146128,0
105.4477061234406,18.95659325151241,0
105.4475477082781,18.95672420325243,0
105.446851465322,18.95677686491013,0
105.4443146138228,18.95708450400397,0
105.4422369599972,18.95739363310965,0
105.4422554588394,18.95831958833858,0
105.4430251459857,18.95829398852149,0
105.4434997090235,18.95821358489582,0
105.4434348065092,18.95800710046372,0
105.4434719955686,18.95791794106014,0</coordinates>
        </LineString>
    </Placemark>
</Document>
</kml>