<?xml version="1.0" encoding="UTF-8"?>
<kml xmlns="http://www.opengis.net/kml/2.2">
<Document>
    <name>CSG1_1. NA_VIH_VINH_1 - NA_VIH_PHUONG_HOANG_2.kml</name>
    <Placemark>
        <name>Tuyen_Cap_Chuan_Hoa</name>
        <LineString>
            <tessellate>1</tessellate>
            <coordinates>105.6839927863643,18.6703117875255,0
105.6836722186784,18.67027231846795,0
105.6836029405424,18.67017708230735,0
105.683697591205,18.67005575418692,0
105.6836989595952,18.669855313033,0
105.6837142200216,18.66968932917333,0
105.6803178182977,18.66863341350117,0
105.6808380580279,18.66758327265864,0
105.6812522146046,18.66674683571706,0
105.6831601100938,18.66668650776359,0
105.6830047851725,18.66589336234242,0
105.6834959224045,18.66575556543684,0
105.6833839078518,18.66551422774222,0
105.683988140503,18.66550381038584,0
105.684852008217,18.66549577411656,0
105.6858256076861,18.66547931210983,0
105.6864816237848,18.66546895938225,0
105.6868499416971,18.66546740489127,0
105.6873170535946,18.6654285157569,0
105.6878780784418,18.66538324542995,0
105.6888134308296,18.66527622037242,0
105.6888184163263,18.66499169739782,0
105.6888036955468,18.66478738295092,0
105.6887184166911,18.66437909214827,0
105.6888176449306,18.66422498247877,0
105.6889276173143,18.66407209293676,0
105.6889694761032,18.66387355329337,0
105.6890911885082,18.66362778730785,0
105.6891726082402,18.66350217611514,0
105.6893009769822,18.66310413248979,0
105.6894684364389,18.66329305005092,0
105.6900320150189,18.66370995672512,0
105.6901862966322,18.66369004009292,0
105.6905401252333,18.66394802002048,0
105.6905426260235,18.66395559268618,0
105.6907106413224,18.66376257903406,0
105.6911936862708,18.66323438855812,0
105.6918288989974,18.66252863968896,0
105.6924878570568,18.66174931038172,0
105.6931213952878,18.66101444689336,0
105.6941183762906,18.65976969012718,0
105.694851108287,18.6589826046538,0
105.6953446855809,18.65836980253494,0
105.6966381966463,18.65683084980119,0
105.6961458501653,18.65651561298726,0</coordinates>
        </LineString>
    </Placemark>
</Document>
</kml>