<?xml version="1.0" encoding="UTF-8"?>
<kml xmlns="http://www.opengis.net/kml/2.2">
<Document>
    <name>CSG1_3. NA_HNN_HUNG_THINH - NA_HNN_HUNG_PHUC.kml</name>
    <Placemark>
        <name>Tuyen_Cap_Chuan_Hoa</name>
        <LineString>
            <tessellate>1</tessellate>
            <coordinates>105.6649797836193,18.61685678353928,0
105.665250937655,18.61687244869258,0
105.6652925893179,18.6173344722569,0
105.6653925121901,18.6185392887964,0
105.6654237621381,18.61882601845737,0
105.6654192854646,18.61880749632574,0
105.6655866690624,18.61880543578027,0
105.6657760050861,18.61877108110487,0
105.6657656160378,18.61876910381364,0
105.6657659633346,18.61877001963483,0
105.6660187762621,18.61908092911273,0
105.6661250033098,18.61955616990031,0
105.6662628605851,18.62020254385411,0
105.6664293352724,18.62136636223415,0
105.6665779294946,18.62222922753875,0
105.6667986740816,18.62352707314692,0
105.6669086597749,18.6242768835255,0
105.667007642264,18.62486422059445,0
105.6669246992673,18.6263242723329,0
105.6668660843273,18.62736950844153,0
105.6668749423811,18.62780428569772,0
105.6669285843488,18.62839925248661,0
105.6669496558324,18.6290299045097,0
105.6669054049885,18.62967464756882,0
105.6667822586518,18.63049407739791,0
105.666721392364,18.63106203499338,0
105.6666518329116,18.63204355916895,0
105.6666260976924,18.63345785549664,0
105.6665619924818,18.6349652043687,0
105.6664547355257,18.6360626312293,0
105.6664878860731,18.63706789344769,0
105.6664048353572,18.6379583401521,0
105.6663464362304,18.63897362500812,0
105.6663560103199,18.63957674203504,0
105.6663567943453,18.63972291927437,0
105.6668086203812,18.63978191618484,0
105.6677820262718,18.63985642762624,0
105.6683322848757,18.63993212381578,0
105.6689691262504,18.64001032110543,0
105.6695332917829,18.64004920030069,0
105.6695573048693,18.64038230179719,0
105.669595735557,18.64063849378254,0
105.6697066958026,18.64080008248851,0
105.6700712509767,18.64076961499582,0
105.6703857953987,18.64075708700401,0
105.6706149088018,18.64076092282138,0
105.670946045571,18.64097987476184,0
105.6711084124674,18.64107362866812,0
105.6710572998277,18.64141905744191,0
105.6710352958665,18.64162689693661,0
105.6710400792179,18.64173684930231,0
105.6711528768208,18.64165330225607,0</coordinates>
        </LineString>
    </Placemark>
</Document>
</kml>