<?xml version="1.0" encoding="UTF-8"?>
<kml xmlns="http://www.opengis.net/kml/2.2">
<Document>
    <name>CSG14_7. NA_HMA_QUYNH_THIEN @ NA_HMA_QUYNH_XUAN.kml</name>
    <Placemark>
        <name>Tuyen_Cap_Chuan_Hoa</name>
        <LineString>
            <tessellate>1</tessellate>
            <coordinates>105.6883620139952,19.21296995023826,0
105.6872506829052,19.21367233957399,0
105.6883079481242,19.21515756931069,0
105.6896847226339,19.21693090587926,0
105.6906797952419,19.21848150952073,0
105.691522591587,19.21939971034867,0
105.6921720105694,19.22017288420734,0
105.692635988291,19.22081879821938,0
105.6932481692004,19.22140410034817,0
105.6941548371363,19.22223512603309,0
105.6950174960618,19.22324692725931,0
105.6954359168774,19.22373451958116,0
105.6980633896143,19.22707542173088,0
105.7010952983942,19.23080261892457,0
105.7042985607582,19.23475464028566,0
105.7047102479937,19.23582562166233,0
105.7058565313479,19.2368865714501,0
105.7063817823077,19.23763470066304,0
105.7072063982099,19.23836870442205,0
105.7076590680818,19.23913802903841,0
105.708637912569,19.24133067280786,0
105.7105556791819,19.24518115664729,0
105.7077436813389,19.2467680359914,0
105.7071020736265,19.24723795676677,0
105.7067188754787,19.24731772457665,0
105.7067052333288,19.24751893965655,0</coordinates>
        </LineString>
    </Placemark>
</Document>
</kml>