<?xml version="1.0" encoding="UTF-8"?>
<kml xmlns="http://www.opengis.net/kml/2.2">
<Document>
    <name>CSG13_1. NA_QLU_CAU_GIAT - NA_QLU_QUYNH_HAU.kml</name>
    <Placemark>
        <name>Tuyen_Cap_Chuan_Hoa</name>
        <LineString>
            <tessellate>1</tessellate>
            <coordinates>105.6234889282165,19.13743297916031,0
105.6234087168396,19.13739818144467,0
105.6234760070261,19.13725852828135,0
105.6232776104551,19.13712724208931,0
105.6228809604034,19.13684831763678,0
105.6225922492573,19.13724115625335,0
105.6222802340285,19.13745355000838,0
105.6231314060514,19.13842612035,0
105.6243748388232,19.13975461459166,0
105.6253067948299,19.14077023712653,0
105.6268083524643,19.14242383693171,0
105.6265360159072,19.14260105032812,0
105.6294895208523,19.145786583821,0
105.6301027978996,19.14647123944499,0
105.6303611804913,19.14631645300507,0
105.6305698874576,19.14655397491549,0
105.6308354903013,19.14689417743122,0
105.6306244960336,19.14707386988607,0
105.6324263228663,19.14901474879221,0
105.6343567172391,19.15110047958131,0
105.6345417637538,19.15095992167915,0
105.6355778580692,19.1501273954565,0
105.6358450936932,19.15050105650884,0
105.6380964353984,19.15304866884495,0
105.642089786038,19.1571487457306,0
105.6436359293635,19.15808610353168,0
105.6412677776037,19.15919190150676,0
105.6396932640944,19.16008057373362,0
105.6393875242322,19.16070895502272,0
105.6444959801421,19.1630826331021,0
105.6449170731779,19.16276368658756,0
105.6451324568572,19.1626283237194,0
105.6446633531934,19.16215261086775,0
105.6458726196695,19.16113619971053,0
105.6470479995762,19.15974934500228,0
105.6472597585596,19.1595605621791,0
105.6474198367594,19.15968486660541,0
105.6474335762109,19.15963237588017,0
105.6474954983975,19.1596099654598,0</coordinates>
        </LineString>
    </Placemark>
</Document>
</kml>