<?xml version="1.0" encoding="UTF-8"?>
<kml xmlns="http://www.opengis.net/kml/2.2">
<Document>
    <name>CSG1_5. NA_HNN_HUNG_TIEN -  NA_HNN_HUNG_TAN.kml</name>
    <Placemark>
        <name>Tuyen_Cap_Chuan_Hoa</name>
        <LineString>
            <tessellate>1</tessellate>
            <coordinates>105.6242952708335,18.63904380296517,0
105.6240882404546,18.6390836750859,0
105.624052564845,18.63906457882714,0
105.624077770507,18.63907613395687,0
105.6240877920759,18.63908600201112,0
105.6240396073236,18.63904910464396,0
105.6222768101353,18.63681531380933,0
105.6221071454917,18.63677252205444,0
105.6218801864258,18.63696923775187,0
105.6211756682179,18.63603645591792,0
105.620765584104,18.63626143058971,0
105.6202666393629,18.63660624677502,0
105.6199706637966,18.63693583885789,0
105.6195794098745,18.63637003513322,0
105.6191999140373,18.63587336189825,0
105.6187581088146,18.63530221913084,0
105.6185064161459,18.63488066616366,0
105.6183408190385,18.63452732960725,0
105.6182903451945,18.63438822247838,0
105.6188865116791,18.63395281642378,0
105.6180693220589,18.63322584098711,0
105.6177519207142,18.63293029148152,0
105.617328885035,18.63251641851202,0
105.6169942770731,18.63220458133173,0
105.6164655628141,18.6316883935781,0
105.6168849544946,18.63127053322882,0
105.6167573037098,18.63104280435651,0
105.6165334382063,18.63070293686591,0
105.6169594761286,18.6304485369873,0
105.6170264603641,18.63008383789617,0
105.617088901429,18.62952853259559,0
105.6171139902655,18.62908421895212,0
105.6172149262215,18.62872008938527,0
105.617262057338,18.62834286063993,0
105.6172956243989,18.62761705033717,0
105.6173291124235,18.62710316719459,0
105.6180919626372,18.62710888886313,0
105.618272271872,18.62717329378647,0
105.618280940836,18.62673987287323,0
105.6181812366026,18.62643114333629,0
105.6179433056742,18.62601708568537,0
105.6177957369077,18.62572273205493,0
105.6175145975219,18.6251844838479,0
105.617379890024,18.6249914486696,0
105.6171574280887,18.62474596721296,0
105.6167949785515,18.62448291788499,0
105.6171312023405,18.62411215318535,0
105.6173821043774,18.62378749208908,0
105.6176033834643,18.62349859538948,0
105.6179381704724,18.62317232563102,0
105.6182522819929,18.62278262699806,0
105.6185385272713,18.62248181371832,0
105.6187888112112,18.62216972608279,0
105.6191590008622,18.6217218245832,0
105.6194130210584,18.62143808616334,0
105.6196037740077,18.62123694928284,0
105.6198107311895,18.6210077020087,0
105.6199230688916,18.62085790231512,0
105.6200002489581,18.62070842014716,0
105.6200487361731,18.62063923506297,0
105.6199829505584,18.62059001027119,0
105.6197605383275,18.6204678820157,0
105.6194406062834,18.62032969517982,0
105.619399523345,18.62030738583045,0
105.6193938049057,18.62025798589218,0
105.6195609634621,18.61993714607456,0
105.6196864054785,18.61968475968652,0
105.6197284821841,18.61959018316415,0
105.6198321652348,18.61947212669695,0
105.6198768152178,18.61918746751034,0
105.6199259680494,18.61895421206577,0
105.6199381625648,18.61878877437294,0
105.6199440777021,18.61863817678934,0
105.6199486916483,18.61854196203463,0
105.6199641954229,18.61841996894628,0
105.6199791535886,18.61825159366301,0
105.619972685886,18.61809000898036,0
105.6199685349032,18.61790177302488,0
105.61991654302,18.61764679584527,0
105.6198719385624,18.6173932804487,0
105.6197811082208,18.61722418282669,0
105.6195415592656,18.61699689937137,0
105.61919412434,18.61672795432771,0
105.6191660776753,18.61661391565656,0
105.6199051949374,18.61640598516047,0
105.620625796254,18.61637280049203,0
105.6212738930223,18.61634112043287,0
105.6218759158738,18.61632136689261,0
105.6228957682807,18.61632277182722,0
105.6231503689213,18.61628116169814,0
105.623935118577,18.61627553691504,0
105.6247029289056,18.61629294954099,0
105.625307315854,18.61631081813949,0
105.6257433892164,18.61628239385045,0
105.6262982683896,18.61620047876703,0
105.6270282094826,18.61610328559475,0
105.6281702215964,18.61614679514323,0
105.6291798577125,18.61616251847017,0
105.6293146482418,18.61557129766148,0
105.6293938317004,18.61543523204809,0
105.6294846742602,18.61533300718489,0
105.6296582471928,18.61511880172396,0
105.6297998285794,18.61523607236259,0
105.6298306382512,18.61532521994663,0</coordinates>
        </LineString>
    </Placemark>
</Document>
</kml>