<?xml version="1.0" encoding="UTF-8"?>
<kml xmlns="http://www.opengis.net/kml/2.2">
<Document>
    <name>CSG11_1. NA_DCU_DIEN_CHAU - NA_DCU_CAU_BUNG.kml</name>
    <Placemark>
        <name>Tuyen_Cap_Chuan_Hoa</name>
        <LineString>
            <tessellate>1</tessellate>
            <coordinates>105.6005866614875,18.97709850662276,0
105.600662071268,18.9760539488023,0
105.6029393691849,18.97615628048974,0
105.6029541775797,18.97884672958697,0
105.6005260163297,18.97872765294765,0
105.6001367467222,18.97876466650764,0
105.5985867491803,18.97838834854159,0
105.5974121509391,18.97646411376903,0
105.5934708130274,18.97464438217605,0
105.5910927953012,18.9731458114248,0
105.5888076379832,18.97723539936482,0
105.5851486043638,18.9847820870082,0
105.5846683200518,18.98648177283728,0
105.5826277386877,18.98818316276329,0
105.5784609848676,18.99272867640511,0
105.5783430307959,18.99632215903035,0
105.5783552947328,19.0104421097747,0
105.5805056288768,19.01045243935543,0
105.5813632966766,19.01042432034058,0
105.5822918065714,19.01029241064287,0
105.5828185093766,19.01009602668763,0
105.5824808342963,19.01227621100367,0
105.5820164392963,19.0123309499609,0
105.5819953308598,19.0124857743576,0</coordinates>
        </LineString>
    </Placemark>
</Document>
</kml>