<?xml version="1.0" encoding="UTF-8"?>
<kml xmlns="http://www.opengis.net/kml/2.2">
<Document>
    <name>CSG13_3. NA_HMA_QUYNH_LOC - NA_HMA_QUYNH_THIEN.kml</name>
    <Placemark>
        <name>Tuyen_Cap_Chuan_Hoa</name>
        <LineString>
            <tessellate>1</tessellate>
            <coordinates>105.7066873846195,19.24752525363966,0
105.7067549189316,19.24734142126033,0
105.7071295636553,19.24726416078843,0
105.7077835404058,19.24678150561276,0
105.7107607754195,19.2451638120699,0
105.7123303128457,19.24879808976872,0
105.7126923793896,19.25088540462474,0
105.7122871482854,19.25128591209529,0
105.7124928482152,19.2523714922758,0
105.7146482618503,19.25207207173047,0
105.7162567889489,19.25666326894719,0
105.7167538481338,19.25853782204226,0
105.7173639775063,19.25961131392912,0
105.7175747594027,19.2608650771429,0
105.7172303950387,19.26155916797117,0
105.7163803943063,19.26140350987365,0
105.7154192117575,19.26190237252524,0
105.7179390793172,19.26785993526792,0
105.7240305980872,19.26558287886855,0
105.7258425727606,19.26456915006057,0
105.7287541244713,19.26432529192379,0
105.7319697319468,19.26318022014223,0
105.734502236087,19.26286775739945,0
105.7360545193882,19.2621566251548,0
105.7371441444333,19.26185027236424,0
105.7374634286623,19.26175441832272,0
105.7385019200731,19.26132484594144,0
105.7395984553918,19.26070789178551,0
105.7397816713742,19.26086208790478,0
105.7398855556285,19.26119744548718,0
105.7400916033148,19.2613338317747,0
105.739998743389,19.26144692044542,0</coordinates>
        </LineString>
    </Placemark>
</Document>
</kml>