<?xml version="1.0" encoding="UTF-8"?>
<kml xmlns="http://www.opengis.net/kml/2.2">
<Document>
    <name>CSG1_8.NA_HNN_HUNG_NGUYEN- NA_HNN_HUNG_NGUYEN_AGG.kml</name>
    <Placemark>
        <name>Tuyen_Cap_Chuan_Hoa</name>
        <LineString>
            <tessellate>1</tessellate>
            <coordinates>105.634443020978,18.67121170561951,0
105.634353728655,18.67127900390095,0
105.6341540313383,18.67083365823675,0
105.6341286385363,18.67076423057788,0
105.6340523767304,18.67072878894061,0
105.6341124701823,18.67065027549959,0
105.6338833572534,18.67069454647948,0
105.6337479076287,18.67070670839957,0
105.6334999190293,18.67073327215653,0
105.6334689597234,18.67053066121656,0
105.6336972917773,18.67051233959963,0
105.6338237592145,18.67046942967375,0
105.6337643372946,18.67034111306394,0
105.6337482883024,18.67018552376226,0
105.6340064584721,18.67016032618194,0</coordinates>
        </LineString>
    </Placemark>
</Document>
</kml>