<?xml version="1.0" encoding="UTF-8"?>
<kml xmlns="http://www.opengis.net/kml/2.2">
<Document>
    <name>CSG10_1. NA_YTH_HOA_THANH - NA_YTH_NAM_THANH.kml</name>
    <Placemark>
        <name>Tuyen_Cap_Chuan_Hoa</name>
        <LineString>
            <tessellate>1</tessellate>
            <coordinates>105.4968287760556,18.99936072073815,0
105.4966075555818,18.99927425114934,0
105.4968118983192,18.9989080337228,0
105.4965407206593,18.99858212984503,0
105.493283517603,18.99753876327854,0
105.4918973613746,18.99772882247563,0
105.4868697825841,18.99836284673662,0
105.4866750562142,18.9982452421698,0
105.4796747721613,18.99504326164801,0
105.4786496823237,18.99473078587251,0
105.4759991198578,18.99468606112015,0
105.4756967359193,18.99406409184461,0
105.4750290837469,18.99178803963469,0
105.4734707884126,18.98579758509142,0
105.4692346722657,18.97128263562864,0
105.4510949725208,18.96946187723435,0
105.4503964681794,18.96487317332965,0
105.4482109008866,18.9564961796054,0
105.4479263928692,18.95656924666202,0
105.4476611442664,18.95659640490421,0
105.4475049548454,18.95671833983344,0
105.4467937447735,18.95680347914116,0
105.445170217673,18.95697228237139,0
105.4433806886487,18.95718953635403,0
105.4422360675536,18.9573710125767,0
105.4422577294081,18.95830994809254,0
105.4430747613671,18.95826485313472,0
105.4434873119826,18.95819852547663,0
105.4433044688068,18.95799868225251,0</coordinates>
        </LineString>
    </Placemark>
</Document>
</kml>