<?xml version="1.0" encoding="UTF-8"?>
<kml xmlns="http://www.opengis.net/kml/2.2">
<Document>
    <name>CSG14_3. NA_QLU_KHANH_THANH - NA_QLU_QUYNH_LUONG.kml</name>
    <Placemark>
        <name>Tuyen_Cap_Chuan_Hoa</name>
        <LineString>
            <tessellate>1</tessellate>
            <coordinates>105.6939088681785,19.120483026723,0
105.6938908211012,19.12046362937385,0
105.6938425372029,19.12050467584954,0
105.6940662369365,19.12151207244998,0
105.6944465183523,19.12150001958401,0
105.6947440434774,19.12168247484458,0
105.6948882627188,19.12280423009317,0
105.6953523752247,19.12454548333173,0
105.695238006348,19.12461100359174,0
105.6954807554051,19.12538032155678,0
105.695723893265,19.12625942803713,0
105.6959031585896,19.12694350824544,0
105.6959987162639,19.12729963951766,0
105.6961585690939,19.12757976798354,0
105.6962739417223,19.12767234864133,0
105.6964413007347,19.12771564608085,0
105.6972802969685,19.12778264114007,0
105.6974653842694,19.12765735146993,0
105.6979804981358,19.12757400373533,0
105.6983387842897,19.12754153827356,0
105.6986755505701,19.12749655034206,0
105.698995431667,19.12754573908052,0
105.6993790192091,19.12761887805975,0
105.6998015882358,19.1276044776442,0
105.7001958651551,19.12751154938087,0
105.7003863864869,19.12745289217714,0
105.7006885303653,19.12734739003657,0
105.7011003726139,19.12724749147932,0
105.7015200327274,19.12715748713138,0
105.7018964616853,19.12700596508312,0
105.702714176288,19.12742082768294,0
105.703843767548,19.12796338488677,0
105.7044038259207,19.12807377817079,0
105.7045760660642,19.128081083572,0
105.7051932213907,19.1276483859955,0
105.7051945398715,19.12751596623524,0
105.7055779108923,19.12747200504255,0
105.7066812772614,19.1274652642436,0
105.7079009593671,19.12743286095506,0
105.7088489723597,19.12741799120548,0
105.7105428675857,19.12738862183397,0
105.7121209056342,19.12736875214571,0
105.7129078985208,19.12735724610507,0
105.7133624509769,19.12726488404902,0
105.7139269248073,19.12725773508432,0
105.7144629573485,19.12728277273357,0
105.7144315754902,19.12786784195496,0
105.7144544530385,19.12984628960839,0
105.7144329142486,19.13021332113845,0
105.7143437790121,19.13124801636637,0
105.7143231507817,19.13257874405586,0
105.7142043706267,19.1327460489632,0
105.7142035542355,19.13347816763115,0
105.7140144135131,19.1346817479366,0
105.713897324041,19.13623393504611,0
105.7138151050799,19.13748537445848,0
105.7138344831592,19.1388795287579,0
105.7137070951986,19.14011446931355,0
105.7135814745943,19.14237731384868,0
105.7134938422485,19.14327507278775,0
105.7136385201513,19.14414613411525,0
105.7137349139725,19.14529351479624,0
105.7137748802918,19.14564654215912,0
105.7139090351542,19.14593902236013,0
105.7139185438059,19.14682746546853,0
105.7139282972847,19.14826155346052,0
105.7139560991598,19.14929922695734,0
105.7139951276949,19.15040228546065,0
105.7141385269876,19.15156302213132,0
105.7142010423093,19.1521864895842,0
105.7142226290557,19.1524664321429,0
105.7142751752014,19.15265474651605,0
105.7141145174078,19.15269142623801,0
105.7139654614424,19.15285799520882,0
105.7137884946477,19.15291175447323,0
105.7135679474552,19.15297965287142,0
105.7136432923271,19.15302293003175,0</coordinates>
        </LineString>
    </Placemark>
</Document>
</kml>