<?xml version="1.0" encoding="UTF-8"?>
<kml xmlns="http://www.opengis.net/kml/2.2">
<Document>
    <name>CSG11_2. NA_DCU_CAU_BUNG -NA_DCU_DIEN_HONG.kml</name>
    <Placemark>
        <name>Tuyen_Cap_Chuan_Hoa</name>
        <LineString>
            <tessellate>1</tessellate>
            <coordinates>105.5820011205529,19.01247648604752,0
105.5820000677334,19.01234578302948,0
105.5816235142295,19.01233434608376,0
105.5815309433575,19.01242357088901,0
105.5806322655376,19.01237007323844,0
105.5788719612595,19.01222829771578,0
105.5783073925436,19.01252308556952,0
105.5786724147793,19.01661448297818,0
105.579229001734,19.02232254887946,0
105.579499506086,19.02561645375238,0
105.579702334834,19.02868955553354,0
105.5795054807985,19.03230718388982,0
105.5799755266881,19.03485918977132,0
105.5806320636079,19.03480496265542,0
105.5808243958969,19.03746567400707,0
105.5812720692858,19.04639605793997,0
105.5816046621275,19.04628370435037,0
105.5816069850072,19.04628088627835,0
105.5818691181121,19.04659315746276,0</coordinates>
        </LineString>
    </Placemark>
</Document>
</kml>