<?xml version="1.0" encoding="UTF-8"?>
<kml xmlns="http://www.opengis.net/kml/2.2">
<Document>
    <name>CSG11_4. NA_DCU_YEN_LY - NA_QLU_CAU_GIAT.kml</name>
    <Placemark>
        <name>Tuyen_Cap_Chuan_Hoa</name>
        <LineString>
            <tessellate>1</tessellate>
            <coordinates>105.6235074607266,19.13751943162354,0
105.6234162894554,19.13744196057956,0
105.6234790128503,19.13726547213632,0
105.6232296513708,19.13709309382952,0
105.6228707039393,19.13685018449584,0
105.6225453568791,19.13724421363044,0
105.6222620006653,19.1374285691998,0
105.6207363849321,19.13571484393382,0
105.620567259101,19.13581499850758,0
105.615902648698,19.13060334527384,0
105.6158286648633,19.13075791797172,0
105.6151581109737,19.1310319702351,0
105.6109490706801,19.13044558577176,0
105.6106788602385,19.13040152200022,0
105.6105327040223,19.12965468458653,0
105.6099835983179,19.12910464840164,0
105.604927038677,19.12016922465077,0
105.6030519644257,19.1164567894412,0
105.6022180559633,19.11560780288007,0
105.5986976868532,19.10913454738031,0
105.5925542540327,19.09833541534536,0
105.5864505031083,19.08745734102235,0
105.5847181218481,19.08039248462856,0
105.5859600866055,19.07949200482155,0
105.5867812440024,19.0791004054898,0
105.58791741895,19.08259004168693,0
105.5884076098895,19.083931933621,0
105.5886189019217,19.08367965040068,0</coordinates>
        </LineString>
    </Placemark>
</Document>
</kml>