<?xml version="1.0" encoding="UTF-8"?>
<kml xmlns="http://www.opengis.net/kml/2.2">
<Document>
    <name>CSG1_4. NA_HNN_HUNG_PHUC - NA_HNN_HUNG_TIEN.kml</name>
    <Placemark>
        <name>Tuyen_Cap_Chuan_Hoa</name>
        <LineString>
            <tessellate>1</tessellate>
            <coordinates>105.6298879230106,18.61532474603604,0
105.6298033912016,18.61523442326003,0
105.6296594810415,18.61510891970797,0
105.629476952337,18.61532982713809,0
105.6293315028519,18.61559574167159,0
105.6291793196883,18.6161836358066,0
105.6297199051123,18.61618013464701,0
105.6303255895006,18.61615992454366,0
105.6311185429897,18.61615966064856,0
105.6317457398799,18.61613759599541,0
105.6326556677974,18.61608374965991,0
105.6329794682035,18.61610124897168,0
105.6333777791796,18.61609993407718,0
105.634049393242,18.61592261202508,0
105.6344782421308,18.61585800688585,0
105.6349896992802,18.61571400699625,0
105.6352844990664,18.61567387538348,0
105.6366232037209,18.61525115521866,0
105.6376797006295,18.61505593748367,0
105.6388897704985,18.61474029976816,0
105.6403976094744,18.61330340913975,0
105.6412336982767,18.61224282835862,0
105.641764030513,18.61307523838127,0
105.6420610986027,18.61357390947757,0
105.6425441134015,18.61375057370912,0
105.6429044618774,18.61357782705775,0
105.6436354395949,18.61325636915189,0
105.644098447072,18.61300204424897,0
105.6442491244443,18.612922993086,0
105.6448662826075,18.6128598859655,0
105.6454205122872,18.6137442990197,0
105.6458199746094,18.61440763841585,0
105.6460937355322,18.61490730261399,0
105.6464367167862,18.61549743838044,0
105.6472732307717,18.6167985881142,0
105.647814182896,18.61671200950225,0
105.6484033931241,18.61579866686977,0
105.6493717297822,18.61575402512389,0
105.6508587453837,18.61573178978795,0
105.6524533263795,18.61563652101893,0
105.6538227778289,18.61554668764559,0
105.6548097084847,18.6157933664313,0
105.6557430176725,18.61585166360256,0
105.6566033750313,18.61592643740934,0
105.6577475202364,18.61593074655615,0
105.6594517129169,18.61603157121833,0
105.6606315032361,18.61602324813844,0
105.6618355154304,18.6160378813461,0
105.6634899583575,18.61605915942313,0
105.6643935455912,18.61618961109877,0
105.6646111551264,18.61626460355093,0
105.6647612176614,18.61639152599508,0
105.6651749956035,18.61639058207377,0
105.6652420120007,18.61665623824726,0
105.6652515380477,18.61687604727262,0
105.664984840903,18.61686099345071,0</coordinates>
        </LineString>
    </Placemark>
</Document>
</kml>