<?xml version="1.0" encoding="UTF-8"?>
<kml xmlns="http://www.opengis.net/kml/2.2">
<Document>
    <name>CSG2_3. NA_VIH_CHO_VINH_3 - NA_VIH_SVD_VINH.kml</name>
    <Placemark>
        <name>Tuyen_Cap_Chuan_Hoa</name>
        <LineString>
            <tessellate>1</tessellate>
            <coordinates>105.6738702680545,18.6652772594614,0
105.673562062496,18.66500254848788,0
105.6728849600588,18.66504393078746,0
105.6728873148502,18.66567847923785,0
105.6730083823445,18.66589073111572,0
105.6730336991185,18.66676029841958,0
105.6722039844333,18.66680205135378,0
105.6712739079902,18.66683842193875,0
105.6700968377788,18.66685722210556,0
105.6692791129527,18.66688039748322,0
105.6693468888007,18.66701564255305,0
105.6692326729093,18.66729092929679,0
105.6692331334506,18.66753694662102,0
105.6694103899846,18.66765834449143,0
105.6696141051408,18.66796652589324,0
105.6699701116798,18.66812974850285,0
105.6700557527856,18.66834311931682,0
105.6701232587971,18.66861334763613,0
105.6701099277277,18.66922681848687,0
105.670085504624,18.6695456867839,0
105.6700881914576,18.66988654701912,0
105.6701174186024,18.67046447071582,0
105.6701095106306,18.67106219468562,0
105.6701701720163,18.67135509294332,0
105.6695424692392,18.67138686757375,0
105.6690584152082,18.67140594659685,0
105.6686619353317,18.67142706662665,0
105.6678543003641,18.67145906220504,0
105.6676374226867,18.67147585020493,0
105.6673642104998,18.67149079597058,0
105.667434479025,18.67130665245422,0</coordinates>
        </LineString>
    </Placemark>
</Document>
</kml>