<?xml version="1.0" encoding="UTF-8"?>
<kml xmlns="http://www.opengis.net/kml/2.2">
<Document>
    <name>CSG2_2. NA_VIH_TRAN_PHU - NA_VIH_CHO_VINH_3.kml</name>
    <Placemark>
        <name>Tuyen_Cap_Chuan_Hoa</name>
        <LineString>
            <tessellate>1</tessellate>
            <coordinates>105.6738669008377,18.66527239695891,0
105.673564858085,18.66500369009147,0
105.6729675471436,18.66503447937593,0
105.672960423267,18.66474635353893,0
105.6729428976417,18.6641011036039,0
105.6729482502061,18.66381207227223,0
105.6719518906503,18.66381143689583,0
105.6708958187423,18.66388191975051,0
105.670959570598,18.66366684961846,0
105.671277675067,18.66316663684357,0
105.6717405016624,18.66235331960669,0
105.6725554779331,18.66230796285755,0
105.6734961177837,18.66223311198253,0
105.6743072084021,18.66217147136913,0
105.6748410304935,18.66216966350757,0
105.6749234577952,18.66233097352068,0
105.6749125566578,18.66262568582687,0
105.6749291550199,18.66307572027026,0
105.6749624885881,18.66354959353173,0
105.6748696889941,18.66366170733693,0
105.6751027126436,18.66365272840012,0
105.6755569415717,18.66365323454004,0
105.6760116184496,18.66361889305744,0
105.6776535835562,18.66355802519972,0
105.6786474894128,18.66351442384176,0
105.6787655074084,18.66273171371845,0
105.6788894094615,18.66231230960494,0
105.6790751490588,18.66173851176983,0
105.6800793920983,18.6620588198484,0
105.6807941462835,18.66228138492977,0
105.6823041465936,18.66274240427331,0
105.6822247086222,18.66216047251261,0
105.6820556617584,18.66191997130978,0</coordinates>
        </LineString>
    </Placemark>
</Document>
</kml>