<?xml version="1.0" encoding="UTF-8"?>
<kml xmlns="http://www.opengis.net/kml/2.2">
<Document>
    <name>CSG2_1.NA_VIH_ROADM_VINH_1 - NA_VIH_TRAN_PHU.kml</name>
    <Placemark>
        <name>Tuyen_Cap_Chuan_Hoa</name>
        <LineString>
            <tessellate>1</tessellate>
            <coordinates>105.6822951924516,18.6627334229945,0
105.6825602944562,18.66378585949025,0
105.6827739134711,18.66464002912715,0
105.6828448644262,18.66492819900692,0
105.6831116960752,18.66484456718329,0
105.6831815554739,18.66511669818791,0
105.6832243473737,18.66535292763232,0
105.683379025272,18.66550396592717,0
105.6834990925288,18.66575675789666,0
105.6830022479588,18.66589097279238,0
105.6831717022973,18.66667945166179,0
105.6812313583001,18.66672845791103,0
105.6803014061027,18.66867549599961,0
105.6837189844611,18.66968841049498,0
105.683694050629,18.66986056388901,0
105.6837544665067,18.6701042215976,0
105.6835922784095,18.67018097635517,0
105.6836731802333,18.67027331380592,0
105.6839972558562,18.67031415374179,0</coordinates>
        </LineString>
    </Placemark>
</Document>
</kml>