<?xml version="1.0" encoding="UTF-8"?>
<kml xmlns="http://www.opengis.net/kml/2.2">
<Document>
    <name>CSG3_5. NA_VIH_DAI_LO_3_2 - NA_VIH_PHUNG_CHI_KIEN.kml</name>
    <Placemark>
        <name>Tuyen_Cap_Chuan_Hoa</name>
        <LineString>
            <tessellate>1</tessellate>
            <coordinates>105.6930470702452,18.68497354698658,0
105.693088914216,18.68479904070235,0
105.69207969992,18.68485867333354,0
105.6909531257231,18.68485786509588,0
105.6900332668437,18.68489565086254,0
105.6888623374208,18.68491686510552,0
105.6888853889375,18.68469641847663,0
105.68888956429,18.68435174073054,0
105.6893347421271,18.68436194454032,0
105.6897549711386,18.68436387652523,0
105.6898373725139,18.68438623661028,0
105.6898635706349,18.68434282300829,0
105.6899167303641,18.68404157542246,0
105.6899525340134,18.68366650732245,0
105.6899697564594,18.68321500425536,0
105.6899747659907,18.68283044965802,0
105.6899811202476,18.68228828158908,0
105.6900113628705,18.68186534828944,0
105.6904036048954,18.68186479779592,0
105.6910968940758,18.68188240829886,0
105.691230477366,18.68171858829463,0
105.6911422204545,18.67979710987343,0
105.6911260068306,18.67931455338645,0
105.691120119374,18.6789915799497,0
105.6917118788589,18.67896851515378,0
105.6918372258863,18.67892114002714,0
105.6918151733059,18.67856444314921,0
105.6918260706328,18.67820342015846,0
105.6918084111352,18.67778328707899,0
105.6920402836325,18.67777711912277,0
105.6921271610271,18.67779599891063,0</coordinates>
        </LineString>
    </Placemark>
</Document>
</kml>