<?xml version="1.0" encoding="UTF-8"?>
<kml xmlns="http://www.opengis.net/kml/2.2">
<Document>
    <name>CSG3_7. NA_VIH_NGUYEN_SY_SACH_3 - NA_VIH_ROADM_VINH_2.kml</name>
    <Placemark>
        <name>Tuyen_Cap_Chuan_Hoa</name>
        <LineString>
            <tessellate>1</tessellate>
            <coordinates>105.6674329942828,18.67130613012637,0
105.6673678319528,18.67149027097202,0
105.666984660107,18.6717182106767,0
105.6666349775713,18.67195927247666,0
105.666267958379,18.67218501391543,0
105.6657603577372,18.67241887556922,0
105.6651775557903,18.67277186692972,0
105.6648491590717,18.67299489149107,0
105.664761696659,18.67291917442417,0
105.6646029575887,18.67295531548844,0
105.6646181354671,18.67313398585472,0
105.6646351058796,18.67368215294031,0
105.6646593219227,18.67428346423948,0
105.6646915952004,18.67520060254439,0
105.664739276289,18.67619814204809,0
105.664765440035,18.67671652779976,0
105.6649463488114,18.67670615541885,0
105.6656384487643,18.67669985586139,0
105.6667871253829,18.67665547373621,0
105.6679265291489,18.67662514297976,0
105.6691181077847,18.67659016558909,0
105.6700114820831,18.67658165672135,0
105.6709756612799,18.67655693591181,0
105.6721673893084,18.6765064308441,0
105.6730525854375,18.67648590093511,0
105.6732266859383,18.67648306242807,0
105.6736457112527,18.676460429429,0
105.6742367552643,18.67642115094712,0
105.6742586738491,18.67659701007016,0
105.6742946296672,18.67736108638496,0
105.6743322507182,18.67825269813584,0
105.6743648775465,18.67909525807178,0
105.6743860505558,18.68000689527006,0
105.6744311942763,18.68210448722019,0
105.6744716847258,18.68386831813174,0
105.6744752964797,18.68420739909892,0
105.6745027469232,18.68565053522881,0
105.6744904454469,18.68672188050103,0
105.6752832761575,18.68673167811119,0
105.6757761888795,18.68669065416589,0
105.6769003655848,18.68669841937862,0
105.6783803262716,18.68665943588751,0
105.6784173452924,18.68602236697926,0</coordinates>
        </LineString>
    </Placemark>
</Document>
</kml>