<?xml version="1.0" encoding="UTF-8"?>
<kml xmlns="http://www.opengis.net/kml/2.2">
<Document>
    <name>CSG3_4. NA_VIH_TRUONG_THI - NA_VIH_DAI_LO_3_2.kml</name>
    <Placemark>
        <name>Tuyen_Cap_Chuan_Hoa</name>
        <LineString>
            <tessellate>1</tessellate>
            <coordinates>105.6930648301494,18.68493771960187,0
105.6931455665516,18.68480184546345,0
105.6934007051251,18.68481301513136,0
105.6938153483237,18.68478798985572,0
105.6941897371836,18.6847863887749,0
105.6945167742417,18.68463460513851,0
105.6947876064092,18.68439051093519,0
105.6949846457336,18.68416564225716,0
105.6951864039919,18.68386836789146,0
105.6953866827978,18.68378380993232,0
105.6957505973826,18.68400910702377,0
105.6963975698089,18.68444250718488,0
105.6967652889293,18.68467374411041,0
105.6969859837378,18.68481075372392,0
105.6971296836846,18.68491571143637,0
105.6974127406424,18.68506862263776,0
105.6972616051222,18.68525411562731,0
105.6970362221452,18.68552618485241,0
105.6968580418117,18.68575451094872,0
105.6967694610092,18.68585048232923,0
105.6966184478291,18.68597520492627,0
105.6964012918692,18.68610067796184,0
105.696125991572,18.68625935344303,0
105.6958946698326,18.68646781982297,0
105.6963897917979,18.68647334650047,0
105.6970348168295,18.68644858215053,0
105.6982185549943,18.68640384437443,0
105.6995903804456,18.68633087260077,0
105.6996622093625,18.6865431428974,0
105.7000840298427,18.68654537966236,0
105.7002299343564,18.6862993139341,0
105.7000293534304,18.68599504690309,0
105.6997624154584,18.68553538441994,0
105.699333313053,18.68476985539585,0
105.6987629552648,18.68375059961364,0
105.6986647384287,18.68360153565801,0
105.6984251560551,18.68308992484861,0
105.6981033635457,18.68240343880035,0
105.697680082859,18.68152146587853,0
105.697269990569,18.68062751342752,0
105.6969109761312,18.67991884165626,0
105.6964863213694,18.67896648455032,0
105.6960704742346,18.67806680750029,0
105.6958920219997,18.67766512996039,0
105.6954416859712,18.67701845461837,0
105.6952353902261,18.67672749370724,0
105.6952014553802,18.67664249279109,0
105.6955762927037,18.67627751700227,0
105.696045309531,18.6757878203371,0
105.6960913724004,18.67567357384229,0
105.6960781260131,18.67551351056694,0
105.6962988506576,18.67544484752287,0
105.6963081531165,18.67531504082515,0
105.696194376511,18.67507281363652,0
105.6962467460394,18.67505165163135,0
105.696326424637,18.6750708995547,0</coordinates>
        </LineString>
    </Placemark>
</Document>
</kml>