<?xml version="1.0" encoding="UTF-8"?>
<kml xmlns="http://www.opengis.net/kml/2.2">
<Document>
    <name>CSG3_1. NA_VIH_ROADM_VINH_1 - NA_VIH_KS_THUONG_MAI.kml</name>
    <Placemark>
        <name>Tuyen_Cap_Chuan_Hoa</name>
        <LineString>
            <tessellate>1</tessellate>
            <coordinates>105.6839995017063,18.67031147082621,0
105.6836722542435,18.6702726092638,0
105.6836035533447,18.67017381754036,0
105.6837604796052,18.6701081612151,0
105.6836988608277,18.66985239659085,0
105.6837191895608,18.66968969582048,0
105.6825167303727,18.66931781536391,0
105.6809133125123,18.66879568490154,0
105.679487542168,18.66837236532562,0
105.6782948448692,18.66801148251356,0
105.6776750037115,18.6678268230122,0
105.6764390328193,18.66746808818845,0
105.676249930424,18.66747933811128,0
105.6753429321688,18.66749832896135,0
105.6742582619484,18.66753923426318,0
105.6730624604601,18.66759666737506,0
105.6730820761552,18.6680058651406,0
105.6730983813391,18.66857182024585,0
105.6731042038977,18.66874239554926,0
105.6731680956143,18.6693961919948,0
105.673053557738,18.66963835487858,0
105.6731687050486,18.66975850347431,0
105.6739109640669,18.66961206456235,0</coordinates>
        </LineString>
    </Placemark>
</Document>
</kml>