<?xml version="1.0" encoding="UTF-8"?>
<kml xmlns="http://www.opengis.net/kml/2.2">
<Document>
    <name>CSG3_2. NA_VIH_KS_THUONG_MAI - NA_VIH_LE_HONG_PHONG.kml</name>
    <Placemark>
        <name>Tuyen_Cap_Chuan_Hoa</name>
        <LineString>
            <tessellate>1</tessellate>
            <coordinates>105.6739085583454,18.66960371924025,0
105.6731661857122,18.66975718938764,0
105.6727761779521,18.66995965876758,0
105.6729503442109,18.67019869344952,0
105.672866435422,18.67031877055678,0
105.6726726485869,18.67031855858108,0
105.6723630217335,18.67027110799767,0
105.6721349551843,18.67025621941038,0
105.6719144554235,18.67024670933102,0
105.671958790137,18.67062988051242,0
105.6718640067493,18.67102235335161,0
105.6717833220166,18.67133150059617,0
105.6716124752645,18.67167597562747,0
105.6720201089999,18.67176196651953,0
105.6723259574489,18.67180383280402,0
105.6725344602054,18.67182516567539,0
105.6727255350621,18.67182806297005,0
105.6729321306852,18.67183011146369,0
105.673027258866,18.67454882879692,0
105.6730266867094,18.6746093761117,0
105.6730309962813,18.67482185787165,0
105.6730644235589,18.67649264892802,0
105.6742387987447,18.67642663194515,0
105.6746603163472,18.67640236817241,0
105.6752324061183,18.67637142396756,0
105.675946194405,18.67633163413234,0
105.6764019740611,18.67603853611202,0
105.6765240841711,18.67598838830418,0
105.6766795107625,18.67600598733438,0
105.6767929281763,18.67622371832694,0
105.6769685713511,18.67631932319183,0
105.6773582639849,18.67630675784034,0
105.6777250849814,18.67630665086055,0
105.6783033617472,18.67628453624754,0
105.6791375147542,18.67628303620618,0
105.6797542912299,18.67627990096904,0
105.6805363737202,18.6762598130135,0
105.6811282880517,18.67626649639923,0
105.6818691394454,18.67617319926086,0
105.6822933430021,18.67617566960542,0
105.6829912716024,18.67615814124764,0
105.6835120537428,18.67617165931896,0
105.6840206523774,18.67615506320501,0
105.6840200707445,18.67611537847769,0
105.6839961179643,18.67562281121858,0</coordinates>
        </LineString>
    </Placemark>
</Document>
</kml>