<?xml version="1.0" encoding="UTF-8"?>
<kml xmlns="http://www.opengis.net/kml/2.2">
<Document>
    <name>CSG3_3. NA_VIH_LE_HONG_PHONG - NA_VIH_TRUONG_THI.kml</name>
    <Placemark>
        <name>Tuyen_Cap_Chuan_Hoa</name>
        <LineString>
            <tessellate>1</tessellate>
            <coordinates>105.6839902297592,18.67562679575784,0
105.6840145601985,18.67611970956108,0
105.6848720487422,18.67609602512001,0
105.6855288634698,18.67607895376729,0
105.6868938858135,18.67604129110482,0
105.6882976297776,18.67599370301211,0
105.6908636903137,18.6758825657278,0
105.693906817867,18.67578628808869,0
105.6941748793665,18.67571487935588,0
105.6947192890335,18.67571494682564,0
105.6952037805296,18.67576277379106,0
105.6953466850635,18.67573843565193,0
105.6962991373722,18.67544678875946,0
105.6963016454729,18.67532452919669,0
105.6961901806227,18.67506849012405,0
105.6962386773036,18.67504918200693,0
105.6963250242961,18.6750691086965,0</coordinates>
        </LineString>
    </Placemark>
</Document>
</kml>