<?xml version="1.0" encoding="UTF-8"?>
<kml xmlns="http://www.opengis.net/kml/2.2">
<Document>
    <name>CSG3_6. NA_VIH_PHUNG_CHI_KIEN - NA_VIH_NGUYEN_SY_SACH_3.kml</name>
    <Placemark>
        <name>Tuyen_Cap_Chuan_Hoa</name>
        <LineString>
            <tessellate>1</tessellate>
            <coordinates>105.6783889719741,18.68599768143283,0
105.6784184100948,18.68665837686186,0
105.6802972760806,18.68662479366248,0
105.6818099663777,18.68661108307589,0
105.6838932110822,18.68662083019572,0
105.6860369081582,18.68663138795226,0
105.6886635858481,18.6866223989084,0
105.6886930272155,18.68634318609519,0
105.6887090873988,18.68600548888601,0
105.6887688780993,18.68533752262217,0
105.6887599241672,18.68507818615947,0
105.6887898837126,18.68472138724769,0
105.6888203086704,18.68426986825348,0
105.6888331090121,18.68373434958264,0
105.6888789136244,18.68325981782017,0
105.6889283683061,18.68222816083372,0
105.6889491366137,18.68133557070532,0
105.6889369737682,18.68082840302196,0
105.6889339746974,18.68037410408036,0
105.6889752314575,18.67996607157251,0
105.6889621354175,18.67953012103229,0
105.6889587833005,18.67914768721859,0
105.6889395969177,18.67841643088767,0
105.6889307683579,18.67792401467022,0
105.6890086565384,18.67781537112931,0
105.6890341673937,18.67650837220661,0
105.6890262279578,18.67622636107065,0
105.6890022465963,18.67596951463513,0
105.6895287401411,18.67596635736723,0
105.6903468274422,18.67588744479087,0
105.6908123007264,18.67587130470042,0
105.6915189102134,18.67584698951625,0
105.6917722380218,18.67609484405121,0
105.6917366036031,18.67631259433219,0
105.6917711711334,18.67714743568218,0
105.691821375302,18.677775975649,0
105.6920501319677,18.67775694317306,0
105.6921264213064,18.67778886675699,0</coordinates>
        </LineString>
    </Placemark>
</Document>
</kml>