<?xml version="1.0" encoding="UTF-8"?>
<kml xmlns="http://www.opengis.net/kml/2.2">
<Document>
    <name>CSG4_1. NA_VIH_ROADM_VINH_1 - NA_VIH_KS_PHUONG_DONG_IBC.kml</name>
    <Placemark>
        <name>Tuyen_Cap_Chuan_Hoa</name>
        <LineString>
            <tessellate>1</tessellate>
            <coordinates>105.6904675250519,18.66557663007664,0
105.6907232064705,18.66579394095622,0
105.6908377692714,18.66584183127455,0
105.6909027264384,18.66558274454191,0
105.6909643026452,18.66542883618514,0
105.6911032534615,18.66524184157617,0
105.6912985008945,18.66503534993611,0
105.6915625245658,18.66477382779553,0
105.6915051242063,18.66474661647908,0
105.6912344766814,18.66450625877036,0
105.6911094543927,18.66443081042436,0
105.6907681693798,18.66414884134027,0
105.6905457820919,18.66395205381639,0
105.690182858981,18.66368605328093,0
105.6899993728564,18.66352303392149,0
105.6898584893341,18.66355769386377,0
105.6892950497758,18.66311902858513,0
105.6891462824071,18.66340755239456,0
105.6889790221654,18.66362936827725,0
105.6889720237746,18.66386696824853,0
105.6889373347672,18.66407286576146,0
105.68871968369,18.66438108676821,0
105.688790185671,18.66472815219792,0
105.6888346241442,18.66500469854522,0
105.6888528999703,18.66530160075254,0
105.6881050843504,18.66536398985125,0
105.6874656820718,18.66542215391022,0
105.6868541422052,18.66546663194245,0
105.6859737006797,18.66547970515415,0
105.6850663434654,18.66548938850353,0
105.6842518144631,18.66550256283567,0
105.6833830600399,18.66551059770396,0
105.6835003903668,18.66575353809011,0
105.6830020163561,18.66589747326369,0
105.6831632957929,18.66668311729083,0
105.6831707033502,18.66668935029344,0
105.6829906033886,18.66670038253844,0
105.6821261796473,18.66679459916352,0
105.6812252353886,18.66678386571709,0
105.6803191613806,18.6686329947997,0
105.6837164542834,18.66969122768962,0
105.6837010394334,18.66985960781598,0
105.6837556569989,18.67010402156345,0
105.6835973352142,18.67018184756121,0
105.6836765085187,18.67027646175686,0
105.6839962674417,18.67031673512658,0</coordinates>
        </LineString>
    </Placemark>
</Document>
</kml>