<?xml version="1.0" encoding="UTF-8"?>
<kml xmlns="http://www.opengis.net/kml/2.2">
<Document>
    <name>CSG4_8. NA_NLC_NGHI_XUAN - NA_CLO_CUA_HOI.kml</name>
    <Placemark>
        <name>Tuyen_Cap_Chuan_Hoa</name>
        <LineString>
            <tessellate>1</tessellate>
            <coordinates>105.7336038284206,18.75095074925231,0
105.7336684275812,18.75103822969505,0
105.7338144091294,18.75104719576335,0
105.7339525787292,18.75110485918523,0
105.7340323032469,18.75154986821137,0
105.7343276871856,18.75206281130003,0
105.7347511265221,18.7526901980646,0
105.7350849633972,18.75321283018377,0
105.7354417697074,18.75373198028398,0
105.7356183940692,18.75423568179222,0
105.735511084424,18.75427501529545,0
105.7356936564067,18.75505910595695,0
105.7359563779591,18.75606968059942,0
105.7361975713706,18.75617571747295,0
105.736610443643,18.75674221634479,0
105.736985968113,18.7572051771493,0
105.7375238664604,18.75761021623365,0
105.7379561238629,18.75805491645227,0
105.7380247419383,18.75810310904991,0
105.7384267725788,18.75834580467154,0
105.7388309613843,18.75846852279265,0
105.7391410495117,18.75835655025502,0
105.7398353890395,18.75891951589256,0
105.7402367311426,18.75940341124092,0
105.7405369794964,18.75968571608562,0
105.7408413309023,18.75985799121852,0
105.7413207126355,18.75994018649423,0
105.7419518748495,18.76002912420418,0
105.7424970473501,18.76010031491002,0
105.7430238839639,18.76020352654459,0
105.7440555513192,18.76037345611497,0
105.7449287008578,18.7605283815442,0
105.7453997454896,18.76068272535232,0
105.7456658908805,18.76086572935246,0
105.7461250281088,18.76141371769475,0
105.7467746832625,18.76215160889758,0
105.7474346379807,18.76293872449704,0
105.7480429459544,18.76366789136422,0
105.7488759275956,18.76466094734607,0
105.7495131035293,18.76543668593889,0
105.7502227053895,18.76628645979183,0
105.7505327570106,18.76666060056655,0
105.751018144179,18.76635881205904,0
105.7514825500541,18.76593148845941,0
105.75173583773,18.76609079990474,0
105.7520011716163,18.76641993067335,0
105.7516030001281,18.76669165257396,0</coordinates>
        </LineString>
    </Placemark>
</Document>
</kml>