<?xml version="1.0" encoding="UTF-8"?>
<kml xmlns="http://www.opengis.net/kml/2.2">
<Document>
    <name>CSG4_2. NA_VIH_KS_PHUONG_DONG_IBC - NA_VIH_PHONG_DINH_CANG.kml</name>
    <Placemark>
        <name>Tuyen_Cap_Chuan_Hoa</name>
        <LineString>
            <tessellate>1</tessellate>
            <coordinates>105.7006449110231,18.66818685431884,0
105.700747968525,18.66827549550556,0
105.7009001236848,18.66827161823077,0
105.7011700851787,18.66786242933931,0
105.7011297685882,18.66758007977078,0
105.6990096323694,18.6668575914131,0
105.6987570100752,18.66814267126368,0
105.6989488883527,18.66838382274937,0
105.6984872011816,18.66822760318005,0
105.6980108573778,18.66821681629177,0
105.697303538092,18.66815776403947,0
105.6964871228353,18.66813399445214,0
105.6957256909994,18.66810593154938,0
105.6957181268066,18.66828996476093,0
105.6928864407451,18.66838258527448,0
105.692871269101,18.66823818805358,0
105.692036982683,18.66857613338205,0
105.691880283864,18.66818880561711,0
105.6915380375606,18.66748423257662,0
105.6913171031541,18.66705955386191,0
105.6910480171086,18.66652177436762,0
105.6908368536757,18.66586564490384,0
105.6907271521339,18.66579785482542,0
105.6904662484759,18.66558372962162,0</coordinates>
        </LineString>
    </Placemark>
</Document>
</kml>