<?xml version="1.0" encoding="UTF-8"?>
<kml xmlns="http://www.opengis.net/kml/2.2">
<Document>
    <name>CSG4_7. NA_NLC_NGHI_THAI_2 - NA_NLC_NGHI_XUAN.kml</name>
    <Placemark>
        <name>Tuyen_Cap_Chuan_Hoa</name>
        <LineString>
            <tessellate>1</tessellate>
            <coordinates>105.7208402941885,18.7288342942877,0
105.7207357714713,18.72883973825432,0
105.7204662207739,18.72869077945274,0
105.7203950863616,18.72885606675435,0
105.7198794340077,18.7287885581859,0
105.7196167891242,18.72859697877115,0
105.7202022663599,18.72926076939486,0
105.7205671187323,18.72972240647846,0
105.7204777779224,18.72984818175845,0
105.7208141718518,18.7300920430749,0
105.7215487783119,18.73099503302138,0
105.7220988053993,18.73159007989527,0
105.7229898914416,18.73263985102959,0
105.7237066111377,18.73337993659441,0
105.7243722459124,18.73428196165345,0
105.724685377877,18.73461980059804,0
105.7253575980891,18.73547142752886,0
105.726013627391,18.73624559755742,0
105.7270290784186,18.73738287890134,0
105.7273803969089,18.73811212778398,0
105.7276828378766,18.73879754925151,0
105.7280095384974,18.73931701466162,0
105.7282942523377,18.73995528145634,0
105.7284379543861,18.74022468605827,0
105.7285178868932,18.74120287983481,0
105.7285857156045,18.7419118205191,0
105.7287827496995,18.74271648255207,0
105.7288586427269,18.74372537320908,0
105.7291756984492,18.74473190358824,0
105.7295234564197,18.74545014248672,0
105.7298935624168,18.74615315968627,0
105.7303199109856,18.74716644332434,0
105.7304028428535,18.74756983507311,0
105.7307347162234,18.74827053094438,0
105.7310984727731,18.74900247227556,0
105.731473060632,18.74986752280883,0
105.7317434646834,18.7503482583949,0
105.7321070994883,18.75122283769152,0
105.732049987709,18.75132454686494,0
105.7323793891563,18.750785632325,0
105.7327046694607,18.74983627484244,0
105.7336998229428,18.74982421761456,0
105.7337894851155,18.75077000982414,0
105.7338091320353,18.75105106259572,0
105.7336671757588,18.75103369800031,0
105.7336139014018,18.7509449888573,0</coordinates>
        </LineString>
    </Placemark>
</Document>
</kml>