<?xml version="1.0" encoding="UTF-8"?>
<kml xmlns="http://www.opengis.net/kml/2.2">
<Document>
    <name>CSG4_6. NA_VIH_CDSP_VINH - NA_NLC_NGHI_THAI_2.kml</name>
    <Placemark>
        <name>Tuyen_Cap_Chuan_Hoa</name>
        <LineString>
            <tessellate>1</tessellate>
            <coordinates>105.7085355537224,18.7068200736871,0
105.7082945270334,18.70681668242823,0
105.7086960716042,18.7064581033266,0
105.7095963890049,18.70846703013296,0
105.7101841460392,18.70977743372003,0
105.7110163292822,18.7114105478233,0
105.7112708629163,18.7112339081526,0
105.7114675074631,18.71114767818155,0
105.7118100578133,18.71215120159419,0
105.7123849309245,18.71365624592343,0
105.7142771262534,18.71326629134265,0
105.7148629011754,18.71548978707867,0
105.7153201662121,18.71700039053361,0
105.7156446986687,18.71842286029426,0
105.7153028985431,18.71953559427231,0
105.7151336463855,18.72006282896176,0
105.7149378869399,18.7207030751842,0
105.715117070441,18.7211522259717,0
105.7153915347758,18.72177979601058,0
105.7153294260861,18.72197925414182,0
105.7151232721987,18.72228939095645,0
105.7155300914263,18.72355585790143,0
105.7157618988394,18.72346994024197,0
105.7157948810708,18.7235642906402,0
105.7159439289355,18.72350944238691,0
105.716279114132,18.72391405204954,0
105.716922835782,18.72512043285563,0
105.7172434122,18.72574877458009,0
105.7176818366962,18.72629770031333,0
105.7182997051143,18.72688541849896,0
105.7188876037589,18.72754495768892,0
105.7192775093541,18.72800202876666,0
105.7196299178334,18.72859922320073,0
105.7198805346723,18.72878075303674,0
105.7203990393749,18.72886347440375,0
105.7204680600862,18.72868546050135,0
105.7207319015231,18.72884124790932,0
105.7207881320603,18.72883209653725,0
105.7208211847689,18.72881514877721,0</coordinates>
        </LineString>
    </Placemark>
</Document>
</kml>