<?xml version="1.0" encoding="UTF-8"?>
<kml xmlns="http://www.opengis.net/kml/2.2">
<Document>
    <name>CSG4_3. NA_VIH_PHONG_DINH_CANG - NA_VIH_BV_VINH.kml</name>
    <Placemark>
        <name>Tuyen_Cap_Chuan_Hoa</name>
        <LineString>
            <tessellate>1</tessellate>
            <coordinates>105.7006436770329,18.66818989756125,0
105.7007524903233,18.66828087453523,0
105.7007540051509,18.66852224057983,0
105.7003742704831,18.66910887792837,0
105.6997201882993,18.67132123875425,0
105.6996469232635,18.67166559157623,0
105.6997696107099,18.67168029510433,0
105.6998072762572,18.6718629528273,0
105.6996356488547,18.67188142767257,0
105.6995184700915,18.67227965662756,0
105.6994391599046,18.67248955087382,0
105.6992484614771,18.67290699796687,0
105.6990782088496,18.67282344499144,0
105.6988485669752,18.67321168632271,0
105.6986898274399,18.67354225720075,0
105.6982541654325,18.67451960684167,0
105.6984264954135,18.67473485963403,0
105.6987288996789,18.6748115006931,0
105.6992192465498,18.67528665751812,0
105.6999376284874,18.67598200583425,0
105.7006896916036,18.67672046646241,0
105.7012159088333,18.67720672717725,0
105.7013446870161,18.67730514459017,0
105.7008158333987,18.6779063175831,0
105.7000665463796,18.67886108463776,0
105.6997189934983,18.6792672261583,0
105.700405894924,18.67981708981265,0
105.700270345585,18.6799483394699,0
105.7000387204225,18.68019944596538,0
105.6997883670939,18.67994489560487,0</coordinates>
        </LineString>
    </Placemark>
</Document>
</kml>