<?xml version="1.0" encoding="UTF-8"?>
<kml xmlns="http://www.opengis.net/kml/2.2">
<Document>
    <name>CSG4_5. NA_VIH_HUNG_LOC_4 - NA_VIH_CDSP_VINH.kml</name>
    <Placemark>
        <name>Tuyen_Cap_Chuan_Hoa</name>
        <LineString>
            <tessellate>1</tessellate>
            <coordinates>105.7048907076715,18.69728426683659,0
105.705080351106,18.69714806293341,0
105.7051724050817,18.69747151058755,0
105.705228032157,18.69764093186446,0
105.7055318487292,18.69857373305909,0
105.7057803527301,18.6995142974354,0
105.7059923104233,18.70033509295578,0
105.706266476567,18.70106198107969,0
105.7065379770351,18.70179476973562,0
105.7069446124386,18.70270603551529,0
105.7072422740938,18.70335224220582,0
105.707567157617,18.70401798146947,0
105.7079738635464,18.70497392650543,0
105.7083905248104,18.70570680884152,0
105.7086707209583,18.70645625872105,0
105.7083002746245,18.70682558664146,0
105.7085491198621,18.70683050154343,0</coordinates>
        </LineString>
    </Placemark>
</Document>
</kml>