<?xml version="1.0" encoding="UTF-8"?>
<kml xmlns="http://www.opengis.net/kml/2.2">
<Document>
    <name>CSG4_4. NA_VIH_BV_VINH - NA_VIH_HUNG_LOC_4.kml</name>
    <Placemark>
        <name>Tuyen_Cap_Chuan_Hoa</name>
        <LineString>
            <tessellate>1</tessellate>
            <coordinates>105.6997884140291,18.67994550311494,0
105.7000359409284,18.68019957957135,0
105.6997194901081,18.68044461480032,0
105.6992207978943,18.67996524989172,0
105.6987653515595,18.68053241381963,0
105.6982306566145,18.68118255788118,0
105.6977604026761,18.68149285829171,0
105.6980421132042,18.6821800239272,0
105.6982491601264,18.68267277138516,0
105.6984712024729,18.68305752073299,0
105.6985621914285,18.68329998450287,0
105.6991211768713,18.68437455366389,0
105.6999289244504,18.68578493678951,0
105.7002928332923,18.68643794347696,0
105.7011434360382,18.68789649775727,0
105.7026209583192,18.69037852087355,0
105.7029865096544,18.69104730097834,0
105.7035803643776,18.69176284041544,0
105.7038246993689,18.69223683242866,0
105.7042251695295,18.69354831133814,0
105.7044705378022,18.69436442465675,0
105.7048842375992,18.69580868791217,0
105.7052549709855,18.69712674668465,0
105.7053038115716,18.69731284765395,0
105.7051785258607,18.69746800446401,0
105.7050736634832,18.69714915292334,0
105.7048839096656,18.69728057846396,0</coordinates>
        </LineString>
    </Placemark>
</Document>
</kml>