<?xml version="1.0" encoding="UTF-8"?>
<kml xmlns="http://www.opengis.net/kml/2.2">
<Document>
    <name>CSG5_4. NA_NLC_NGHI_QUANG - NA_NLC_CN_NAM_CAM_2.kml</name>
    <Placemark>
        <name>Tuyen_Cap_Chuan_Hoa</name>
        <LineString>
            <tessellate>1</tessellate>
            <coordinates>105.6509567988939,18.83613054100571,0
105.6517596214675,18.83624244427125,0
105.651774931619,18.83686999329411,0
105.6516784205074,18.83795402336356,0
105.6521189890714,18.83792899977717,0
105.6524346594365,18.83765825516365,0
105.6535632156061,18.83713302029107,0
105.6542454946252,18.83711335740285,0
105.6547210183839,18.8371078474742,0
105.6555732782446,18.83661157619776,0
105.6565559796937,18.83581754661236,0
105.6568181722062,18.83545700811381,0
105.6569757451155,18.83514716670906,0
105.6570387401386,18.83398800824867,0
105.6587738725135,18.8339480837251,0
105.6595312353871,18.83294074481766,0
105.6598494545778,18.83260621928315,0
105.660169603852,18.83213795718718,0
105.6605094333431,18.83203788515634,0
105.6610597645103,18.83198197971707,0
105.6649500449095,18.83028484951055,0
105.6672883797829,18.82924230144273,0
105.6681669003538,18.82906524685367,0
105.6713014035619,18.82751557364247,0
105.6748118937304,18.82579585788763,0
105.6772672166767,18.82566665588365,0
105.6774480221804,18.82581200640963,0
105.6773542784645,18.82726104422762,0
105.677508928709,18.8272454725217,0
105.6778826048388,18.82704442311697,0
105.6782137448526,18.82694310917603,0
105.6789598374776,18.82689912573288,0
105.6802274167448,18.82691861659007,0
105.6810868822928,18.82693411857946,0
105.6815162455788,18.82692380046718,0
105.6826091830059,18.82662761227841,0
105.6834195899594,18.82639734463306,0
105.683634462302,18.82651899266486,0
105.6838729013353,18.82675822447053,0
105.6840759383417,18.82692216369606,0
105.684350588441,18.82699235668234,0
105.6846368482678,18.82699678018477,0
105.6850204531102,18.82701907345756,0
105.6853717451521,18.82700087265353,0
105.6856592395232,18.82686477100248,0
105.6858413698083,18.8267838725728,0
105.6860653561642,18.82676517363369,0
105.6863274531695,18.82666229363323,0
105.686189701146,18.82625498525845,0
105.6859834996638,18.82553785576242,0
105.6858964077406,18.82524513933908,0
105.6859367586257,18.82512511160862,0
105.6860489468489,18.82481074486834,0
105.6862088897033,18.82448156926904,0
105.6864814815034,18.82463257384015,0
105.686477702109,18.82477417737543,0
105.6865729702252,18.82502071223941,0</coordinates>
        </LineString>
    </Placemark>
</Document>
</kml>