<?xml version="1.0" encoding="UTF-8"?>
<kml xmlns="http://www.opengis.net/kml/2.2">
<Document>
    <name>CSG5_3. NA_NLC_NGHI_HOP - NA_NLC_NGHI_QUANG.kml</name>
    <Placemark>
        <name>Tuyen_Cap_Chuan_Hoa</name>
        <LineString>
            <tessellate>1</tessellate>
            <coordinates>105.7040216674973,18.81444930178948,0
105.7039695808755,18.81450367646492,0
105.7038510636032,18.81443608088448,0
105.7031774263837,18.81433665356112,0
105.7018399945831,18.81357383044572,0
105.7009134849647,18.81301027593992,0
105.6999617738768,18.81255270157513,0
105.6987369150505,18.81193002583221,0
105.698474641999,18.81177778152586,0
105.698272882432,18.81149119498805,0
105.69775359721,18.81162599828033,0
105.6968379722511,18.81188980225384,0
105.6954906027664,18.81254584299024,0
105.6949449295627,18.81309211399512,0
105.69406225051,18.81301821527461,0
105.6921644485991,18.81307958550802,0
105.6905882238284,18.8132710439122,0
105.6889966886164,18.8134583511823,0
105.687510184698,18.81364693360072,0
105.6868854797144,18.81391720229345,0
105.6867589865069,18.81412919867649,0
105.6871842150182,18.81540257222004,0
105.6877268314185,18.81725644800827,0
105.688384964913,18.81872007226814,0
105.6890211163913,18.81965980475118,0
105.6893104485242,18.820328697876,0
105.6898416901667,18.82235460061543,0
105.6904143869071,18.82420203000462,0
105.6910280257356,18.82520700622834,0
105.6911115821788,18.82600969334571,0
105.691263914318,18.82726307400423,0
105.6895783050863,18.8278764832713,0
105.6894558212043,18.8279557683015,0
105.6887567177173,18.82802635277532,0
105.6884891820692,18.82792024177715,0
105.6882914683189,18.82790647350758,0
105.6877699748573,18.8278273142671,0
105.687498497366,18.82780534270093,0
105.6872508240438,18.82760387883931,0
105.686866622417,18.82727639660505,0
105.6865423279656,18.82696433454457,0
105.6863058277584,18.82665296837175,0
105.6860619836566,18.82577708493595,0
105.6858995009387,18.825262120156,0
105.685937684034,18.82513192982124,0
105.6860069923254,18.82496884890791,0
105.6861968500514,18.82449363907607,0
105.6864762619256,18.82463800111743,0
105.6864678685388,18.82478862444813,0
105.6865491286144,18.82499873155133,0</coordinates>
        </LineString>
    </Placemark>
</Document>
</kml>