<?xml version="1.0" encoding="UTF-8"?>
<kml xmlns="http://www.opengis.net/kml/2.2">
<Document>
    <name>CSG5_2. NA_CLO_CUA_LO - NA_NLC_NGHI_HOP.kml</name>
    <Placemark>
        <name>Tuyen_Cap_Chuan_Hoa</name>
        <LineString>
            <tessellate>1</tessellate>
            <coordinates>105.7232060098827,18.80576614404227,0
105.7232519129604,18.80564878494863,0
105.7222602660563,18.80514626264153,0
105.7221329811019,18.80537018225086,0
105.7217490372523,18.80617700330819,0
105.7208671444995,18.80778976804647,0
105.7209987772672,18.80782981549487,0
105.7208737949985,18.80807692164233,0
105.7200185187849,18.80959761201424,0
105.7199362207908,18.80978781549107,0
105.7197060446816,18.80962934094398,0
105.7173605228684,18.8085025598209,0
105.7169764107434,18.80829560188184,0
105.7165986209121,18.80813186894504,0
105.7154885148608,18.80794172149849,0
105.7130692739621,18.80704520003266,0
105.7121443147765,18.80672109979533,0
105.7106635597931,18.80628422858683,0
105.7087330139424,18.80574417896422,0
105.7084526821045,18.80570372541828,0
105.7084903791375,18.8064658451473,0
105.7085130502363,18.8071395957436,0
105.7085354791646,18.80777215875994,0
105.7085866106571,18.80842087639041,0
105.7085593922899,18.80925541886128,0
105.708696240761,18.81019510891203,0
105.708861319376,18.8107765705742,0
105.7090236513373,18.81160446143084,0
105.7090140534147,18.81294196849223,0
105.7089657076793,18.81395374496113,0
105.7088757487014,18.81522074012304,0
105.7088179577326,18.81590396847323,0
105.7077698055629,18.81572743413473,0
105.7044815992417,18.81523976526385,0
105.704068863614,18.8151104545606,0
105.70399356949,18.81476032405656,0
105.7039942462305,18.81463326199514,0
105.7040071737171,18.81444931191986,0</coordinates>
        </LineString>
    </Placemark>
</Document>
</kml>