<?xml version="1.0" encoding="UTF-8"?>
<kml xmlns="http://www.opengis.net/kml/2.2">
<Document>
    <name>CSG5_5. NA_NLC_CN_NAM_CAM_2 - NA_NLC_NGHI_THUAN_2.kml</name>
    <Placemark>
        <name>Tuyen_Cap_Chuan_Hoa</name>
        <LineString>
            <tessellate>1</tessellate>
            <coordinates>105.6509690437734,18.83613965989184,0
105.6517512996825,18.83624251917964,0
105.6516875328776,18.83815120097787,0
105.6516248529228,18.83904929874732,0
105.6514974589685,18.83986130853136,0
105.6507661520266,18.83978858267018,0
105.6507069565212,18.84022335352766,0
105.6497602747294,18.84065641300662,0
105.6491450545009,18.84009323097498,0
105.6467117504156,18.83862546951958,0
105.6463321292168,18.83841879454967,0
105.6454488753121,18.8373715607217,0
105.6446835393307,18.83651453824951,0
105.643910434014,18.8355169033864,0
105.6436047186353,18.83494718551474,0
105.643155757786,18.83368881256113,0
105.6432086817799,18.83218698557874,0
105.643235281425,18.83095957322753,0
105.6433138181319,18.82974435740116,0
105.643396232079,18.82851269194347,0
105.6434387442297,18.82728843774882,0
105.6432517066791,18.82661838694137,0
105.643152308148,18.82586104947529,0
105.6438239079985,18.82526757021979,0
105.645718377175,18.82516416298386,0
105.6473673246156,18.825239276836,0
105.6501435283743,18.82483693125539,0
105.6502703047245,18.82145564810147,0
105.6502026755475,18.82017232586713,0
105.6491999914342,18.81904747167506,0
105.6514299654413,18.81782077387587,0
105.6513924818038,18.81698162684865,0
105.6522113801692,18.81693989306541,0
105.652251000266,18.81626055804193,0
105.6526620666223,18.81618416978655,0
105.6526758891793,18.81600872775603,0
105.6526269527551,18.81571850429905,0
105.6524878062583,18.81570061192765,0
105.6502098887626,18.81554421680231,0
105.6491013471265,18.81534910161169,0
105.6495468609338,18.81104457129593,0
105.649938860328,18.80666944669271,0
105.6500929599504,18.80281832610057,0
105.648265117481,18.80344889031445,0
105.6477153368499,18.80166252131,0
105.64746726167,18.80080686428893,0
105.6478396809438,18.80071590856665,0</coordinates>
        </LineString>
    </Placemark>
</Document>
</kml>