<?xml version="1.0" encoding="UTF-8"?>
<kml xmlns="http://www.opengis.net/kml/2.2">
<Document>
    <name>CSG5_1. NA_CLO_CUA_HOI - NA_CLO_CUA_LO.kml</name>
    <Placemark>
        <name>Tuyen_Cap_Chuan_Hoa</name>
        <LineString>
            <tessellate>1</tessellate>
            <coordinates>105.7515761604624,18.7666670337066,0
105.7515359999518,18.76665585071484,0
105.7520280344153,18.76639426392568,0
105.7523371297493,18.76682684344915,0
105.7523604992492,18.76693568718292,0
105.7520753147093,18.76709070533878,0
105.7515187241394,18.76752319877023,0
105.7513547642686,18.76766150210371,0
105.7519133276853,18.76829277990153,0
105.7520766708399,18.76849548635414,0
105.7526518937433,18.76911220672491,0
105.7526588375866,18.76911181440634,0
105.7522681540709,18.76957563451571,0
105.7516513368845,18.77044377646693,0
105.7510807636602,18.77114134454792,0
105.7503115928343,18.77219247501454,0
105.749473821601,18.77323862856892,0
105.7484887521365,18.7745142259447,0
105.7477397606828,18.77542245205839,0
105.7470301028824,18.77645207308341,0
105.746493525875,18.77717100257617,0
105.7454336382808,18.77864202898984,0
105.7443669679247,18.78006117496681,0
105.7441407942046,18.78038453835734,0
105.7440977468777,18.78043041183684,0
105.7439396112773,18.78038359288323,0
105.7435516029495,18.78083468943782,0
105.7435826905655,18.78111962921898,0
105.7433055062689,18.78156980525599,0
105.7429750943923,18.78201875105525,0
105.7425664830656,18.78251556286653,0
105.7421312012173,18.7829693742416,0
105.7414345656555,18.78380352139777,0
105.7409337373008,18.784435164753,0
105.7400418925677,18.78547310552831,0
105.7388191130961,18.78682377418937,0
105.7377087636519,18.78809707680698,0
105.7363629223529,18.78948938715382,0
105.7363552855214,18.78946828721529,0
105.735710775333,18.79022460389362,0
105.7349201274145,18.79113149220622,0
105.7344002466205,18.79176538316569,0
105.7334431531235,18.79290899188089,0
105.7334137923695,18.79300546668191,0
105.7331928225443,18.79281882322783,0
105.7331783722205,18.79285261436609,0
105.7328837880915,18.7931586486005,0
105.732955516454,18.79317613745698,0
105.7332446488323,18.79274864633092,0
105.7325740510766,18.79226111040106,0
105.7322707703118,18.79201021525076,0
105.7314252970777,18.79143164218795,0
105.731090438544,18.79166041375805,0
105.7306972751839,18.79214382211568,0
105.7300045926796,18.7931070828403,0
105.7291387028846,18.79422188803211,0
105.7281688918376,18.79548015734434,0
105.7273391052871,18.79655547462308,0
105.7263677089989,18.79773817927117,0
105.7259119179234,18.79838356947553,0
105.7256035236738,18.79916383996486,0
105.7253488777036,18.79922256897143,0
105.7247332643786,18.80020266077604,0
105.7239950141191,18.80168105748106,0
105.7235365078039,18.80266718399774,0
105.7225989387935,18.80450105101431,0
105.7238126990243,18.80508058074521,0
105.7234075019866,18.80581276838794,0
105.7232491611932,18.80565720052411,0</coordinates>
        </LineString>
    </Placemark>
</Document>
</kml>