<?xml version="1.0" encoding="UTF-8"?>
<kml xmlns="http://www.opengis.net/kml/2.2">
<Document>
    <name>CSG6_5. NA_VIH_BV_DA_KHOA_NGHE_AN - NA_VIH_LE_NIN.kml</name>
    <Placemark>
        <name>Tuyen_Cap_Chuan_Hoa</name>
        <LineString>
            <tessellate>1</tessellate>
            <coordinates>105.681130364107,18.70627850974988,0
105.6811028795614,18.706559955763,0
105.6805616331674,18.7062249750107,0
105.6804178876752,18.7064231877202,0
105.680150416996,18.70682709876464,0
105.6799585940478,18.70720802671489,0
105.6816062051781,18.70766923617994,0
105.6815613172774,18.70781012320698,0
105.6827403692152,18.70816174822643,0
105.6830087195011,18.70811372920344,0
105.6832760512489,18.70761252615908,0
105.6835348720687,18.70705156303729,0
105.6837638722425,18.70648161146961,0
105.6839389418546,18.70607413519609,0
105.6841850157932,18.70553420220816,0
105.6844026443537,18.70506211942285,0
105.6845769710364,18.70476462423747,0
105.684762787285,18.70435507220247,0
105.6849290552807,18.70388709430894,0
105.6851761475376,18.70339798666453,0
105.6853913149523,18.7028373300624,0
105.6857663178506,18.7020626439187,0
105.6859195190894,18.70163958085358,0
105.6861283264043,18.70114217687041,0
105.6864758379276,18.7005010549388,0
105.6866949636737,18.69988886649317,0
105.6869661468505,18.69935003964139,0
105.6873466852576,18.69858652431312,0
105.6874285590096,18.69837539670692,0
105.6864942004774,18.6979148153361,0
105.6855770548873,18.69740195588541,0
105.6858321321959,18.69737340974645,0
105.6864131494434,18.69642166303244,0
105.6871652206083,18.69529373678316,0
105.6869096360834,18.69531044895462,0</coordinates>
        </LineString>
    </Placemark>
</Document>
</kml>