<?xml version="1.0" encoding="UTF-8"?>
<kml xmlns="http://www.opengis.net/kml/2.2">
<Document>
    <name>CSG6_3. NA_CLO_NGUYEN_SINH_CUNG - NA_NLC_NGHI_AN.kml</name>
    <Placemark>
        <name>Tuyen_Cap_Chuan_Hoa</name>
        <LineString>
            <tessellate>1</tessellate>
            <coordinates>105.6873117691478,18.74618087473783,0
105.6871382840628,18.74618569978344,0
105.6869684162039,18.74666083134259,0
105.6866884576287,18.74661353698914,0
105.686196206819,18.74648927217661,0
105.6857752423706,18.74744983726291,0
105.6854893051781,18.74824831139216,0
105.685197360986,18.74898768293479,0
105.6850126536325,18.74955669761243,0
105.6846736587354,18.75039397081988,0
105.6845541206486,18.75040841718756,0
105.6853712491607,18.7508567725221,0
105.6862777472109,18.75136938237965,0
105.6877885662007,18.75212983645261,0
105.6878616853898,18.75214009573707,0
105.68839611448,18.7523491307755,0
105.6888588257034,18.75251594459545,0
105.6893583277501,18.7526778497092,0
105.6898357691175,18.75283950849856,0
105.6903417470011,18.7530280060994,0
105.690834916562,18.75320907673082,0
105.691427220236,18.75338974784678,0
105.6918985975889,18.75354757168485,0
105.6923200156314,18.75368190427993,0
105.6923735154273,18.75427992469251,0
105.6925145672312,18.75516066223638,0
105.6926238635407,18.75576038296661,0
105.6927478670962,18.7565544454936,0
105.692781414888,18.7567698527554,0
105.6929500850141,18.75667032865909,0
105.6930047854061,18.75698403442739,0
105.6931188675504,18.75720040142197,0
105.6934307355397,18.75720693415153,0
105.6939956116387,18.75714798356318,0
105.6948351102124,18.75709454141193,0
105.6948925234568,18.7571594499071,0
105.6949667582707,18.75786706464594,0
105.6950872441046,18.75868938430081,0
105.6951790941946,18.75930235000947,0
105.695214758154,18.75957934194335,0
105.695602657007,18.76010129113329,0
105.6960791572889,18.76083816355688,0
105.6964800471055,18.7613874550213,0
105.6959369637513,18.76210439947208,0
105.6956875674041,18.76240259444729,0
105.6945455390149,18.76393131508273,0
105.6940917104697,18.76445355444183,0
105.6940607156345,18.7646168668668,0
105.6942106078959,18.76568318730582,0
105.6947084718801,18.76925955177641,0
105.695074436256,18.7711883230326,0
105.6953836262799,18.77363132666169,0
105.6954718704834,18.77428741858375,0
105.6952241993301,18.77429153209587,0
105.6953955128912,18.77515384800818,0
105.6955316993579,18.77582585427255,0
105.6959931706309,18.77596108488883,0
105.6967028299277,18.77620499513733,0
105.6975524520364,18.77653608625426,0
105.6985619544166,18.77691746979751,0
105.6994066427975,18.7772234471538,0
105.7004562741428,18.77758281674418,0
105.7001179599291,18.77838209225517,0
105.6996816641907,18.77942375344542,0
105.699295362286,18.78028733225165,0
105.6989086055472,18.78127130882694,0
105.6983141420821,18.78257261681759,0
105.6990335902796,18.78282951159397,0
105.6989653213653,18.78353093119731,0
105.699027973841,18.78408616412909,0
105.6991599065288,18.78482679719461,0
105.6992695017211,18.78540880954487,0
105.6996675037467,18.78631087245828,0
105.6998226067951,18.78631246057128,0
105.6999836244252,18.7864127479553,0
105.699622056714,18.78739512131769,0
105.6995975974488,18.78767684982511,0
105.7004673459528,18.78771098869876,0
105.7013461855986,18.78774367432036,0
105.7023164933458,18.78779721510047,0
105.7035399890644,18.78787441902077,0
105.7051770959742,18.7879881189956,0
105.7064586223631,18.7880751985472,0
105.7077854544485,18.78820913981748,0
105.7081283984416,18.7874594957633,0
105.7088379222191,18.78603254584972,0
105.7092566529364,18.78516325140507,0
105.7096761355466,18.78473611644515,0
105.7100474527184,18.78489123585889,0
105.7105154265705,18.78515603828128,0
105.7111690181937,18.78409428018989,0
105.7109901983146,18.7839232069644,0</coordinates>
        </LineString>
    </Placemark>
</Document>
</kml>