<?xml version="1.0" encoding="UTF-8"?>
<kml xmlns="http://www.opengis.net/kml/2.2">
<Document>
    <name>CSG6_6. NA_VIH_LE_NIN - NA_VIH_ROADM_VINH_1.kml</name>
    <Placemark>
        <name>Tuyen_Cap_Chuan_Hoa</name>
        <LineString>
            <tessellate>1</tessellate>
            <coordinates>105.6870017540922,18.69526897035748,0
105.6871338723766,18.69530238111851,0
105.6865768743654,18.69616522740987,0
105.6858393238728,18.69733113944045,0
105.6854983322924,18.69742883805488,0
105.6839824702867,18.696603985567,0
105.683161464042,18.69639476967535,0
105.6814949204373,18.69533407405129,0
105.6802085670057,18.69441601792717,0
105.6799257513707,18.69453249804067,0
105.6779289808843,18.69335741344309,0
105.6777857887734,18.69307030078294,0
105.6797985088331,18.68926289841727,0
105.6808232809682,18.6873194447163,0
105.6818618574278,18.68532106454533,0
105.6827655739269,18.68356878887388,0
105.6830793425119,18.68287251617087,0
105.68314872098,18.68283951112612,0
105.6836843375823,18.68190142994188,0
105.6843380737497,18.68067718182942,0
105.6847811522522,18.67985560888076,0
105.6858646280112,18.67785078753608,0
105.6868613201819,18.67599066894067,0
105.6845477873742,18.67617193277977,0
105.6815842208864,18.67618963564886,0
105.6813240050638,18.6762072253585,0
105.6812527698672,18.67473976565091,0
105.6810830340067,18.67412076937335,0
105.6803169949522,18.67314060894419,0
105.6820373226863,18.67163649825148,0
105.6836211557576,18.67030522949648,0
105.6840075572983,18.67040888927791,0</coordinates>
        </LineString>
    </Placemark>
</Document>
</kml>