<?xml version="1.0" encoding="UTF-8"?>
<kml xmlns="http://www.opengis.net/kml/2.2">
<Document>
    <name>CSG6_1. NA_CLO_CUA_HOI - NA_CLO_NGHI_HUONG_2.kml</name>
    <Placemark>
        <name>Tuyen_Cap_Chuan_Hoa</name>
        <LineString>
            <tessellate>1</tessellate>
            <coordinates>105.7515877146264,18.76669158146191,0
105.7520075138094,18.76642971042544,0
105.7523695485258,18.7669164004973,0
105.7518714831083,18.76731968014423,0
105.7513430559597,18.76771531660703,0
105.7519570119422,18.76841280656206,0
105.7521076929655,18.76851630764529,0
105.752470282792,18.76892971919618,0
105.7526615714774,18.76910895751637,0
105.7516444302823,18.77054920259828,0
105.7508328069394,18.77153345384462,0
105.749993708815,18.77262011421763,0
105.7488406150638,18.77413531402133,0
105.7480966488944,18.77510822577668,0
105.7475614976214,18.7758322914817,0
105.7470126506703,18.77664539598924,0
105.7460749479044,18.77789376399283,0
105.7452442743893,18.77907831951233,0
105.7431673361285,18.78186901518049,0
105.7425560180243,18.78262842322951,0
105.7412408149149,18.78414816235533,0
105.7391712791412,18.78649335797261,0
105.7370397554446,18.78898187137378,0
105.7345650555917,18.79176239553589,0
105.7337055723685,18.79282744426571,0
105.7334172176472,18.79308360979046,0
105.733180388592,18.79291434487984,0
105.7330004198293,18.79307456912045,0</coordinates>
        </LineString>
    </Placemark>
</Document>
</kml>