<?xml version="1.0" encoding="UTF-8"?>
<kml xmlns="http://www.opengis.net/kml/2.2">
<Document>
    <name>CSG6_4. NA_NLC_NGHI_AN - NA_VIH_BV_DA_KHOA_NGHE_AN.kml</name>
    <Placemark>
        <name>Tuyen_Cap_Chuan_Hoa</name>
        <LineString>
            <tessellate>1</tessellate>
            <coordinates>105.6811534403048,18.70624972660244,0
105.6810236416404,18.70647300617598,0
105.680594406347,18.70628627498942,0
105.6799561721115,18.70736753090807,0
105.6815331125466,18.70779953209192,0
105.6815616702609,18.70767761614781,0
105.6830084618585,18.70814428259652,0
105.6829484907263,18.70827871430098,0
105.6825860553081,18.70915628842354,0
105.6821358804155,18.71021547447158,0
105.6817802632243,18.71116885231504,0
105.6816183191485,18.71155487642073,0
105.6813119189762,18.71248901444264,0
105.6810610489444,18.71331481259249,0
105.6807549850459,18.71425653828406,0
105.680456528023,18.71516792617458,0
105.6801015208571,18.71623503859027,0
105.6797665556139,18.71730868606003,0
105.6793603884182,18.71857965849355,0
105.6790735229895,18.71946859303231,0
105.6787213019381,18.7205698193757,0
105.678518598573,18.72127235936422,0
105.6781974807805,18.72236090622075,0
105.6778959521067,18.72337921035533,0
105.6776310119335,18.72430144478245,0
105.6774175486297,18.72505037232363,0
105.6773152437566,18.72542627136201,0
105.6774441577343,18.72554202982772,0
105.6771808636531,18.72570024118909,0
105.6777984130697,18.72642554015944,0
105.678318682359,18.72706125587469,0
105.6787973602587,18.72764638761869,0
105.679335242247,18.72834408654259,0
105.6797462879499,18.72895785143611,0
105.6800959012528,18.72950848720748,0
105.6803842138073,18.73005201635358,0
105.68072239273,18.73074180254126,0
105.6810666443401,18.73142216928495,0
105.6814558299997,18.73217937335924,0
105.6817946268044,18.73286633003783,0
105.6821530260738,18.73360544663158,0
105.6826262999806,18.7345799506981,0
105.6829231134033,18.73526595750101,0
105.6832421601496,18.73583460885628,0
105.6835343679529,18.7364959154385,0
105.6837598602993,18.736983045538,0
105.6838621495091,18.73706043117581,0
105.6841940048893,18.73780384025025,0
105.6845801270067,18.73862250740178,0
105.6849151140949,18.73929500806643,0
105.6851921869604,18.73985560490036,0
105.6855281449627,18.74052196074897,0
105.6858294662668,18.7411737379926,0
105.6861489687414,18.74185761579495,0
105.6865147706282,18.74257727806774,0
105.6868350583486,18.74323058714791,0
105.6871134435671,18.7437647541296,0
105.6866507399561,18.74490837399837,0
105.686116481997,18.74637599865127,0
105.6861943841424,18.74650027730524,0
105.686966553648,18.74666377469459,0
105.6871129059003,18.74620535262515,0
105.6872977364189,18.74617537798798,0</coordinates>
        </LineString>
    </Placemark>
</Document>
</kml>