<?xml version="1.0" encoding="UTF-8"?>
<kml xmlns="http://www.opengis.net/kml/2.2">
<Document>
    <name>CSG6_2. NA_CLO_NGHI_HUONG_2 - NA_CLO_NGUYEN_SINH_CUNG.kml</name>
    <Placemark>
        <name>Tuyen_Cap_Chuan_Hoa</name>
        <LineString>
            <tessellate>1</tessellate>
            <coordinates>105.732980816811,18.79307995448305,0
105.7332353999099,18.79294397717491,0
105.7329372316218,18.79271028400577,0
105.7329393952982,18.79253340610316,0
105.7314249406681,18.79145925130046,0
105.7290600070794,18.78964912532819,0
105.7283642995587,18.79058760448871,0
105.7271273750626,18.79217606136631,0
105.7255068398134,18.79426544095391,0
105.7251928619222,18.79408152115369,0
105.7224223972267,18.79217159586055,0
105.7220668697925,18.7920366785752,0
105.7166785948872,18.78990349268757,0
105.7148843483394,18.78919860413842,0
105.7138840375581,18.78887489350362,0
105.7128428191883,18.78857572111012,0
105.7116361055617,18.78836242458998,0
105.7113681813993,18.78831433921695,0
105.7094196004591,18.78813543733255,0
105.7095069581201,18.78768304106143,0
105.7094942778627,18.78749425408213,0
105.7096936263597,18.78687061726646,0
105.7097148096226,18.78598582135499,0
105.7098788631955,18.78531596667273,0
105.7105392390529,18.78515726659375,0
105.7111627593228,18.78411110193568,0
105.7108536911414,18.78379728800926,0</coordinates>
        </LineString>
    </Placemark>
</Document>
</kml>