<?xml version="1.0" encoding="UTF-8"?>
<kml xmlns="http://www.opengis.net/kml/2.2">
<Document>
    <name>CSG7_3. NA_NLC_NGHI_LIEN - NA_VIH_DANG_THAI_MAI.kml</name>
    <Placemark>
        <name>Tuyen_Cap_Chuan_Hoa</name>
        <LineString>
            <tessellate>1</tessellate>
            <coordinates>105.6602728931722,18.73461015862395,0
105.660630688168,18.7346136944866,0
105.6616642329415,18.73081047358608,0
105.6621920315523,18.72897366837001,0
105.6624811560188,18.72732673750912,0
105.6625346514745,18.72688123749047,0
105.6625726928009,18.72666825727411,0
105.662789743526,18.72630188599579,0
105.6619577173823,18.72604859288001,0
105.6620510081633,18.72571132414333,0
105.6636989495758,18.72307008319619,0
105.6604104160638,18.72256208103122,0
105.6587394067985,18.72204607882303,0
105.6594423379708,18.72077260929156,0
105.6599512198014,18.71960263014686,0
105.6604752438077,18.71855991171069,0
105.6588939423085,18.71805533737865,0
105.659384851369,18.71711842069642,0
105.6606702430695,18.71514526423741,0
105.6621365184345,18.71297046412878,0
105.6622902043464,18.7128600120321,0
105.6641369236724,18.71323216501237,0
105.6643663687341,18.71320736600856,0
105.6650118614183,18.71166488381505,0
105.6653059176723,18.71148147680127,0</coordinates>
        </LineString>
    </Placemark>
</Document>
</kml>