<?xml version="1.0" encoding="UTF-8"?>
<kml xmlns="http://www.opengis.net/kml/2.2">
<Document>
    <name>CSG7_2. NA_NLC_QUAN_HANH - NA_NLC_NGHI_LIEN.kml</name>
    <Placemark>
        <name>Tuyen_Cap_Chuan_Hoa</name>
        <LineString>
            <tessellate>1</tessellate>
            <coordinates>105.6456292503058,18.7793110762339,0
105.6462422765508,18.77929408140194,0
105.6462479100559,18.77898283994396,0
105.6462041763052,18.77865821082686,0
105.6450702999799,18.77874654347373,0
105.6442904762971,18.77880494882027,0
105.6437467961389,18.77866539009896,0
105.6440513903505,18.7774812669584,0
105.6443025575896,18.77558398116639,0
105.6465520625266,18.77129109936906,0
105.6478949306497,18.76874135052359,0
105.6488028689171,18.76650375395029,0
105.6490251530815,18.76602013843584,0
105.6505315385865,18.76230457740819,0
105.6527266873807,18.75713665172299,0
105.6554822562,18.75075392388968,0
105.6562003394432,18.74497479420912,0
105.656584511506,18.74326454256655,0
105.6573303803247,18.74006987431533,0
105.6579491568535,18.73748945424744,0
105.6581917201997,18.73662314714714,0
105.6587852176879,18.73573511686282,0
105.6590212800681,18.73516335259643,0
105.6597425220182,18.73550149181902,0
105.6602266371504,18.7354565815124,0
105.6607077079079,18.73547530013378,0
105.6604284789993,18.73516695980933,0
105.6606153523666,18.73460788963841,0
105.6602795058872,18.73454399293268,0</coordinates>
        </LineString>
    </Placemark>
</Document>
</kml>