<?xml version="1.0" encoding="UTF-8"?>
<kml xmlns="http://www.opengis.net/kml/2.2">
<Document>
    <name>CSG7_5. NA_VIH_QUAN_BAU - NA_VIH_ROADM_VINH_2.kml</name>
    <Placemark>
        <name>Tuyen_Cap_Chuan_Hoa</name>
        <LineString>
            <tessellate>1</tessellate>
            <coordinates>105.6674332179997,18.67130348439263,0
105.6673673749273,18.67149362619024,0
105.6669895115744,18.67171784494454,0
105.6666382213333,18.67196030671273,0
105.6662706408876,18.67218724067375,0
105.6657467037259,18.67243359485369,0
105.6651413276708,18.67280261666021,0
105.6648536220169,18.67299860689048,0
105.664767749627,18.67291947095874,0
105.6646018113856,18.67295898843877,0
105.6646190108932,18.67318543436116,0
105.6646353577434,18.67359533317701,0
105.6646523028258,18.67420938275189,0
105.6646761018325,18.67489738910081,0
105.6647332451337,18.67625955749409,0
105.664772919329,18.67671133136456,0
105.6647901484345,18.67745831965875,0
105.6648143601016,18.67896721301237,0
105.6648399116726,18.68067174839893,0
105.6649102708445,18.68179319389174,0
105.6649312905914,18.68308923547509,0
105.6649097887683,18.68420657747628,0
105.6650072972128,18.68493809690018,0
105.665259498849,18.68662493597533,0
105.6654177953525,18.68782631162962,0
105.6655541444225,18.68919652690026,0
105.6657587193798,18.69088879406073,0
105.6659986515833,18.69243206075501,0
105.6661954232591,18.69241804688443,0
105.666165525028,18.69226340025714,0
105.6666088386838,18.69222748763229,0
105.6672043861004,18.69215370665017,0
105.6677067345797,18.69209930283787,0
105.6680047685608,18.69206676490943,0
105.6685692022065,18.69199867458032,0
105.6689999747422,18.6919519065246,0
105.6697985098152,18.6918529723003,0
105.6702522690683,18.69179679696028,0
105.6707315925076,18.69171739629368,0
105.6713795398127,18.69166174351233,0
105.6721647569523,18.69161855331852,0
105.6729962715929,18.69157546852648,0
105.6730022959651,18.69176294660756,0
105.6735835184299,18.69177233758656,0
105.6742318473993,18.69178491959572,0
105.674725842344,18.69182348939908,0
105.6750068226767,18.69182722096627,0
105.6750588012375,18.69351101773583,0
105.6750897282772,18.69546136949937,0
105.6751473500176,18.69720702742094,0
105.6751896578731,18.69804883173948,0
105.6748618591455,18.69826677875687,0
105.67472531718,18.69890024394007,0
105.6746673378971,18.69905026655662,0
105.6749033945216,18.69916757909223,0
105.6743075862432,18.70031898208204,0
105.6734373643058,18.69986997181905,0</coordinates>
        </LineString>
    </Placemark>
</Document>
</kml>