<?xml version="1.0" encoding="UTF-8"?>
<kml xmlns="http://www.opengis.net/kml/2.2">
<Document>
    <name>CSG7_4. NA_VIH_DANG_THAI_MAI - NA_VIH_QUAN_BAU.kml</name>
    <Placemark>
        <name>Tuyen_Cap_Chuan_Hoa</name>
        <LineString>
            <tessellate>1</tessellate>
            <coordinates>105.6734360435147,18.69985604272874,0
105.6743077444351,18.70031489047639,0
105.6739025993125,18.70115017320968,0
105.6731538789992,18.70256473854537,0
105.6723795719907,18.70407839628682,0
105.6715587108209,18.70571776533423,0
105.6708161706891,18.70714090578304,0
105.6699680611198,18.70878578017965,0
105.6694154206277,18.70984794894082,0
105.6688872405196,18.71121470907148,0
105.6683560454694,18.71252140567518,0
105.6678139305435,18.7139618667602,0
105.6675247956162,18.71394128443228,0
105.6672317373965,18.7139724571885,0
105.6669445633796,18.71386135635728,0
105.6674765466412,18.71314820290173,0
105.6673110665483,18.71254173914776,0
105.6672416088395,18.71196410558774,0
105.6667046301039,18.71106242395734,0
105.6662212747133,18.71027128011782,0
105.6659856081828,18.70957829721009,0
105.6649797004869,18.7098039494702,0
105.6643458029487,18.71051843784232,0
105.6639062652676,18.71129783442118,0
105.6649200401927,18.71156336076772,0
105.6653157205585,18.71141851333164,0</coordinates>
        </LineString>
    </Placemark>
</Document>
</kml>