<?xml version="1.0" encoding="UTF-8"?>
<kml xmlns="http://www.opengis.net/kml/2.2">
<Document>
    <name>CSG7_1. NA_NLC_NGHI_THUAN_2 - NA_NLC_QUAN_HANH.kml</name>
    <Placemark>
        <name>Tuyen_Cap_Chuan_Hoa</name>
        <LineString>
            <tessellate>1</tessellate>
            <coordinates>105.6478332851891,18.80072665494021,0
105.6474747682158,18.80080856857134,0
105.6472064000433,18.80005705915083,0
105.648123715473,18.79987464292393,0
105.6491950246145,18.7996774532641,0
105.6492199374286,18.79958014224189,0
105.6471531086603,18.79409618402215,0
105.6467369706284,18.79400097396493,0
105.6462460814655,18.79190882066498,0
105.6456142904926,18.79021799650381,0
105.6450439384543,18.78866257626487,0
105.6443428235871,18.78396694106751,0
105.6439613280267,18.78133182305641,0
105.6439613280267,18.78133182305641,0
105.6439759144934,18.78133268140818,0
105.6449773875164,18.78119273109801,0
105.6463222095623,18.78095210978953,0
105.6462672362491,18.77971777650704,0
105.6462519838902,18.77930109374019,0
105.6456492537195,18.77929572769398,0</coordinates>
        </LineString>
    </Placemark>
</Document>
</kml>