<?xml version="1.0" encoding="UTF-8"?>
<kml xmlns="http://www.opengis.net/kml/2.2">
<Document>
    <name>CSG8_1. NA_NLC_NGHI_DONG - NA_NLC_NGHI_THUAN_2.kml</name>
    <Placemark>
        <name>Tuyen_Cap_Chuan_Hoa</name>
        <LineString>
            <tessellate>1</tessellate>
            <coordinates>105.6477511180368,18.80074294856111,0
105.6475053186115,18.80078053528357,0
105.6474541684008,18.80070323945373,0
105.647215905626,18.79999592547822,0
105.6460960989212,18.80021522171804,0
105.6457929271306,18.80038634720007,0
105.6454052092662,18.80072836144699,0
105.6448801768532,18.8011022808688,0
105.6442823642209,18.80138026192537,0
105.6430493623321,18.80186395350193,0
105.6429848998709,18.80132451410563,0
105.6427595864035,18.80103735591531,0
105.6427249689039,18.80053584400601,0
105.642809682621,18.80030549200493,0
105.642580852483,18.79964256907871,0
105.6423755306196,18.79918291469268,0
105.6420969016523,18.79848769356001,0
105.6420968166973,18.79795185391159,0
105.641650341877,18.79808637986837,0
105.6413452168596,18.79810500435856,0
105.6409108639087,18.79818663189418,0
105.6404691329796,18.79824484774859,0
105.6401004271051,18.79831008040468,0
105.6396140944485,18.79836281227258,0
105.6391104260375,18.79843150896033,0
105.638543967908,18.79856964581978,0
105.6380824651777,18.79864349683506,0
105.6375495902144,18.79875885681355,0
105.63703450444,18.79885719094712,0
105.6365702966651,18.79849470820986,0
105.6363543675662,18.79839507216692,0
105.6360089940013,18.79834888962352,0
105.6356103157884,18.79833523666083,0
105.6349805726556,18.7982996243052,0
105.6344530395934,18.79832932062459,0
105.6340122114544,18.79832445652756,0
105.6337388250673,18.79827605145756,0
105.6336541099586,18.79797785516257,0
105.6334436127146,18.79714727969981,0
105.6329138920566,18.79730276762487,0
105.6322696741425,18.79750636468746,0
105.6316324297844,18.7977350121168,0
105.63100877324,18.79794512401824,0
105.630453547046,18.79818805016835,0
105.6298502516957,18.7984332051461,0
105.6293137045761,18.79858726046735,0
105.6285395403533,18.79868941732423,0
105.6284290758882,18.79876494010679,0
105.6283246638927,18.79861430593702,0
105.6280765795456,18.79861475763936,0
105.6275182022059,18.79865077537227,0
105.6272052370298,18.79873402982479,0
105.6268912476532,18.79888525013203,0
105.6265756481103,18.79902267752258,0
105.6264780518531,18.79862002462079,0
105.6264273781014,18.79832039117888,0
105.6263533600167,18.79795648254899,0
105.6262502235124,18.79746343432815,0
105.6260146555443,18.79738621403665,0
105.6256243574919,18.79748302261754,0
105.6249674063412,18.79767176537704,0
105.6248980129525,18.79769603212198,0
105.6246756241447,18.79761213160615,0
105.6246746210571,18.79731172187668,0
105.624350184556,18.79713740592313,0
105.6245603473818,18.79624052248453,0
105.6242920603706,18.79449117251073,0
105.6240305232105,18.79246464125243,0
105.6238798390672,18.79106011369877,0
105.6237368137783,18.79001283312486,0
105.62339252183,18.79005806430604,0
105.6232131827533,18.78945688107355,0
105.6230493655975,18.78877014402964,0
105.6232447083071,18.78867157590358,0
105.6236474611068,18.78851498060283,0
105.6238344051157,18.78846794890649,0
105.6236338181608,18.78732636757155,0
105.6234923930212,18.78649587121334,0
105.6233600513239,18.78577118418633,0
105.6236589831538,18.78572599253981,0
105.623692581074,18.78568364379677,0
105.6236320693656,18.78496751487399,0
105.6235980197912,18.78458015957133,0
105.6230121651272,18.78463684995841,0
105.6208770259687,18.78504452851714,0
105.6182370549055,18.78555405480882,0
105.616552031374,18.78599026348095,0
105.6163894027121,18.7860541064111,0
105.6166927830362,18.78664852725793,0
105.6168576740653,18.78707727661916,0
105.6171833100986,18.78739620498107,0
105.617525521891,18.78799576529863,0
105.617363312402,18.7880874761596,0
105.6169520153119,18.78829817565378,0
105.6163019554811,18.78856461288853,0
105.6158880649496,18.78872229665618,0
105.6151840974693,18.7890155834594,0
105.6154158298394,18.78980052497892,0
105.6156032614123,18.7904985065191,0
105.6157317024219,18.79111859559723,0
105.6157941465934,18.79165167708363,0
105.6150637898907,18.7916864131087,0
105.6140412419009,18.79178241655002,0
105.6133158006077,18.79178577814265,0
105.6133226944638,18.79077909981634,0
105.6133034152764,18.79010017000867,0
105.6132927025779,18.78949956066971,0
105.613264094998,18.78895101289535,0
105.6131566410415,18.78817861514053,0
105.6129799884603,18.78734159604022,0
105.6127730029729,18.78631865197469,0
105.6125846564113,18.78546844146883,0
105.6125504696015,18.78509319683868,0
105.6124344463419,18.78430639478538,0
105.6123846378662,18.78391339608346,0
105.6123363189314,18.78333242038284,0
105.612220055727,18.7827412154443,0
105.6120930521099,18.78221130289625,0
105.6118572906862,18.78205173676385,0
105.611259074503,18.78215216263204,0
105.6106130293865,18.78222201662042,0
105.609405978975,18.78237533496982,0
105.6079784447644,18.78258155172737,0
105.6061031883031,18.78290190614998,0
105.604442511452,18.78313115553016,0
105.6028701262103,18.78333087538444,0
105.6030232118511,18.78372755897164,0
105.602805721126,18.78378188454396,0
105.6001255840638,18.78349913034205,0
105.6001033567318,18.78374106028794,0
105.5989103383239,18.78396802424188,0
105.5987325284591,18.78384893688189,0
105.5979400034046,18.7840848825242,0
105.5973274857558,18.78421724491593,0
105.5971989828858,18.78443486581235,0
105.5962986676169,18.78450559475173,0
105.5953141974537,18.78460477978762,0
105.5943135799004,18.78466135298537,0
105.5939478132782,18.78468260967327,0
105.5935678511397,18.78470981237478,0
105.5929889956849,18.78475985520953,0
105.5919196381996,18.78486353210792,0
105.5912676070056,18.78494986986838,0
105.5903204476131,18.78509115711647,0
105.59038789636,18.78557985683292,0
105.5910501674648,18.78553678023945,0
105.59111205865,18.78563531430008,0
105.5912061982696,18.78560637388041,0</coordinates>
        </LineString>
    </Placemark>
</Document>
</kml>