<?xml version="1.0" encoding="UTF-8"?>
<kml xmlns="http://www.opengis.net/kml/2.2">
<Document>
    <name>CSG8_NA_NLC_NGHI_DONG-NA_NLC_NGHI_MY.kml</name>
    <Placemark>
        <name>Tuyen_Cap_Chuan_Hoa</name>
        <LineString>
            <tessellate>1</tessellate>
            <coordinates>105.5910949172365,18.78557881271492,0
105.5904264832856,18.78558169263309,0
105.590341918645,18.78509908314762,0
105.5904453362687,18.78660248359509,0
105.5892082221901,18.7869288884116,0
105.5875726914584,18.78687960660853,0
105.5864479344213,18.78671309446075,0
105.5863910065534,18.78827073720098,0
105.5861526645758,18.78961954724255,0
105.5850999758515,18.79130315777703,0
105.5843805803228,18.79274478524616,0
105.5820001467587,18.79199065116742,0
105.5804541702002,18.79177966276151,0
105.5788770012245,18.78955841350632,0
105.5777504592471,18.78782772622621,0
105.5762377331103,18.78568662699148,0
105.5751680276615,18.7853678737034,0
105.5734923278379,18.78576959780596,0
105.5714936043847,18.78646070412874,0
105.5700714428747,18.78740600977908,0
105.5684749894535,18.78844342721856,0
105.5672486023075,18.78935081083377,0
105.5664431923597,18.78964421904946,0
105.5663919460723,18.79119095770331,0
105.566401260537,18.79128048727908,0
105.5668309538881,18.79305643778805,0
105.5680713227184,18.79363512623112,0
105.5703458832731,18.79437621662326,0
105.5719887862945,18.79498070096041,0
105.573318079184,18.7953400278949,0
105.574256837075,18.79607621456466,0
105.5739238890554,18.798003361809,0
105.5739237434474,18.7981129204683,0
105.5736302701118,18.80017602199457,0
105.5708238580699,18.8043686916223,0
105.5702289808052,18.805775969343,0
105.5682489969529,18.80762692488569,0
105.5669671315252,18.80837271714266,0
105.5664353562023,18.81073172680745,0
105.5671481206511,18.81310236793781,0
105.5691302393827,18.81547766335053,0
105.5697017024142,18.81676759171922,0
105.5674824107585,18.81733142099365,0
105.5651114488376,18.81819316970232,0
105.5625401062555,18.81928190004973,0
105.5607647521595,18.8202664531549,0
105.5591749402424,18.82096067285992,0</coordinates>
        </LineString>
    </Placemark>
</Document>
</kml>