<?xml version="1.0" encoding="UTF-8"?>
<kml xmlns="http://www.opengis.net/kml/2.2">
<Document>
    <name>CSG8_2. NA_NLC_NGHI_THUAN_2 - NA_NLC_NGHI_PHUONG.kml</name>
    <Placemark>
        <name>Tuyen_Cap_Chuan_Hoa</name>
        <LineString>
            <tessellate>1</tessellate>
            <coordinates>105.5899681363426,18.81026363312637,0
105.5898075502534,18.81050884375073,0
105.5911752480399,18.81003232965435,0
105.5921939618386,18.80941310200303,0
105.5943131739537,18.80793742045567,0
105.5977920789285,18.80644515178219,0
105.5978038738091,18.8066369015667,0
105.5994225980124,18.80596793116646,0
105.6002959087562,18.8070898003895,0
105.6005756171162,18.80757670189729,0
105.6011974389598,18.80819304581356,0
105.6037741133617,18.80810027797622,0
105.6037717313432,18.80839332040729,0
105.6051306251357,18.80831143216494,0
105.6058743756715,18.8079742455046,0
105.6079566719095,18.80747845701832,0
105.6080251162127,18.80723732091122,0
105.6091688214292,18.80695687858853,0
105.6102734617648,18.80619997779808,0
105.6109922334258,18.80587620190563,0
105.6114681049498,18.80559338689418,0
105.6118994391169,18.80552449667691,0
105.6119465216756,18.80574737978073,0
105.6138784406212,18.80788450622642,0
105.6146946707446,18.80820125147734,0
105.6149203124956,18.80803855630977,0
105.6170880392903,18.80574059477816,0
105.6204858776277,18.80323601918852,0
105.6217848428145,18.80253577546515,0
105.6231434873273,18.80072923267903,0
105.6243876667915,18.7999851757197,0
105.6265304296109,18.79905108206574,0
105.6266272023679,18.79921955471563,0
105.6266601902007,18.79938464378145,0
105.6265555232589,18.79964226276019,0
105.6268594797333,18.7994874559508,0
105.6271673697478,18.79965078359692,0
105.6305317735546,18.8008967594294,0
105.6347852396677,18.80169515138587,0
105.6342859984489,18.8048449788338,0
105.6339197705944,18.80693328572292,0
105.6326233081445,18.80751595400373,0
105.6331536177081,18.80912080342174,0
105.6331843720456,18.80923781980453,0
105.6371336400017,18.80770521767434,0
105.641540085272,18.80592329924099,0
105.6437332243063,18.8050885627555,0
105.643121642803,18.80337991403037,0
105.6439351079615,18.80300774343046,0
105.644664873461,18.80275644322645,0
105.6452901859844,18.80251379889652,0
105.6465226812209,18.80214482058569,0
105.6476819187493,18.80173018473439,0
105.6473764602484,18.8008299417532,0
105.6477971630225,18.80078869282125,0</coordinates>
        </LineString>
    </Placemark>
</Document>
</kml>