<?xml version="1.0" encoding="UTF-8"?>
<kml xmlns="http://www.opengis.net/kml/2.2">
<Document>
    <name>CSG9_1.NA_DCU_DIEN_BINH - NA_DCU_DIEN_CHAU.kml</name>
    <Placemark>
        <name>Tuyen_Cap_Chuan_Hoa</name>
        <LineString>
            <tessellate>1</tessellate>
            <coordinates>105.6057365671694,18.9229878631522,0
105.6058250370842,18.92302920398713,0
105.6058462180785,18.92330742159934,0
105.605660681529,18.9239225350367,0
105.6057326595003,18.92433060935463,0
105.6037461992202,18.93776410963023,0
105.6011164022482,18.95563352658865,0
105.6001109121854,18.96282794245496,0
105.5962602526184,18.96596922099321,0
105.5926807803311,18.96907333853284,0
105.5924038209004,18.9694621353704,0
105.5921557732541,18.97046516372607,0
105.5924725369622,18.97054543702814,0
105.5919447124459,18.97154046175233,0
105.5931383890688,18.97164068116783,0
105.5936981714946,18.97194352313366,0
105.5969431937031,18.97245371327547,0
105.5965107737522,18.97333120100807,0
105.597461089239,18.97373722711163,0
105.5977513117252,18.97309088401978,0
105.5988674986552,18.9736113486893,0
105.5990456368131,18.97384517815746,0
105.6008404045427,18.97391586271365,0
105.6006029372068,18.97699354469995,0
105.6004509579213,18.97694623896186,0</coordinates>
        </LineString>
    </Placemark>
</Document>
</kml>