<?xml version="1.0" encoding="UTF-8"?>
<kml xmlns="http://www.opengis.net/kml/2.2">
<Document>
    <name>CSG9_2.NA_DCU_DIEN_CHAU - NA_DCU_DIEN_THANG.kml</name>
    <Placemark>
        <name>Tuyen_Cap_Chuan_Hoa</name>
        <LineString>
            <tessellate>1</tessellate>
            <coordinates>105.5360368278426,18.95440508968104,0
105.5359482022088,18.95457382529953,0
105.5365734393766,18.95552375706718,0
105.5384647042579,18.95496150381005,0
105.5410674624893,18.95480221175422,0
105.5430958089905,18.9549406927254,0
105.5434406355471,18.95492256965506,0
105.5446327509219,18.95500138138591,0
105.5447949052011,18.95534426674551,0
105.5441094602238,18.961069509691,0
105.5443456648219,18.96156405611892,0
105.544310155517,18.96182183693755,0
105.5453206466778,18.96193112298564,0
105.5454617551345,18.96288220880241,0
105.5492115779242,18.96320409585501,0
105.5491584455082,18.96290543291635,0
105.5538012962063,18.96392523805945,0
105.5562763932986,18.96452663622231,0
105.5567840821206,18.96454731426386,0
105.5569923947837,18.96457862802059,0
105.5574362496757,18.96478560505926,0
105.5627169692881,18.96584616380749,0
105.563564056923,18.96586393221943,0
105.5631983796151,18.96457325704824,0
105.5672709730239,18.96461966551691,0
105.5720893307781,18.96535553848539,0
105.5748634152815,18.96613365170359,0
105.5784901813357,18.96665036760635,0
105.5788243137025,18.96734459985998,0
105.5899661812494,18.96755875106619,0
105.5917997758448,18.96865620715562,0
105.5918206897252,18.96903297365792,0
105.5920725200866,18.96902000000589,0
105.5919952759058,18.96950636912894,0
105.5919726308767,18.96997500513032,0
105.5919083696962,18.97070291235652,0
105.5921839540149,18.97080303256195,0
105.5916530070134,18.97185088643841,0
105.5916415484723,18.97187664467598,0
105.5910986096762,18.97309841753573,0
105.5914369351171,18.97341138799566,0
105.5935014250196,18.97458265190184,0
105.5976653959086,18.97649291419696,0
105.5983377421424,18.97743150415771,0
105.5987706662951,18.97852573821583,0
105.6001744474312,18.97872447450981,0
105.6005195958365,18.97870696940314,0
105.6029209330653,18.97888188591127,0
105.6029766103263,18.97759559213301,0
105.6029612505382,18.97625328155625,0
105.6029526894317,18.9761324067161,0
105.6020915206498,18.97609166074325,0
105.6017675320425,18.97608253969486,0
105.6010484733211,18.97608775529354,0
105.6006613494829,18.97604687164138,0
105.6006365097148,18.97693112568593,0
105.6003264854622,18.97699202815074,0</coordinates>
        </LineString>
    </Placemark>
</Document>
</kml>