<?xml version="1.0" encoding="UTF-8"?>
<kml xmlns="http://www.opengis.net/kml/2.2" xmlns:gx="http://www.google.com/kml/ext/2.2" xmlns:kml="http://www.opengis.net/kml/2.2" xmlns:atom="http://www.w3.org/2005/Atom">
<Document>
	<name>DWDM.NA_VIH_ROADM_VINH_2$NA_TKY_KY_TAN-Edit.kml</name>
	<open>1</open>
	<atom:link rel="app" href="https://www.google.com/earth/about/versions/#earth-pro" title="Google Earth Pro 7.3.7.1155"></atom:link>
	<StyleMap id="msn_ylw-pushpin">
		<Pair>
			<key>normal</key>
			<styleUrl>#sn_ylw-pushpin</styleUrl>
		</Pair>
		<Pair>
			<key>highlight</key>
			<styleUrl>#sh_ylw-pushpin</styleUrl>
		</Pair>
	</StyleMap>
	<Style id="sh_ylw-pushpin">
		<IconStyle>
			<scale>1.3</scale>
			<Icon>
				<href>http://maps.google.com/mapfiles/kml/pushpin/ylw-pushpin.png</href>
			</Icon>
			<hotSpot x="20" y="2" xunits="pixels" yunits="pixels"/>
		</IconStyle>
		<BalloonStyle>
		</BalloonStyle>
	</Style>
	<Style id="sn_ylw-pushpin">
		<IconStyle>
			<scale>1.1</scale>
			<Icon>
				<href>http://maps.google.com/mapfiles/kml/pushpin/ylw-pushpin.png</href>
			</Icon>
			<hotSpot x="20" y="2" xunits="pixels" yunits="pixels"/>
		</IconStyle>
		<BalloonStyle>
		</BalloonStyle>
	</Style>
	<Placemark>
		<name>DWDM.NA_VIH_ROADM_VINH_2$NA_TKY_KY_TAN-Edit</name>
		<styleUrl>#msn_ylw-pushpin</styleUrl>
		<LineString>
			<tessellate>1</tessellate>
			<coordinates>
				105.6674266779235,18.67127476715274,0 105.6673817154358,18.67141780473627,0 105.6673309174932,18.67149316029984,0 105.6665983385097,18.67196674067078,0 105.6661182023431,18.67146888133412,0 105.665573457061,18.67089428292005,0 105.6654231147312,18.67060859518908,0 105.6652485161579,18.67041990705462,0 105.6648669882999,18.67035083649296,0 105.6619758741222,18.67041080806452,0 105.6616071977622,18.67045756986279,0 105.6612222718934,18.67043036639322,0 105.6609407480517,18.67049334460311,0 105.6606331652531,18.67038730059983,0 105.6577689223468,18.66848663362741,0 105.6577533520242,18.66738948901719,0 105.6559807030172,18.66745543903063,0 105.6519960759721,18.66784552773975,0 105.6491937985336,18.66647756033854,0 105.6482456189136,18.66613968086061,0 105.6452152448002,18.66711415092474,0 105.6390752795546,18.6691147410056,0 105.6389397447981,18.66896331618003,0 105.6371949899265,18.66954329962197,0 105.6371258787981,18.66956158101705,0 105.6371128251093,18.66952263325131,0 105.6371227055457,18.66956782225503,0 105.6367269216297,18.66968396718729,0 105.6356168731166,18.6700242193435,0 105.6355933221957,18.67019651678625,0 105.6357211384763,18.6706342099299,0 105.6359244628813,18.67072415332598,0 105.636089547372,18.67143651755291,0 105.6359804810351,18.67159820490155,0 105.6349341501581,18.67458759560449,0 105.6343347043271,18.67622686368588,0 105.6334184509904,18.67814014501482,0 105.6330782169879,18.67917481261071,0 105.6329091501887,18.67930370101269,0 105.6323342438389,18.67919224134495,0 105.6316300579416,18.67890468651698,0 105.6299143196206,18.67838787810427,0 105.6268898281256,18.67746048793367,0 105.6280887741215,18.67284645748299,0 105.627945462529,18.67267375225621,0 105.6238291926833,18.67292803344389,0 105.6232499325231,18.67490730915454,0 105.6221388337062,18.67497040142595,0 105.6220648128306,18.67649015630629,0 105.6193226897891,18.67642838901162,0 105.6193743598055,18.67503027541855,0 105.61830502262,18.67524002384513,0 105.6182754069318,18.6755133784862,0 105.6175362286059,18.67551518799524,0 105.6089240413184,18.6778122111785,0 105.6083951078517,18.67741307815682,0 105.6075257231111,18.67822526582309,0 105.607235332242,18.67806195130756,0 105.6065252340013,18.67864135962059,0 105.6055775064474,18.67875287602718,0 105.6034358600767,18.67854848377931,0 105.6026372978792,18.67867900607825,0 105.6011748077986,18.67848315049439,0 105.6011107387008,18.67882973086653,0 105.6004018322534,18.67870615361901,0 105.5934386267544,18.67899351899436,0 105.5918492549792,18.6793295928259,0 105.5905233184635,18.67939496598086,0 105.5851949003703,18.68141643593551,0 105.5775148649096,18.68422145078605,0 105.5727947708032,18.68623339120956,0 105.5729651007674,18.68705503589214,0 105.5720008534508,18.68730417146576,0 105.5718454103917,18.68651506168942,0 105.5581283893011,18.68976771939722,0 105.5441973534621,18.69259007425437,0 105.5372101386286,18.69431532841811,0 105.5312969594776,18.69599654159667,0 105.5229306256908,18.6983899519544,0 105.521277,18.69857,0 105.5212618286234,18.69857464105093,0 105.5207592898488,18.69831585220047,0 105.5206607971255,18.69834573015524,0 105.5203721067535,18.69766656201731,0 105.5203680564382,18.6974291510054,0 105.5192985036254,18.69767703238708,0 105.5180800156558,18.69794745615631,0 105.5175442372972,18.69805639461853,0 105.5162520564386,18.69831220925303,0 105.5153095781512,18.69850352291165,0 105.5145629490441,18.6986338827307,0 105.5137167146297,18.69867581798244,0 105.5130713780766,18.69865475786948,0 105.5127184832722,18.69861330140827,0 105.5120120952252,18.69863992900103,0 105.5110796117394,18.69868951234178,0 105.5099589033234,18.69863150624041,0 105.5087245440607,18.69858254856555,0 105.5079793877164,18.69856294976637,0 105.5068322591015,18.69848483661261,0 105.5054918967359,18.69834270515896,0 105.5046717499905,18.69824433907186,0 105.5046629442599,18.69835971754244,0 105.5042714944329,18.69830576583335,0 105.5027063524078,18.69811613504503,0 105.5015301053368,18.69796828981525,0 105.4996761317052,18.69773713386631,0 105.4987451376066,18.697758079991,0 105.4983740341697,18.69773142884587,0 105.4971501193213,18.69769733484438,0 105.4959704654826,18.69720505157402,0 105.4954504321198,18.69727383554495,0 105.4947021701817,18.69747510430143,0 105.4944823234175,18.69763164192775,0 105.4942449464785,18.69781516186718,0 105.4940947605822,18.69810126361066,0 105.4941307590692,18.69826178849723,0 105.4939872080915,18.69863949927214,0 105.4935781360725,18.69938491347614,0 105.4935915493224,18.69995065572575,0 105.493701669122,18.70036736437225,0 105.4936295663018,18.70053408637647,0 105.4939931464863,18.7005366312673,0 105.4943428126857,18.70057926945262,0 105.4945313130174,18.70069248845954,0 105.4928773652967,18.70241096269805,0 105.4909328421807,18.70345253874268,0 105.4913880919999,18.70546245008787,0 105.489364275608,18.70686886514582,0 105.4839792947207,18.70802556017254,0 105.4790221754346,18.70909499544055,0 105.4774193698335,18.70943889279562,0 105.4774089169079,18.70945862462128,0 105.4752790231632,18.70994516774226,0 105.4725334725124,18.71105617330955,0 105.4713650479144,18.71117102754671,0 105.4701619698054,18.71116214545555,0 105.4687499487354,18.71151691089613,0 105.4677675216013,18.71191471642701,0 105.4668016041001,18.71169276438027,0 105.4644761241644,18.71116708414364,0 105.4596427727051,18.7101583105181,0 105.4589890831483,18.71037722091496,0 105.4571814874786,18.7107214113655,0 105.4507412909021,18.71130000592692,0 105.4482859650046,18.71078078980296,0 105.4446907700758,18.70867862114393,0 105.444277432677,18.7084941348883,0 105.4435840095105,18.70833064934396,0 105.4440604922945,18.70701919531899,0 105.4426414121115,18.6995972199497,0 105.4415548221184,18.69385103984066,0 105.440724091601,18.68966260407053,0 105.4402614184564,18.68875364314772,0 105.4434931080631,18.68607112085218,0 105.4421809122575,18.68477361967699,0 105.4414134188927,18.68160390113911,0 105.4414338284305,18.67983643233196,0 105.4416036120954,18.67875501569948,0 105.4415258673323,18.67791410139453,0 105.4421473284388,18.67571043129516,0 105.4418915469103,18.67398538299598,0 105.4418967475436,18.67321985950473,0 105.4368449081375,18.66922284512537,0 105.4316576718937,18.66507606398824,0 105.4308142965537,18.66537786498806,0 105.4305425291417,18.66623001810737,0 105.4285914446395,18.66789316334827,0 105.4272526514753,18.66942988344887,0 105.4232477735132,18.67158412775727,0 105.4194166106762,18.66802110900734,0 105.4130887967191,18.66994927005028,0 105.4109228548962,18.67162207586349,0 105.4093439796615,18.67140905924528,0 105.3914644590266,18.67599777825173,0 105.3907340364359,18.67582589581279,0 105.38221856539,18.69362110588489,0 105.3823514704614,18.69445794236831,0 105.3815565376105,18.69451308057893,0 105.3813875291949,18.69729571964661,0 105.3816913101982,18.69845106542159,0 105.382117065913,18.702987420959,0 105.3824548477045,18.70400097475174,0 105.3791563913252,18.70993582505156,0 105.374124310146,18.7177304697719,0 105.3674349821155,18.72364315645031,0 105.3657423642917,18.7247068365781,0 105.3644294805779,18.72577036105989,0 105.364122238247,18.72585686350572,0 105.3642830747254,18.72606112409752,0 105.3630211427674,18.72648484501314,0 105.3632708705456,18.72690892851654,0 105.3629471887051,18.72710889636411,0 105.362703949033,18.72684343776778,0 105.3616495497772,18.72691478037616,0 105.3603780720805,18.72727418276995,0 105.3594564516295,18.72728314424322,0 105.3584316274099,18.72779865552392,0 105.3532053526634,18.7313632077055,0 105.3525385429602,18.73203701313951,0 105.3518094737309,18.73390991826074,0 105.3459585201326,18.73738179714275,0 105.345096477658,18.7380204340412,0 105.3433572210175,18.73902290246049,0 105.3419596588718,18.74000291449986,0 105.335121022787,18.74653351645998,0 105.3279966219309,18.74790817222026,0 105.3257973042947,18.74284562382727,0 105.3251981861097,18.74242369147882,0 105.3241994697454,18.74270434106223,0 105.3236241949499,18.74305140550011,0 105.3230486208811,18.74358885039435,0 105.3178024426322,18.74708757247393,0 105.3171019225272,18.7481156479728,0 105.3168492017577,18.74904256657385,0 105.3158376148656,18.75107311824533,0 105.3145835066616,18.75207514080532,0 105.3142234772414,18.75282457647634,0 105.3141081115637,18.75353814735823,0 105.3141533871588,18.75413757339341,0 105.3141081117737,18.75454136708016,0 105.3138473204466,18.75505029954825,0 105.3134986155907,18.75710570242432,0 105.3130368245116,18.75820308692593,0 105.3132056111896,18.759204991055,0 105.3131106581158,18.76015868726808,0 105.3122335601174,18.7640805368902,0 105.3124496417835,18.76577350082493,0 105.3115874968882,18.76666356060008,0 105.3023383412371,18.77369498320363,0 105.3016848947406,18.77466509930193,0 105.3009165832742,18.77555520688459,0 105.3016454742,18.77673146015055,0 105.3025799168734,18.778880140649,0 105.3079723237185,18.78190695428247,0 105.3062917983841,18.78958553410221,0 105.2997219049129,18.79030003105133,0 105.3001117016946,18.79100567314861,0 105.2999564280828,18.79368602211803,0 105.3021254896727,18.79582517351555,0 105.3028818966013,18.79695521825792,0 105.3037363788993,18.7978894803222,0 105.3067000839957,18.79913324259077,0 105.3093142422847,18.80042008787552,0 105.3104374739537,18.80113697401356,0 105.3132820859671,18.80230867570598,0 105.314169943415,18.80324888370679,0 105.3151398565644,18.80394313721031,0 105.3158243273305,18.80461865417946,0 105.3167460564125,18.80522151269863,0 105.3182579062597,18.80783194437753,0 105.3184238331403,18.8087170335357,0 105.3175659877226,18.8094460638205,0 105.3165400971586,18.80973919203631,0 105.3156879899337,18.81052012075916,0 105.3099438231887,18.81229614187394,0 105.3054343807343,18.8145846900107,0 105.3056424420302,18.81897493629122,0 105.3054936524634,18.81973840427139,0 105.3056797558821,18.82055474204241,0 105.3083197712092,18.82359340111332,0 105.308618013919,18.82717823351798,0 105.30861,18.827185,0 105.3085815291414,18.8271808655609,0 105.3078873895954,18.82819727534688,0 105.3075231521133,18.82823519237149,0 105.3072213721343,18.82849154250731,0 105.307045376311,18.8290708218469,0 105.3067188138378,18.82944029659414,0 105.3065001634375,18.82961721109875,0 105.3061426051956,18.8301521218991,0 105.306579702902,18.83046558928815,0 105.306615,18.830465,0 105.3065939526878,18.83050136193813,0 105.3058907737953,18.83211753270568,0 105.3032038847174,18.83704763051798,0 105.3034730139359,18.8382799589941,0 105.3035185931589,18.84076380708338,0 105.303038,18.841909,0 105.3030299421142,18.84189882966708,0 105.3029742153766,18.84227848082531,0 105.3029481722086,18.8428314125883,0 105.3030875854046,18.84353749253089,0 105.3031809033944,18.8440698007969,0 105.303277296305,18.84467703396901,0 105.3032709454605,18.84525806026567,0 105.3031597295853,18.84604856198672,0 105.3028291087411,18.84706677659611,0 105.3025830697394,18.84736161534632,0 105.3019989942264,18.84814014015635,0 105.3019413683406,18.84847248144245,0 105.3020501209516,18.84894207702454,0 105.302432673053,18.85000834247681,0 105.3027033268629,18.85108348484385,0 105.3044065336261,18.8511408407747,0 105.3044,18.85113,0 105.3045180896507,18.85439649258477,0 105.3045838295606,18.86677019049808,0 105.304749273636,18.87014026558198,0 105.3046013610391,18.87128749966076,0 105.3041399548262,18.87156297042548,0 105.304052860909,18.87179429622844,0 105.3042154051839,18.87218126394669,0 105.3052732015557,18.87283958305436,0 105.3055401413343,18.87284679410739,0 105.3067709242765,18.87481458605212,0 105.3077212924086,18.87592831655286,0 105.30825462275,18.87690692095024,0 105.3077837752258,18.87992433019279,0 105.3075064231539,18.87987291299752,0 105.3073709382972,18.87982448324634,0 105.3074113818632,18.87989099667116,0 105.3074160129408,18.88047184588882,0 105.3073223045305,18.88220207912537,0 105.3076374106459,18.88296129140146,0 105.3083361359964,18.88409092347363,0 105.3089640281086,18.88517843027281,0 105.3094252880615,18.88587527879457,0 105.310338723017,18.88728302336712,0 105.3107656466735,18.88724839290396,0 105.3110412428153,18.88729546683661,0 105.3124617622128,18.88800778937868,0 105.3126568833233,18.88823981793472,0 105.3129797718602,18.88893861698327,0 105.313049655118,18.88921880907955,0 105.3136745342799,18.88986268527433,0 105.3138002059207,18.88989238583195,0 105.3130537397176,18.89235422661879,0 105.3136117894047,18.89393476286228,0 105.3140387471424,18.89521267082383,0 105.3128190911414,18.89579113291985,0 105.3133380097279,18.89701222122927,0 105.3134752501452,18.89685199417414,0 105.3133419459459,18.89701977065697,0 105.3142397624012,18.89757689815324,0 105.3154770811366,18.89910170754731,0 105.3165882256938,18.90153932545538,0 105.3171334293226,18.90234447083219,0 105.3173619722137,18.90308223851239,0 105.3162869108066,18.9036908317742,0 105.3164921130724,18.90408602427127,0 105.3166271421288,18.90415358944699,0 105.3181765862399,18.90380466102735,0 105.3183348458339,18.90424088038895,0 105.3182905793658,18.90425669374561,0 105.3183472131472,18.90441874822523,0 105.3193043486548,18.90697494603677,0 105.3203283609224,18.90969480280339,0 105.3209328047937,18.91073948208878,0 105.3133927553238,18.91266059629448,0 105.3116658496491,18.91430050537743,0 105.3093611352912,18.91625721730286,0 105.3073404124981,18.91797239615691,0 105.3054926252454,18.91954962226428,0 105.3035223214066,18.92121423272547,0 105.3017904982518,18.92268476772662,0 105.3000368406559,18.92416261492914,0 105.2978705215093,18.92600563966883,0 105.2964982911415,18.92717712651208,0 105.2949298157863,18.92849991800152,0 105.2931906512346,18.92995899536185,0 105.2927287467041,18.93063436373206,0 105.2925860606268,18.93117435822784,0 105.2919107389503,18.93355977223513,0 105.291222309521,18.93596668260212,0 105.2906572852867,18.93796040636383,0 105.2907147284707,18.93874128423288,0 105.2912762398555,18.94023553324476,0 105.2922608785142,18.94126890076113,0 105.2918726581202,18.94439821389248,0 105.2915092372743,18.94641415007656,0 105.2911164739875,18.94877824242135,0 105.2906257061242,18.95155939529974,0 105.2911260901527,18.95296513528558,0 105.2921717015997,18.95373547465982,0 105.2929226009678,18.95411529034707,0 105.2936218756341,18.95473416628578,0 105.2937240996156,18.95557955712597,0 105.2935950270555,18.95641942820966,0 105.292210905655,18.95711648101704,0 105.2920443831435,18.95726532921086,0 105.2913490615309,18.95791282764863,0 105.2909268258887,18.95987657249644,0 105.2907901288123,18.96046934516063,0 105.2906989883227,18.96125283026198,0 105.2907397047902,18.96202299050496,0 105.290550460094,18.96264038710539,0 105.2914353503697,18.96347880371076,0 105.2922018148858,18.96468130716545,0 105.293015221366,18.96713054883987,0 105.2932836310435,18.96933808820594,0 105.2939505555186,18.97742866404188,0 105.2967088238979,18.97807962754653,0 105.2981137818785,18.98121697807348,0 105.2989862167229,18.98569898523857,0 105.2981868985337,18.99183270211271,0 105.2969616179103,18.99455338976001,0 105.2949686930405,18.99878702639631,0 105.2927918781941,19.00258848861722,0 105.288505304492,19.00488102705384,0 105.2880109608943,19.00474356611525,0 105.2858835020751,19.00506189554875,0 105.2841047018974,19.00548245140184,0 105.2823011873484,19.00597692255523,0 105.2800545521233,19.00651549420026,0 105.2779880999733,19.00702369157917,0 105.2769604886937,19.00793536455735,0 105.2764136030128,19.00888675559371,0 105.275624430515,19.00986881287153,0 105.2752596683881,19.01155212760881,0 105.2748554149636,19.01225274959285,0 105.2743164557079,19.01374207553676,0 105.2724189944294,19.01758640009965,0 105.272088308558,19.01805674228212,0 105.27157663961,19.01860057757346,0 105.2705962322307,19.01925983104229,0 105.2698263904736,19.02112612119116,0 105.2690082904572,19.02243567257059,0 105.2693337271162,19.02366643621616,0 105.2694060237033,19.02453576985548,0 105.2689909477534,19.02513582807312,0 105.2672207699077,19.02633146952264,0 105.2659699593274,19.02858526007849,0 105.2661698033068,19.02982540476661,0 105.2659418565901,19.03144675433508,0 105.267362068911,19.03459390222539,0 105.2680169571535,19.03569492173406,0 105.268307509371,19.03586683117586,0 105.2690992225895,19.03784300210733,0 105.2690938180488,19.03816645961099,0 105.2690601612822,19.0387782676105,0 105.2692543687071,19.03879317170053,0 105.268728849397,19.04118246259963,0 105.2690429696341,19.04419162806794,0 105.2697026484668,19.0443076988285,0 105.2696268548993,19.04475014330939,0 105.2690801751372,19.04500369400036,0 105.269428331791,19.0457369903032,0 105.2696795024634,19.04592391487606,0 105.269795382259,19.04626785235049,0 105.2696432436923,19.04699525750948,0 105.2696189157468,19.0480324655178,0 105.2693873496668,19.04812483766991,0 105.2696127206448,19.05057280507475,0 105.269410401565,19.05069417849817,0 105.2698261279039,19.05124685746534,0 105.2710874674094,19.05214820702291,0 105.2742205965837,19.05550737126287,0 105.2761602818943,19.05810253803949,0 105.2772835803714,19.05867482232437,0 105.2780261754903,19.05962372116092,0 105.2791966135245,19.06248785509098,0 105.2800345099098,19.06298234273315,0 105.2810849103632,19.06437910793095,0 105.2813845123278,19.0649979506931,0 105.2817849899127,19.06535690854675,0 105.2829874481251,19.06551202690533,0 105.2848990367986,19.06728493710088,0 105.2865176524493,19.06906922507709,0 105.2870128662527,19.06926014748391,0 105.2973009558708,19.06516278796136,0 105.2997779435078,19.06693212090551,0 105.3013940962166,19.06850734031261,0 105.3021226636936,19.06927684846667,0 105.3027075406314,19.06969425985071,0 105.3033130828447,19.07006744001908,0 105.3032879399013,19.07016014951535,0 
			</coordinates>
		</LineString>
	</Placemark>
</Document>
</kml>
