<?xml version="1.0" encoding="UTF-8"?>
<kml xmlns="http://www.opengis.net/kml/2.2" xmlns:gx="http://www.google.com/kml/ext/2.2" xmlns:kml="http://www.opengis.net/kml/2.2" xmlns:atom="http://www.w3.org/2005/Atom">
<Document>
	<name>DWDM.NA_TKY_KY_TAN$TH_NXN_NHU_XUAN_2-Edit.kml</name>
	<open>1</open>
	<atom:link rel="app" href="https://www.google.com/earth/about/versions/#earth-pro" title="Google Earth Pro 7.3.6.10441"></atom:link>
	<StyleMap id="m_ylw-pushpin">
		<Pair>
			<key>normal</key>
			<styleUrl>#s_ylw-pushpin</styleUrl>
		</Pair>
		<Pair>
			<key>highlight</key>
			<styleUrl>#s_ylw-pushpin_hl</styleUrl>
		</Pair>
	</StyleMap>
	<StyleMap id="msn_ylw-pushpin">
		<Pair>
			<key>normal</key>
			<styleUrl>#sn_ylw-pushpin</styleUrl>
		</Pair>
		<Pair>
			<key>highlight</key>
			<styleUrl>#sh_ylw-pushpin</styleUrl>
		</Pair>
	</StyleMap>
	<Style id="s_ylw-pushpin">
		<IconStyle>
			<scale>1.1</scale>
			<Icon>
				<href>http://maps.google.com/mapfiles/kml/pushpin/ylw-pushpin.png</href>
			</Icon>
			<hotSpot x="20" y="2" xunits="pixels" yunits="pixels"/>
		</IconStyle>
	</Style>
	<Style id="s_ylw-pushpin_hl">
		<IconStyle>
			<scale>1.3</scale>
			<Icon>
				<href>http://maps.google.com/mapfiles/kml/pushpin/ylw-pushpin.png</href>
			</Icon>
			<hotSpot x="20" y="2" xunits="pixels" yunits="pixels"/>
		</IconStyle>
	</Style>
	<Style id="sh_ylw-pushpin">
		<IconStyle>
			<scale>1.2</scale>
		</IconStyle>
		<BalloonStyle>
		</BalloonStyle>
		<LineStyle>
			<color>ffff55aa</color>
			<width>2</width>
		</LineStyle>
	</Style>
	<Style id="sn_ylw-pushpin">
		<BalloonStyle>
		</BalloonStyle>
		<LineStyle>
			<color>ffff55aa</color>
			<width>2</width>
		</LineStyle>
	</Style>
	<Placemark>
		<name>BienGioi</name>
		<Camera>
			<longitude>105.4431306587631</longitude>
			<latitude>19.43397453146039</latitude>
			<altitude>12052.8129994152</altitude>
			<heading>12.17868875522223</heading>
			<tilt>3.204376912731291</tilt>
			<roll>9.020061033987698</roll>
			<gx:altitudeMode>relativeToSeaFloor</gx:altitudeMode>
		</Camera>
		<styleUrl>#m_ylw-pushpin</styleUrl>
		<Point>
			<gx:drawOrder>1</gx:drawOrder>
			<coordinates>105.449874,19.442137,0</coordinates>
		</Point>
	</Placemark>
	<Placemark>
		<name>DWDM.NA_TKY_KY_TAN$TH_NXN_NHU_XUAN_2-Edit</name>
		<styleUrl>#msn_ylw-pushpin</styleUrl>
		<LineString>
			<tessellate>1</tessellate>
			<coordinates>
				105.4548477679479,19.69452457911036,0 105.4544147333816,19.69502264788844,0 105.4545426975276,19.69541659062033,0 105.4547597631857,19.69537037427661,0 105.4548410747526,19.69544000374034,0 105.4551635691439,19.69535324705206,0 105.4554302602327,19.69515213412578,0 105.4556523124521,19.69507191108282,0 105.45613107416,19.694787610621,0 105.45649606956,19.69461170259255,0 105.4566701853677,19.69435319332053,0 105.4567782592992,19.69304713919547,0 105.4571024061854,19.68911980069193,0 105.4594339524867,19.68461604156465,0 105.4616277644003,19.6809181490861,0 105.4607512326455,19.68029717715994,0 105.4594977510902,19.67914342507011,0 105.457899785428,19.67763857638854,0 105.4576674312474,19.67746105892019,0 105.4568358966933,19.6770285685428,0 105.455257582853,19.67671198777029,0 105.4546447093667,19.67593123678538,0 105.4543516114219,19.67438202390984,0 105.4540625970381,19.67381092541378,0 105.4533859560781,19.67278852761642,0 105.4524018855182,19.67156781789843,0 105.4514363087878,19.671426716511,0 105.4510404589373,19.67068638905683,0 105.4504976613836,19.66968794859221,0 105.4500490610977,19.66908249429232,0 105.4489911821873,19.6684066037177,0 105.447864505282,19.66852831401753,0 105.4451284599308,19.66782643621575,0 105.442690969005,19.6668752492497,0 105.4423525439215,19.66672257570839,0 105.4416726520949,19.66645880803375,0 105.4410419238346,19.66613614855056,0 105.4406802782957,19.665848603872,0 105.4395432713732,19.66584664536023,0 105.4395623716886,19.66552460239992,0 105.438630578266,19.6653650614663,0 105.4378218884077,19.66496356947088,0 105.434975551168,19.6656350768579,0 105.43417739341,19.66563131926618,0 105.4334276009088,19.66575899837034,0 105.4328995118403,19.66560066993713,0 105.4323418313428,19.66497426484857,0 105.4318038419472,19.66419510233618,0 105.4310758906973,19.66374347212117,0 105.4306648758739,19.66332781597231,0 105.4298844957284,19.66252961929411,0 105.4295112261598,19.66222372766285,0 105.4287590210171,19.661894967109,0 105.4281350453256,19.66141575643457,0 105.4272611870126,19.66028609489158,0 105.4270758682766,19.65983436804738,0 105.4269033569319,19.65952715012395,0 105.4265077588444,19.659185685834,0 105.4262510527757,19.65898125399007,0 105.425728385308,19.65842934772741,0 105.4250877870378,19.65795711849462,0 105.4243098973153,19.65712161061977,0 105.4232481213973,19.65725551251597,0 105.4228355721932,19.65713255324834,0 105.4224346672614,19.65703958573515,0 105.4212552223956,19.65678002014103,0 105.4206986450671,19.65637469681214,0 105.4197019605212,19.6559957454187,0 105.4187611053855,19.65537126354332,0 105.4186650651914,19.65530884892099,0 105.4174597735729,19.65461187794248,0 105.4170933672448,19.65435452723952,0 105.4164099294382,19.65403346951461,0 105.4162341558849,19.65339780678481,0 105.415999779389,19.65260963848616,0 105.4157558039836,19.65177650266267,0 105.415667542817,19.6505534634827,0 105.4147915822569,19.64949850885477,0 105.4138897647749,19.64929228574145,0 105.4125842522017,19.64842817616041,0 105.4121702905486,19.6471838716976,0 105.4119633123017,19.64581847118387,0 105.4121054091043,19.64515895049831,0 105.4121404697507,19.64440838471191,0 105.412090439221,19.64367125241078,0 105.4117286407198,19.64276385157233,0 105.4111846642696,19.64195447074747,0 105.4111855071794,19.64164119941873,0 105.4112860612617,19.64088116162521,0 105.4113882733287,19.63951926892712,0 105.4108472600305,19.63880100687673,0 105.4104500039727,19.63844025141288,0 105.4102556271148,19.6378872722518,0 105.409935374362,19.63736987794339,0 105.4096491954279,19.63694308964865,0 105.409180275347,19.63630495152266,0 105.4100523691296,19.63511951882181,0 105.4105668486674,19.63515882313124,0 105.4106805162119,19.63429429706497,0 105.4111074381852,19.63287045465312,0 105.4113340076213,19.63201657622339,0 105.4117033632491,19.63113753206536,0 105.4115032025931,19.63075348823287,0 105.4113769059546,19.62910401009529,0 105.4113597913884,19.62824707865715,0 105.4113750484762,19.62719914790309,0 105.4113234088534,19.62623780576007,0 105.4110760216387,19.62511025722603,0 105.4109610803186,19.62411075578618,0 105.4107054997609,19.62322765026345,0 105.4100943148645,19.62181862404501,0 105.4098946515486,19.62068996581757,0 105.4100905410981,19.62021563799119,0 105.4107303679021,19.61941117783951,0 105.4106168498304,19.61883627547098,0 105.4104737765927,19.6182433889333,0 105.4097436817102,19.61698087739194,0 105.4089198833429,19.61588704370396,0 105.4082483793433,19.6155291031412,0 105.4074475574749,19.61547936306055,0 105.4067524842797,19.61566557017476,0 105.4051080205944,19.61561662511889,0 105.4043249567053,19.61504615252402,0 105.402147842752,19.61392698767331,0 105.4001389805448,19.61335185556347,0 105.3994916257151,19.61304444258832,0 105.3979383962065,19.61241258262411,0 105.3976622538987,19.61231875265557,0 105.3965067819272,19.61219742471287,0 105.3951033184705,19.61225092980559,0 105.394788239759,19.61337705861548,0 105.3941404850648,19.61400466275608,0 105.3929219350998,19.61455233544581,0 105.3927165451346,19.61458056429175,0 105.3922536232857,19.61467348829204,0 105.3912877707227,19.61481970693875,0 105.3890980743534,19.61524323038936,0 105.386971620244,19.61470898070214,0 105.3858796580544,19.61430234803075,0 105.3843781840138,19.61402946887253,0 105.3841014494427,19.61312144686241,0 105.383102607797,19.61078670598226,0 105.3824226800878,19.6097795630535,0 105.3815548077691,19.60870874309445,0 105.3806399641316,19.60801594846453,0 105.3801288024605,19.60732087922464,0 105.379142689957,19.60598699749055,0 105.3783517936438,19.60497193374091,0 105.3782405138474,19.6040252839753,0 105.3779272060312,19.60331447105207,0 105.3768925008357,19.60175331466399,0 105.3759845362315,19.5998315516952,0 105.3760059774627,19.59881680456073,0 105.3756390556759,19.59822527485345,0 105.3752439862407,19.59702963646817,0 105.374997915062,19.59624570616887,0 105.3746169807883,19.5951361552093,0 105.3749243422315,19.59173463974603,0 105.3756015676986,19.58980888217317,0 105.3758147392841,19.58903648385849,0 105.3763886203158,19.5872209482508,0 105.3777919286822,19.58690464460887,0 105.3787223888079,19.58568000299792,0 105.3801707266809,19.58410294354583,0 105.3814330839823,19.5829491829856,0 105.3822883973893,19.58180822269179,0 105.383105168141,19.58069154211073,0 105.3837672371938,19.58006069004544,0 105.3852942522261,19.57874577901919,0 105.3862853863634,19.577942966347,0 105.3872675907082,19.57652038398487,0 105.388300359956,19.57473230239903,0 105.3892616261172,19.5724504265622,0 105.3895489095235,19.57186576035063,0 105.3902760938135,19.57081686749945,0 105.3907051867495,19.56667970436914,0 105.3908043580849,19.5654326257807,0 105.3907447269449,19.56427461740292,0 105.3904484351191,19.56227271814657,0 105.390366677339,19.56107939704933,0 105.389953483153,19.55961906436826,0 105.3902250256696,19.5589036338631,0 105.3910221292845,19.55766251175403,0 105.3920723685451,19.5563475862668,0 105.392588842905,19.55547201806955,0 105.3929898357241,19.55378339224352,0 105.3921375647577,19.55280086351123,0 105.392961890007,19.54724662483773,0 105.3929133528848,19.54590158315037,0 105.3956516421474,19.54142567137335,0 105.3961348916135,19.54032864754163,0 105.396507888145,19.53973560234552,0 105.3969416522268,19.53757019215055,0 105.3964754364329,19.53654325902795,0 105.3955789472833,19.53325361891766,0 105.3958570368713,19.53124341038515,0 105.3963103260607,19.53120235478291,0 105.3962976567163,19.53086324394042,0 105.3966472481637,19.5294570771836,0 105.3967604030683,19.52889231956273,0 105.3977021301038,19.52723585193836,0 105.3989505403885,19.52507906389753,0 105.3994561400186,19.52443582656481,0 105.3996775878826,19.52356134818548,0 105.4021265220913,19.52265914266541,0 105.4030497643599,19.52225805579398,0 105.4040862389909,19.52152190383977,0 105.4057472237898,19.51878966805927,0 105.4074465301573,19.51606563042106,0 105.4071686273887,19.51408092521429,0 105.407208839078,19.51312396435412,0 105.406059767358,19.51141306583781,0 105.4052719618708,19.50957079316049,0 105.4044413204827,19.50894646314996,0 105.4030110150921,19.50761670871561,0 105.4023282123618,19.50672665622817,0 105.4015336584474,19.50572454554019,0 105.4010481999867,19.50518015446927,0 105.401356194071,19.5048280171157,0 105.4027934136449,19.50328202797536,0 105.4035342049974,19.50256072198142,0 105.4038576277849,19.50213656138411,0 105.4045880207548,19.50129104889644,0 105.4057947046948,19.49794544657739,0 105.4063993664726,19.49766661410966,0 105.4069468547625,19.49730734967746,0 105.4075351899642,19.49702588365118,0 105.4082088434002,19.49665866562748,0 105.4094774253241,19.49612081467334,0 105.4111997613593,19.4953867635123,0 105.4122341231994,19.49539456209459,0 105.4127708513163,19.49493399927232,0 105.4126327254725,19.49399090799365,0 105.4118717374442,19.49343718505375,0 105.411650399932,19.49266575415533,0 105.4112608443997,19.49197422994902,0 105.4105562287632,19.4916226911075,0 105.4093864936211,19.49058289345995,0 105.4090243521373,19.48983394609287,0 105.4089417480668,19.48728699326443,0 105.4084282321267,19.48676463243219,0 105.4085118713147,19.48602124304409,0 105.4092615365023,19.48518290456519,0 105.4099532316661,19.4847183593508,0 105.4105152273267,19.48406593814466,0 105.4107924769258,19.48319937251801,0 105.4113008595042,19.48245985825607,0 105.4119401620328,19.48214008753629,0 105.413170867231,19.48089652836957,0 105.4140618846798,19.48100067167512,0 105.415093633868,19.4811012395238,0 105.4156326536946,19.48070333959512,0 105.4165567369474,19.47997431383303,0 105.4170321784825,19.47947566152689,0 105.4175609580732,19.4789928658604,0 105.4189888674417,19.47779882635274,0 105.4193234351346,19.47641939220202,0 105.4196226666765,19.4753628910507,0 105.419969219881,19.47464863052805,0 105.4201656893619,19.47437216590137,0 105.4231710803465,19.47386828729055,0 105.4239423191108,19.4736963542102,0 105.4241756603896,19.47366103920568,0 105.4260595231477,19.47330710703806,0 105.4273219598987,19.47305229382189,0 105.4289430815235,19.47277457851546,0 105.4295305747787,19.47264986079898,0 105.4298836813371,19.47257711743145,0 105.431990191971,19.47237089538586,0 105.4337223298046,19.47100882676743,0 105.4351407500873,19.47004825683376,0 105.4369597189462,19.46866632434126,0 105.43816535503,19.46766770187849,0 105.4403192873774,19.46596805986042,0 105.4408858491535,19.4655957427246,0 105.4417936548946,19.46387762644856,0 105.4425891066519,19.46246655783553,0 105.4437444139517,19.46052629424909,0 105.4454107560107,19.45750851000654,0 105.4468473495038,19.45510387406755,0 105.4486234903334,19.45218756930282,0 105.4494084261323,19.45082382311568,0 105.450072513115,19.45063301985517,0 105.4511785407308,19.44819970108711,0 105.4512622270161,19.44747317732679,0 105.4512386288956,19.44678252905767,0 105.450678850382,19.44604122437985,0 105.4496951469168,19.44405815687527,0 105.4494606037552,19.44281930813763,0 105.4500370492741,19.43910378321573,0 105.449418213357,19.43598824890406,0 105.4495679646152,19.43412720175093,0 105.4499582344073,19.43219684246757,0 105.449915725827,19.43129145296987,0 105.449001172439,19.42880499037327,0 105.4485854758345,19.42735861587702,0 105.4457150255985,19.42481632539684,0 105.4459972132477,19.41783073936705,0 105.4473783381857,19.41683306606586,0 105.4474461819768,19.41622799797412,0 105.4466388563882,19.41572226179725,0 105.4454394565132,19.41269318409345,0 105.4447376241749,19.41115282358539,0 105.4442600768745,19.40960396393169,0 105.4437104574277,19.40866158455582,0 105.4433042035716,19.40875164827681,0 105.4415812298692,19.40640982422838,0 105.4399299956261,19.40415734614335,0 105.4393106682722,19.401291998144,0 105.4388800222688,19.39914826723777,0 105.4386248496705,19.39762655205982,0 105.4385623711312,19.39544615815349,0 105.4388231921825,19.39388966162076,0 105.4399716938156,19.39109788464877,0 105.4397025215653,19.38973618678368,0 105.4389342027535,19.38839531736705,0 105.4379560332244,19.38665881597932,0 105.4362462148049,19.38576301028416,0 105.4362263321211,19.38568416969592,0 105.4361776790003,19.38562199315139,0 105.4342915904075,19.38539130625385,0 105.4320979587418,19.38384003707077,0 105.4298975512269,19.3822776479746,0 105.4298799950275,19.38221081438802,0 105.4298002774949,19.38195966555128,0 105.4281131741904,19.3799834242918,0 105.4274325695824,19.37915419396338,0 105.4264598213444,19.3776678982078,0 105.4252477632626,19.37579715867638,0 105.4238462664535,19.3729405437322,0 105.4235962228019,19.37246453185224,0 105.4227016255984,19.37092057177388,0 105.4232968831409,19.37026820319845,0 105.4231988612165,19.36999215732813,0 105.4229011188016,19.36964526438831,0 105.4239571296569,19.36883153571745,0 105.4222942361959,19.36576099927085,0 105.4211117136818,19.36259229119373,0 105.4186764292802,19.35798429309564,0 105.4168529380226,19.355184240802,0 105.4174932472161,19.35077643141939,0 105.4174693393864,19.34879669065686,0 105.4175464000603,19.34849631777475,0 105.4182321336854,19.34874602234319,0 105.4192262369048,19.34748876456487,0 105.4192133436605,19.34557083818905,0 105.4192761622568,19.34446757354059,0 105.4195010288393,19.34251902047953,0 105.4215388885764,19.342075992885,0 105.4220195775845,19.34152594764359,0 105.4221984957133,19.3401055599612,0 105.4217026567589,19.33858220054834,0 105.4218889362956,19.33758496229892,0 105.4235830505627,19.33674484703485,0 105.4245129066247,19.33608410893759,0 105.425956464243,19.33369006938742,0 105.4278511875748,19.33252562631531,0 105.4286287728649,19.3300367625114,0 105.4258588663371,19.32927166444932,0 105.4257576012121,19.32913509719618,0 105.4238691312857,19.32807192259193,0 105.422373273139,19.32775938512802,0 105.4218639829167,19.32377267450684,0 105.420365006212,19.32400203153855,0 105.4181297448098,19.32408010362606,0 105.4176127935606,19.32245257836503,0 105.4167716934469,19.32143042922894,0 105.4159643574457,19.32042927908193,0 105.4145668334506,19.3187093291815,0 105.4152231016149,19.31381855846618,0 105.4156656225645,19.31048901514959,0 105.4165134801551,19.30809861494474,0 105.41373766054,19.30443524284113,0 105.4136250672988,19.30434425311873,0 105.4135991708709,19.30414040865354,0 105.4131307790095,19.30322016022492,0 105.4125938538445,19.30217926280491,0 105.4123944465706,19.29996775659423,0 105.4121572962619,19.29732673470397,0 105.4112643247829,19.29467086032485,0 105.410776694238,19.29357370677316,0 105.4094198768131,19.29236642212065,0 105.4094053468083,19.29230110305972,0 105.4091416471483,19.29173664939892,0 105.40831611459,19.2899137490456,0 105.4069064475452,19.28882817230587,0 105.4060975677492,19.28821287948666,0 105.4060971444864,19.28813839797636,0 105.4060145201836,19.28793571795699,0 105.4052434986607,19.28728375317604,0 105.4036262191032,19.2858486147253,0 105.401711865239,19.28527474857416,0 105.3936365894526,19.27776163342565,0 105.3920700273622,19.27690558573655,0 105.3914604030494,19.27619445151086,0 105.3895173216045,19.27443826490886,0 105.387528349487,19.27228829574124,0 105.3869500763828,19.27116658954569,0 105.3867731022039,19.26516377728164,0 105.3866838062269,19.26392342395678,0 105.3865080335521,19.26012365570736,0 105.3860657161624,19.25680887756873,0 105.3866747700866,19.25558081287467,0 105.3870264848082,19.25436337884838,0 105.3874417306384,19.25297253765497,0 105.3884302361429,19.24955562184597,0 105.3889823206749,19.24857421422024,0 105.3892050616495,19.24757232404355,0 105.3898075814793,19.2458519313084,0 105.3899379675708,19.24556389016369,0 105.3907763051155,19.24271137053115,0 105.3926864720665,19.2386638022669,0 105.3952564698044,19.23476407315804,0 105.3948549528163,19.23171756716854,0 105.3929719655241,19.23012442290255,0 105.3917930082131,19.22933030018402,0 105.3894112127772,19.22711970687342,0 105.3883587359458,19.22641819375626,0 105.3875834550293,19.22490645730921,0 105.3860125861348,19.22283550592229,0 105.3839875532737,19.21949222292819,0 105.3834814637339,19.21841661346582,0 105.3824812722365,19.21762241506028,0 105.3767517163968,19.2132846373744,0 105.3762969967594,19.21264300437093,0 105.3764033468389,19.21242395964575,0 105.3748422318849,19.21063038686825,0 105.3735953591624,19.20891862583558,0 105.3729049372734,19.20821487761443,0 105.3722827206519,19.20728262985802,0 105.3718154071958,19.20685078596232,0 105.3712688207607,19.20601772134127,0 105.3710579840561,19.20429759025152,0 105.3707325397962,19.20331607509061,0 105.370860181512,19.20217579993128,0 105.3705019335044,19.19819472855382,0 105.3700973949896,19.19390562271357,0 105.3693182559193,19.1908871612074,0 105.3698425003925,19.19035917916908,0 105.3716801982432,19.18801831874892,0 105.3733072652131,19.18706127131997,0 105.376435013899,19.18310667487571,0 105.3757243846062,19.18262918766239,0 105.3759108125681,19.1820585461576,0 105.3759309772808,19.18001755297654,0 105.3755629404655,19.17977388237757,0 105.3758070816128,19.17831699058386,0 105.3755430546665,19.17704163080436,0 105.376155795177,19.1753248294568,0 105.3761189862825,19.17460681277772,0 105.376589851675,19.17283318035717,0 105.376476743668,19.17211003100489,0 105.3767475794898,19.17112365792834,0 105.3771987778085,19.16737844739281,0 105.3768059497034,19.16576999286366,0 105.3783388281405,19.16365348832921,0 105.37811026615,19.16337445335726,0 105.3787332692062,19.16190334652358,0 105.3789503269654,19.15950014365387,0 105.3790713766135,19.15859471175153,0 105.3791208984809,19.15759735958014,0 105.3790979990767,19.15582725363942,0 105.3792290732757,19.15315523095652,0 105.3792307815566,19.15274235226952,0 105.3791762739782,19.15191123190897,0 105.3775212619071,19.15007086327698,0 105.3758284825325,19.14812797455648,0 105.3745574677894,19.14679918010635,0 105.3745534142461,19.14679465106448,0 105.3730220793586,19.14575421176603,0 105.3715690406782,19.14419637498398,0 105.3696933715735,19.14289092913776,0 105.3679043259502,19.14191682418623,0 105.3665934313143,19.14125754271073,0 105.3648152015695,19.13919791547647,0 105.3636921293139,19.1358482760774,0 105.3616300930307,19.13567460276651,0 105.3592682354763,19.13554334015518,0 105.3588424054256,19.13526200623234,0 105.3572303553618,19.13457179251115,0 105.3556559573265,19.13272295075115,0 105.3550076794756,19.13075785763827,0 105.354341321187,19.12821490128014,0 105.3542741677465,19.12785652011125,0 105.3536857826339,19.12439175072786,0 105.3532301059361,19.12157661610596,0 105.3531275272041,19.12071338036979,0 105.3529710672332,19.11774532250941,0 105.3528964775794,19.11576505709438,0 105.3528342602842,19.11391930615051,0 105.3528971139947,19.11264503289276,0 105.3527498938029,19.11113133763462,0 105.3521421978069,19.10874077268981,0 105.3502144115132,19.10537089213687,0 105.3493683287604,19.10425296657481,0 105.3468451540825,19.10127197683595,0 105.3456760686199,19.10008753777266,0 105.3442807282873,19.0990609761051,0 105.3434057056314,19.09789519822833,0 105.3420189275521,19.09780437794065,0 105.3408661702569,19.09778415159537,0 105.3396517927215,19.09771817445471,0 105.3383999513481,19.0975686056457,0 105.3372616364161,19.09725581055737,0 105.336181520384,19.09692811037262,0 105.335047816823,19.09651782124677,0 105.3338421999206,19.09620842643459,0 105.3328181367968,19.09590016937357,0 105.3319098071776,19.09601997876697,0 105.3313235407077,19.09836398128242,0 105.3294454529282,19.09648876683728,0 105.3266478465201,19.09388028167435,0 105.3259447475729,19.09286069901892,0 105.3245017783204,19.09253449546087,0 105.3235617255496,19.09229148883933,0 105.3227181898282,19.0910238682214,0 105.3222863992826,19.09032036882634,0 105.3209341281255,19.08831674157993,0 105.3201929643521,19.08724014351647,0 105.3196999548862,19.08615838249022,0 105.3187783704231,19.08395685820348,0 105.3180007733019,19.08286480640363,0 105.3178295595399,19.08188034278986,0 105.3169247878131,19.07979709496555,0 105.3158709892263,19.07833646796431,0 105.3155261828376,19.07800667437951,0 105.3147602494279,19.07714844460739,0 105.3137374093705,19.07630851057881,0 105.3110958532662,19.0739586417706,0 105.3092656194361,19.07222653260879,0 105.3087862135508,19.07131363073847,0 105.3076893242494,19.0702636245591,0 105.306418267439,19.06953655311075,0 105.3040792782069,19.06800790908518,0 105.3022470439123,19.06887418814223,0 105.302060913088,19.06908556184188,0 105.3022742062565,19.06932782578082,0 105.3028751348974,19.06967550773255,0 105.3034821756449,19.07003893797076,0 105.3035260847345,19.07018947027039,0 105.3033703326891,19.07017873237493,0 
			</coordinates>
		</LineString>
	</Placemark>
</Document>
</kml>
