<?xml version="1.0" encoding="UTF-8"?>
<kml xmlns="http://www.opengis.net/kml/2.2">
<Document>
    <name>NA_QPG_QUE_PHONG_2-NA_QPG_KIM_SON.kml</name>
    <Placemark>
        <name>Tuyen_Cap_Chuan_Hoa</name>
        <LineString>
            <tessellate>1</tessellate>
            <coordinates>104.8994881461969,19.59137246639371,0
104.8996023411385,19.59147294350775,0
104.8996662444779,19.59157891103311,0
104.8995717695501,19.59184266405226,0
104.899411799435,19.59198744744765,0
104.8997033229472,19.59244888448655,0
104.8996918023613,19.59268770715028,0
104.8988732653762,19.59286627832613,0
104.8985847785425,19.59298496893098,0
104.8981959998697,19.59321970587498,0
104.897530058692,19.5927489361662,0
104.896721932927,19.59216455738083,0
104.8959446377877,19.59152077457998,0
104.8954414104111,19.59112223412912,0
104.8949558000359,19.5907146573039,0
104.8944803466031,19.59024527776876,0
104.8937570920114,19.58977027560448,0
104.8930681131265,19.58925249667632,0
104.8921518748958,19.5885381319971,0
104.8907730082117,19.58780925748099,0
104.8895017261037,19.58744085527878,0
104.8888483242138,19.58719002477021,0
104.8883133213454,19.58663615720859,0
104.8873063439135,19.58615241285763,0
104.8868308899842,19.58542837972735,0
104.8863981489789,19.58477630531825,0
104.886227814134,19.58442435265851,0
104.8862499114179,19.58424957056366,0
104.8862104922958,19.58395667457789,0
104.8862044967678,19.58379242990167,0
104.8863329382771,19.58355234444971,0</coordinates>
        </LineString>
    </Placemark>
</Document>
</kml>