<?xml version="1.0" encoding="UTF-8"?>
<kml xmlns="http://www.opengis.net/kml/2.2">
<Document>
    <name>NA_YTH_HONG_THANH-NA_YTH_HOP_THANH.kml</name>
    <Placemark>
        <name>Tuyen_Cap_Chuan_Hoa</name>
        <LineString>
            <tessellate>1</tessellate>
            <coordinates>105.51922,19.03614,0
105.51923,19.03585,0
105.51677,19.03516,0
105.51523,19.03464,0
105.51371,19.03379,0
105.51263,19.03301,0
105.51247,19.03269,0
105.51223,19.03174,0
105.51102,19.027,0
105.51096,19.02674,0
105.51078,19.02667,0
105.51059,19.02606,0
105.50956,19.02475,0
105.50869,19.02375,0
105.50843,19.02336,0
105.50788,19.02208,0
105.50745,19.02105,0
105.50728,19.02055,0
105.50685,19.01977,0
105.50658,19.01927,0
105.50641,19.01885,0
105.50636,19.01863,0
105.50633,19.0179,0
105.50642,19.0163,0
105.50675,19.01434,0
105.50698,19.01294,0
105.50698,19.01254,0
105.50691,19.01161,0
105.50679,19.00998,0
105.50685,19.00879,0
105.50551,19.00884,0
105.50547,19.00857,0</coordinates>
        </LineString>
    </Placemark>
</Document>
</kml>