<?xml version="1.0" encoding="UTF-8"?>
<kml xmlns="http://www.opengis.net/kml/2.2">
<Document>
    <name>NA_DCU_DIEN_THAP_2-NA_DCU_DIEN_THAP.kml</name>
    <Placemark>
        <name>Tuyen_Cap_Chuan_Hoa</name>
        <LineString>
            <tessellate>1</tessellate>
            <coordinates>105.5611317245257,19.0468489286649,0
105.5613147698876,19.0467367145514,0
105.5616360715972,19.04673535507984,0
105.5623980752826,19.04660996486409,0
105.5629732293711,19.04653619820797,0
105.5636148925236,19.04643077816061,0
105.5634645711595,19.04629858511436,0
105.5636957869286,19.04626268221874,0
105.5636079843868,19.04623506579233,0
105.56354197726,19.04608871609902,0
105.5635069002125,19.04607980934602,0
105.5634654184887,19.0459652552524,0
105.5635388865699,19.04578353712264,0
105.5635080024708,19.04550453613874,0
105.5633590852082,19.0450570613205,0
105.563158793322,19.04391554471224,0
105.5630198985811,19.04228260905185,0
105.5629778630414,19.04063447583124,0
105.5644734951081,19.04040613562543,0
105.5650071230839,19.04042772613372,0
105.5660428129683,19.04027599322592,0
105.5666682370606,19.04030357005801,0
105.5672136169996,19.0402876953723,0
105.5683620637867,19.04021721920881,0
105.5696450972554,19.04013024655629,0
105.5705983240747,19.04002064686462,0
105.5705970208633,19.03990969331495,0
105.5705241871932,19.03969030312188,0</coordinates>
        </LineString>
    </Placemark>
</Document>
</kml>