<?xml version="1.0" encoding="UTF-8"?>
<kml xmlns="http://www.opengis.net/kml/2.2">
<Document>
    <name>NA_YTH_VINH_THANH-NA_YTH_VINH_THANH_2.kml</name>
    <Placemark>
        <name>Tuyen_Cap_Chuan_Hoa</name>
        <LineString>
            <tessellate>1</tessellate>
            <coordinates>105.5034772668599,18.95776772871016,0
105.5030714049502,18.95785558171719,0
105.5030528023102,18.95746387781688,0
105.5035727586693,18.95730635570056,0
105.5035201339611,18.95699653728181,0
105.5053506188569,18.9544638992061,0
105.5087147193727,18.94729976692798,0
105.5093736369478,18.94614183046335,0
105.5099826078869,18.94491517117148,0
105.5119019998182,18.94079566721086,0
105.5124678912931,18.93969612163292,0
105.5127503492167,18.93936432364874,0
105.5127365420068,18.93901409485019,0
105.5128251045923,18.93884232562988,0
105.5121917718098,18.93871328478788,0
105.5104944432348,18.93853416438415,0
105.5108239080181,18.93699110571514,0
105.5078584669295,18.93691634455449,0
105.5078022730711,18.93620863018587,0</coordinates>
        </LineString>
    </Placemark>
</Document>
</kml>