<?xml version="1.0" encoding="UTF-8"?>
<kml xmlns="http://www.opengis.net/kml/2.2">
<Document>
    <name>NA_NLC_NGHI_THACH-NA_NLC_NGHI_AN.kml</name>
    <Placemark>
        <name>Tuyen_Cap_Chuan_Hoa</name>
        <LineString>
            <tessellate>1</tessellate>
            <coordinates>105.7066689505643,18.76430481938375,0
105.7065515068372,18.76433729106788,0
105.7063309118704,18.76457786678321,0
105.7061998396944,18.76441821523599,0
105.7059560312427,18.76425771227191,0
105.705697866268,18.76409873961955,0
105.705455718963,18.76396656374163,0
105.7052139849638,18.76381692323282,0
105.7048350999311,18.76360381456227,0
105.7044136868411,18.76333743888554,0
105.7041308181846,18.76316929147292,0
105.7036583731143,18.76288682586354,0
105.7033023413062,18.76267041640729,0
105.7026687046693,18.76228861862806,0
105.7023113398962,18.76208943642298,0
105.7020615473417,18.76199211051269,0
105.7023918698562,18.76135022301159,0
105.7026759343714,18.76077151083945,0
105.7025656994381,18.76065049169509,0
105.7023256530199,18.76054722247759,0
105.7021390034312,18.76043838623154,0
105.7018874711302,18.76029300834874,0
105.7016144426213,18.76017287229259,0
105.7011245930792,18.75991222777307,0
105.7007894246726,18.75972374233163,0
105.7005716652234,18.75959960194964,0
105.7003515491743,18.75946274876275,0
105.7000631806569,18.75921837256725,0
105.699617868038,18.75889282121533,0
105.6992990607891,18.7586668067683,0
105.6989969521013,18.7584335193116,0
105.6987554671966,18.75822182038557,0
105.6985128117311,18.75825645089353,0
105.6982832282235,18.75810109863656,0
105.6980711252586,18.75797855043956,0
105.6978312609199,18.75787927607305,0
105.6975466046438,18.75778711239128,0
105.6972333955247,18.75769490244352,0
105.6969511545794,18.75762668458068,0
105.6969447176746,18.75762049442246,0
105.6966787713332,18.75752765832878,0
105.6966653338092,18.7575276561997,0
105.6963643349629,18.75742341840484,0
105.6961798601244,18.75737997181051,0
105.6959514977807,18.75738146284148,0
105.6960378449967,18.75712361371394,0
105.6960970922663,18.75692724189841,0
105.6956524965658,18.75668621233962,0
105.695615627473,18.75622372347996,0
105.6955342043594,18.75562893269535,0
105.6954494949183,18.75505369240353,0
105.6953838258251,18.75449604396123,0
105.6953032861112,18.75381558694859,0
105.6952282944716,18.75327634969527,0
105.6951653809453,18.75270034850244,0
105.695116015667,18.75228909963292,0
105.6950617983997,18.7520446310371,0
105.6947526806591,18.75206885904491,0
105.6944082250772,18.75207843966916,0
105.6940039715558,18.75210586999542,0
105.6939991050213,18.75210586903484,0
105.6935269410592,18.75213405668753,0
105.6931091931162,18.75219075924771,0
105.6927938208224,18.75213387491621,0
105.6924159949102,18.75208510641146,0
105.6923045768001,18.75184225811147,0
105.6922728600387,18.75156328741568,0
105.6921626874271,18.75108362863489,0
105.692071497609,18.75064198408101,0
105.6919780350843,18.75024147033571,0
105.6918683103826,18.74998015271455,0
105.6916737732784,18.74964479380503,0
105.691592870916,18.74949921198288,0
105.6915067584671,18.74934202696726,0
105.6913667263834,18.7496120960165,0
105.6912417369864,18.74935031850749,0
105.6910778199442,18.74911159327113,0
105.6908004984152,18.74874971671801,0
105.690627134404,18.74851915524479,0
105.6904283001342,18.74825054031895,0
105.6902538700575,18.74802412316753,0
105.6900785112792,18.7477893356279,0
105.6899308553382,18.74757280164659,0
105.6897674767413,18.74734051430859,0
105.6896114202726,18.74711410168451,0
105.6894811322733,18.74693102905905,0
105.6892955837454,18.74669158894299,0
105.6891404855393,18.74649466815566,0
105.6889785235521,18.74629948469377,0
105.6888264107104,18.74609899453817,0
105.6887164464716,18.7459643162111,0
105.6885541819951,18.74576004121516,0
105.6884033779298,18.74556084874247,0
105.6882649369738,18.74537492908074,0
105.688153970068,18.74521614429787,0
105.6880179489354,18.74504359576837,0
105.6879114750116,18.74487824987862,0
105.6878012041817,18.74471982969997,0
105.6876464062615,18.74446868589749,0
105.6875184677043,18.74425662636863,0
105.6873619439494,18.74404373241335,0
105.6872600712389,18.74387873610163,0
105.6871121773773,18.74386549542412,0
105.6863882996001,18.74564422310831,0
105.6868251249626,18.74573606522459,0
105.6870498037964,18.74573110332027,0</coordinates>
        </LineString>
    </Placemark>
</Document>
</kml>