<?xml version="1.0" encoding="UTF-8"?>
<kml xmlns="http://www.opengis.net/kml/2.2">
<Document>
    <name>NA_YTH_THO_THANH-NA_DCU_DIEN_THAP.kml</name>
    <Placemark>
        <name>Tuyen_Cap_Chuan_Hoa</name>
        <LineString>
            <tessellate>1</tessellate>
            <coordinates>105.5472418122546,19.06382228127843,0
105.5470859495852,19.06377580097565,0
105.5453548386668,19.06180235479552,0
105.5457012327942,19.06168674153016,0
105.5457681128995,19.06119575885573,0
105.5468698700854,19.05993351068482,0
105.5474954825877,19.05899997815024,0
105.5487012822557,19.05756056535733,0
105.5497377785827,19.05752597409935,0
105.5505318410276,19.05739488331117,0
105.5514488161009,19.05780196776105,0
105.5562359145239,19.05821002104361,0
105.5579406738576,19.05753418925768,0
105.563933470542,19.06063075301969,0
105.5640670815459,19.06109279912282,0
105.5663272409968,19.06051471554109,0
105.5664514625112,19.06086059240464,0
105.5670405533062,19.06074879056962,0
105.5673017966286,19.06095444614522,0
105.5662844534951,19.05492572931661,0
105.5652577916833,19.049559840841,0
105.565396547087,19.04926730463243,0
105.565165016843,19.04626906201025,0
105.5633875571227,19.04653751341305,0
105.5610600160166,19.04679709660667,0</coordinates>
        </LineString>
    </Placemark>
</Document>
</kml>