<?xml version="1.0" encoding="UTF-8"?>
<kml xmlns="http://www.opengis.net/kml/2.2">
<Document>
    <name>NA_YTH_KHANH_THANH_2-NA_YTH_YEN_THANH_2.kml</name>
    <Placemark>
        <name>Tuyen_Cap_Chuan_Hoa</name>
        <LineString>
            <tessellate>1</tessellate>
            <coordinates>105.4386594383489,18.92069419753818,0
105.4385543448461,18.92058557324025,0
105.4420856867115,18.92068420673331,0
105.442056758762,18.91993341041338,0
105.4433752149658,18.91972493775145,0
105.4440581051073,18.91999093115104,0
105.443695331505,18.92254300067751,0
105.4435766880396,18.92285244650855,0
105.4439996608121,18.92278051171792,0
105.4448629018418,18.92282053308723,0
105.4449509058091,18.92307854007864,0
105.4449895480204,18.92338030860004,0
105.4449464518394,18.9238082499587,0
105.4449991923844,18.92464484129066,0
105.4450831492443,18.92554879628469,0
105.4454067630266,18.92553252278428,0
105.4462840399446,18.92622088154679,0
105.4472332487646,18.92697678810343,0
105.4479927032517,18.9275391787461,0
105.4489879408635,18.92859353788842,0
105.4522128331866,18.92872139874313,0
105.4531322493711,18.92878905288731,0
105.4539022627856,18.9292561041012,0
105.4550232870076,18.93024521421205,0
105.4563213050732,18.93072932889876,0
105.4562590553888,18.93097929440495,0
105.4563333211921,18.93116284602505,0
105.4587816497685,18.93198433056481,0
105.4583213100608,18.93298391950456,0
105.4583589652062,18.93319674047586,0
105.4585040811778,18.93325038174876,0
105.4583677262434,18.93361041630893,0
105.4583782810625,18.93401557821652,0
105.4582747912383,18.93426624947185,0
105.4587275248797,18.93451727214067,0</coordinates>
        </LineString>
    </Placemark>
</Document>
</kml>