<?xml version="1.0" encoding="UTF-8"?>
<kml xmlns="http://www.opengis.net/kml/2.2">
<Document>
    <name>NA_QLU_SON_HAI-NA_QLU_NGO.kml</name>
    <Placemark>
        <name>Tuyen_Cap_Chuan_Hoa</name>
        <LineString>
            <tessellate>1</tessellate>
            <coordinates>105.6784192569501,19.09732771716251,0
105.6785002102926,19.09744217493511,0
105.6786438395398,19.09738305815089,0
105.6787538052829,19.09730881988766,0
105.6788142952109,19.09728202605005,0
105.6789081643998,19.0975449157271,0
105.6790135794466,19.09782303006975,0
105.6791469129402,19.09811180560884,0
105.6792764393711,19.09841785503041,0
105.6793828658495,19.09862710490189,0
105.6795013201945,19.09895025917156,0
105.6795171225035,19.09904612244941,0
105.6800248940367,19.09975964955456,0
105.6805851409524,19.10051309906783,0
105.6809974871818,19.10108166762192,0
105.6812537672749,19.1013873337071,0
105.6806282265006,19.10187203630403,0
105.680393480839,19.10209738550801,0
105.6798571052669,19.10246232843728,0
105.6794131100295,19.10277278466672,0
105.6785090410925,19.10349160077817,0
105.6760616745363,19.10526508146941,0
105.6744742883391,19.10639871487118,0
105.672442051957,19.10791474988096,0
105.6713956886962,19.10868996454969,0
105.6707160428879,19.10917638227992,0
105.6708015612543,19.10953469939462,0</coordinates>
        </LineString>
    </Placemark>
</Document>
</kml>