<?xml version="1.0" encoding="UTF-8"?>
<kml xmlns="http://www.opengis.net/kml/2.2">
<Document>
    <name>NA_DCU_DIEN_KY-NA_DCU_DIEN_HONG.kml</name>
    <Placemark>
        <name>Tuyen_Cap_Chuan_Hoa</name>
        <LineString>
            <tessellate>1</tessellate>
            <coordinates>105.5861191335137,19.0322652193154,0
105.5861017296565,19.03232657616202,0
105.585816805278,19.03235014447847,0
105.5838899891435,19.03209251606249,0
105.5837514226214,19.03307264213568,0
105.5835901585655,19.03432155061135,0
105.5835051395324,19.03598630700789,0
105.5833316989622,19.03765676818385,0
105.5831572453635,19.03996549375381,0
105.5829234289453,19.04303944036091,0
105.5827684253751,19.04618261456881,0
105.5816246232622,19.04629486407159,0
105.5817478409373,19.04675458823934,0</coordinates>
        </LineString>
    </Placemark>
</Document>
</kml>