<?xml version="1.0" encoding="UTF-8"?>
<kml xmlns="http://www.opengis.net/kml/2.2">
<Document>
    <name>NA_DCU_DIEN_DOAI-NA_DCU_DIEN_LAM.kml</name>
    <Placemark>
        <name>Tuyen_Cap_Chuan_Hoa</name>
        <LineString>
            <tessellate>1</tessellate>
            <coordinates>105.5552319073947,19.13599885367214,0
105.555531693359,19.13599996819117,0
105.5557118451493,19.13679159044083,0
105.5564391757533,19.13658812744169,0
105.5562223041457,19.13609126341818,0
105.5561259032525,19.13573327095485,0
105.5560874996213,19.13525447389348,0
105.5551847860813,19.13513341123285,0
105.5550870857763,19.13504126448388,0
105.5545253443584,19.13498743947563,0
105.5546048628443,19.134217691808,0
105.5546808393014,19.1336045254005,0
105.5545390684696,19.13269394079745,0
105.5544465249953,19.13207324048989,0
105.5546574210022,19.13198841496649,0
105.5548723723047,19.13131820433078,0
105.5545725518436,19.13110387189065,0
105.5544021248552,19.13092871365986,0
105.5545773033794,19.1302057354516,0
105.555014697525,19.12841317439498,0
105.5550965932462,19.1280141863535,0
105.5554293293356,19.12674507812349,0
105.5557851580952,19.12529730445322,0
105.5558649937667,19.12431000378082,0
105.5561407930808,19.12335408300639,0
105.5563393015031,19.1225903066228,0
105.5563207693457,19.12175182123741,0
105.5562858759702,19.12080132787131,0
105.5563661468839,19.11971404728406,0
105.5568900645696,19.11766476060511,0
105.557551206468,19.11538488832417,0
105.5578693474247,19.11391850558591,0
105.5584126248074,19.11180942246774,0
105.5590459866214,19.11035790218036,0
105.5597863919885,19.10895195493308,0
105.5605378773176,19.10815784756694,0
105.5602522591073,19.10812790348743,0
105.5600577775207,19.10788634279287,0
105.5598760802953,19.10719168470831,0
105.5596664344427,19.1066342891762,0
105.5599101042772,19.10467682383442,0
105.5602820357482,19.10392238479494,0</coordinates>
        </LineString>
    </Placemark>
</Document>
</kml>