<?xml version="1.0" encoding="UTF-8"?>
<kml xmlns="http://www.opengis.net/kml/2.2">
<Document>
    <name>NA_DCU_TTVH_DIEN_CHAU-NA_DCU_DIEN_CHAU.kml</name>
    <Placemark>
        <name>Tuyen_Cap_Chuan_Hoa</name>
        <LineString>
            <tessellate>1</tessellate>
            <coordinates>105.6156789867222,18.97082390511828,0
105.6156474500964,18.97099295766859,0
105.615799441003,18.97098985038811,0
105.615820313839,18.97133925907033,0
105.6158524019649,18.97312279092634,0
105.6158563151699,18.97311976335422,0
105.6155736907472,18.97522129855024,0
105.6144476673895,18.97532395834239,0
105.6139234031562,18.9753290052607,0
105.6138870933376,18.97601590658224,0
105.61263437859,18.97601387016428,0
105.6109530281952,18.97606886632648,0
105.6109869931081,18.9760875079883,0
105.6110280416725,18.97732494900001,0
105.6109894847691,18.97732401394511,0
105.6087209973644,18.97761865780615,0
105.6066692678212,18.97764037950316,0
105.6066634359247,18.97764006349601,0
105.6045348172841,18.97756016971272,0
105.6024579760849,18.97755620227196,0
105.6009965062287,18.97743522505579,0
105.6005780803811,18.97722079286687,0
105.6005793335442,18.97696926247094,0
105.600360964348,18.9769742266007,0</coordinates>
        </LineString>
    </Placemark>
</Document>
</kml>