<?xml version="1.0" encoding="UTF-8"?>
<kml xmlns="http://www.opengis.net/kml/2.2">
<Document>
    <name>NA_NAD_NGHIA_LAC_2-NA_NAD_NGHIA_LAC.kml</name>
    <Placemark>
        <name>Tuyen_Cap_Chuan_Hoa</name>
        <LineString>
            <tessellate>1</tessellate>
            <coordinates>105.5131137041371,19.43965567859006,0
105.5131764857382,19.43952752299341,0
105.5145613931284,19.43927482849557,0
105.5149305712233,19.43920109671307,0
105.5148372076014,19.4387804543317,0
105.514428433362,19.43672973634074,0
105.5141528141214,19.43547169260911,0
105.5140112036427,19.43482592239159,0
105.5137976054808,19.43453821619535,0
105.5133839762635,19.43424084595501,0
105.5131492090229,19.43397105217134,0
105.5132446823025,19.43330363666394,0
105.5133190480713,19.4329079685445,0
105.5140556546958,19.43155958551269,0
105.5151739897713,19.43005713332427,0
105.5168622122307,19.4276700635704,0
105.5174153939379,19.42679145184984,0
105.5183674957236,19.4252464280329,0
105.5195869655464,19.42171431215603,0
105.5201981913636,19.42007627087465,0
105.520715800926,19.41822792940366,0
105.5181140578693,19.41449462953128,0
105.5196290160891,19.41162477966696,0
105.5206500852559,19.40954325515671,0
105.5223122332872,19.40827849570042,0
105.5223563940525,19.40853324487827,0</coordinates>
        </LineString>
    </Placemark>
</Document>
</kml>