<?xml version="1.0" encoding="UTF-8"?>
<kml xmlns="http://www.opengis.net/kml/2.2">
<Document>
    <name>NA_NDN_NAM_CAT_2-NA_HNN_HUNG_TAN.kml</name>
    <Placemark>
        <name>Tuyen_Cap_Chuan_Hoa</name>
        <LineString>
            <tessellate>1</tessellate>
            <coordinates>105.5959915301593,18.63761302252786,0
105.5958115540767,18.63770408903093,0
105.5963819166791,18.6380084994898,0
105.5965224284855,18.63828198903078,0
105.5971011159243,18.63791725741043,0
105.5974920287416,18.63766063309107,0
105.5977879540422,18.63708364169769,0
105.5979361875715,18.63714180406561,0
105.598398562588,18.63636651374108,0
105.5983243848438,18.63619680382456,0
105.5984602111837,18.63546502159456,0
105.5985932319262,18.63460235906274,0
105.6003601931172,18.63476508195298,0
105.6028064888459,18.63495805554433,0
105.6031016661378,18.63499717681223,0
105.6031328444894,18.63488663582863,0
105.6046232512511,18.63516650070817,0
105.6054166447007,18.6336069430536,0
105.6062614462464,18.63184752535538,0
105.6064200976908,18.63167956359131,0
105.606556082414,18.63156976871855,0
105.6067198457783,18.63157126641783,0
105.6096948071328,18.63234166185721,0
105.6109946877854,18.63263562424453,0
105.6122118567492,18.63290662100803,0
105.612257724538,18.63232457577244,0
105.6124103704658,18.63234023804274,0
105.6123848148041,18.6326635986261,0
105.6127120477988,18.63275503292828,0
105.6127505423523,18.63315113899653,0
105.6130926733364,18.63320006444022,0
105.6137390036768,18.6332370718904,0
105.6143437896203,18.63323834492309,0
105.6149463223698,18.63266428764167,0
105.6153976926149,18.63233073699737,0
105.6159557247752,18.63202927338313,0
105.61658341995,18.63169256522436,0
105.6181271375857,18.63320982669805,0
105.618785979081,18.63381002021659,0
105.6181715587322,18.63424801936219,0
105.6200585227,18.63679082052607,0
105.6213695851567,18.63590886143417,0
105.6218762318412,18.63656198082415,0
105.6222070152706,18.63662785250824,0
105.6230944654628,18.63778313895993,0
105.6238801751164,18.63878095123529,0
105.6241260753821,18.63913058237309,0
105.6244726082483,18.63913325164773,0</coordinates>
        </LineString>
    </Placemark>
</Document>
</kml>