<?xml version="1.0" encoding="UTF-8"?>
<kml xmlns="http://www.opengis.net/kml/2.2">
<Document>
    <name>NA_DLG_LAM_SON-NA_DLG_VINH_LOC_2.kml</name>
    <Placemark>
        <name>Tuyen_Cap_Chuan_Hoa</name>
        <LineString>
            <tessellate>1</tessellate>
            <coordinates>105.2638547874066,18.95144242795347,0
105.2634045847469,18.95138810825711,0
105.26288167769,18.95135760221206,0
105.2628347439838,18.95163490111964,0
105.2627212827995,18.95189711725713,0
105.2624346339491,18.95210447284725,0
105.2623687152428,18.95227769194769,0
105.2616124908817,18.95234675160109,0
105.2614333568461,18.95244621624238,0
105.2611939871788,18.95286605861457,0
105.2610871321332,18.95361689571473,0
105.2610174476649,18.95445509970551,0
105.2609814505123,18.9551124926951,0
105.2610678735918,18.95537096621609,0
105.2616123045001,18.95609577856689,0
105.2618627051459,18.95713046026326,0
105.262121222094,18.9584848758539,0
105.2623211511668,18.9593161049196,0
105.2627349206394,18.96049013088963,0
105.2627088650711,18.96080163916913,0
105.2625336569378,18.96093313755008,0
105.2631043684137,18.96104249377834,0
105.2637738247326,18.96118376955687,0
105.2647900447467,18.96135565027338,0
105.2653974472069,18.96139182197433,0
105.2657070838181,18.96135856608245,0
105.2662154882894,18.96319366321998,0
105.2675705367475,18.96526242216357,0
105.267916666192,18.96584926068235,0
105.267943209489,18.96646701729074,0
105.2686798294377,18.96724991861419,0
105.269200931838,18.96774217670094,0
105.2694434474703,18.96802968478329,0
105.2694494582408,18.96835795350531,0
105.2689937893904,18.96942315807923,0
105.2688804151776,18.96998926028492,0
105.2688474623625,18.97075353381774,0
105.2688648223734,18.97127760884804,0
105.2687720607134,18.97151821008087,0
105.268518421805,18.97157925083979,0
105.2676330413828,18.97287041709984,0
105.2672246596671,18.97420070264728,0
105.2671772913272,18.97576706961917,0
105.2673063276888,18.97599487257486,0
105.2672754611451,18.97702601000558,0
105.2671234895443,18.97913268418443,0
105.2669526418401,18.9796267057863,0
105.2659899203002,18.98045975660465,0
105.2658598477755,18.98026745019718,0
105.2654419655036,18.98074722744445,0
105.2651368663928,18.98130235767159,0
105.2653625710523,18.98138013908267,0
105.2647253496996,18.98256984684009,0
105.2642267740112,18.98354228867145,0
105.2640117794743,18.98361511977843,0
105.2638082665305,18.98439868180743,0
105.26384245953,18.984895410755,0
105.2628973898121,18.98483746426325,0
105.2617228728858,18.98494383330366,0
105.2606622845114,18.98495835759632,0
105.2605189191796,18.98649814737148,0
105.2606995308329,18.98650706974953,0
105.2610141822717,18.98629068098247,0</coordinates>
        </LineString>
    </Placemark>
</Document>
</kml>