<?xml version="1.0" encoding="UTF-8"?>
<kml xmlns="http://www.opengis.net/kml/2.2">
<Document>
    <name>NA_TKY_TAN_HUONG_2-NA_TKY_KY_SON.kml</name>
    <Placemark>
        <name>Tuyen_Cap_Chuan_Hoa</name>
        <LineString>
            <tessellate>1</tessellate>
            <coordinates>105.20499,19.02805,0
105.20573,19.02714,0
105.20673,19.02759,0
105.20709,19.02709,0
105.20803,19.02775,0
105.20842,19.02797,0
105.20854,19.02841,0
105.20855,19.02859,0
105.20962,19.02916,0
105.2099,19.02924,0
105.21077,19.02928,0
105.21127,19.02931,0
105.21211,19.02983,0
105.21242,19.03001,0
105.2133,19.03025,0
105.21462,19.03049,0
105.21536,19.03064,0
105.21586,19.03073,0
105.21713,19.03072,0
105.21798,19.0307,0
105.2183,19.03073,0
105.21854,19.03081,0
105.21907,19.03115,0
105.21968,19.03163,0
105.2203,19.03191,0
105.221,19.03222,0
105.22125,19.03228,0
105.22178,19.03226,0
105.22264,19.03206,0
105.22304,19.03205,0
105.22347,19.03214,0
105.22469,19.0326,0
105.22516,19.03281,0
105.2259,19.0337,0
105.22648,19.03433,0
105.22747,19.03506,0
105.23096,19.03762,0
105.23122,19.03783,0
105.23323,19.03787,0
105.23738,19.03777,0
105.23743,19.03815,0</coordinates>
        </LineString>
    </Placemark>
</Document>
</kml>