<?xml version="1.0" encoding="UTF-8"?>
<kml xmlns="http://www.opengis.net/kml/2.2">
<Document>
    <name>NA_NAD_NGHIA_LOC_3-NA_NAD_NGHIA_THUAN.kml</name>
    <Placemark>
        <name>Tuyen_Cap_Chuan_Hoa</name>
        <LineString>
            <tessellate>1</tessellate>
            <coordinates>105.4897746611954,19.27328778496175,0
105.4896652657444,19.27255224732268,0
105.4942649982054,19.27116636078223,0
105.4955220945605,19.27017376330747,0
105.4959892413149,19.26861518745607,0
105.4966907729527,19.26805970871315,0
105.4999762693063,19.26676161468879,0
105.4997489037795,19.26608062360924,0
105.4996230486166,19.26390600200822,0
105.4989789012152,19.26278458241822,0
105.498157659744,19.26183492511309,0
105.497941428945,19.26061399039734,0
105.4998048951504,19.25971866147302,0
105.5029312000102,19.25636221701881,0
105.5015849750468,19.25503052859336,0
105.4982345338784,19.25322098353467,0
105.4952927558004,19.25721879012373,0
105.4949864901263,19.25695543860383,0</coordinates>
        </LineString>
    </Placemark>
</Document>
</kml>