<?xml version="1.0" encoding="UTF-8"?>
<kml xmlns="http://www.opengis.net/kml/2.2">
<Document>
    <name>NA_NDN_NAM_THANH_3-NA_NDN_VAN_DIEN.kml</name>
    <Placemark>
        <name>Tuyen_Cap_Chuan_Hoa</name>
        <LineString>
            <tessellate>1</tessellate>
            <coordinates>105.4855678898003,18.72884011078936,0
105.4858488839746,18.72978727097874,0
105.4889716171511,18.72885678042261,0
105.4889368604118,18.72887511389374,0
105.4917527182132,18.72859043186665,0
105.4941248491304,18.72837210911569,0
105.4941185373416,18.72837553074374,0
105.4957525646579,18.72719325653255,0
105.4957877199051,18.72721110781683,0
105.496843083398,18.72799873545749,0
105.4985746218618,18.72893588958848,0
105.4995533777439,18.72929579025859,0
105.5008963436852,18.72999146215531,0
105.5016461441911,18.73042734303688,0
105.5016444043005,18.7304273934635,0
105.5016345113122,18.73040631551527,0
105.5016355088655,18.73040929314005,0
105.5015926254117,18.73003221329778,0
105.5029484926252,18.72974053433911,0
105.5033743231354,18.72961869788815,0
105.503377285708,18.72961835524946,0
105.5041786493368,18.7291399848862,0
105.504226344376,18.72922017786349,0
105.5042343134864,18.72923013816783,0
105.5041453467326,18.72890218139151,0
105.5043108454326,18.72886420410585,0</coordinates>
        </LineString>
    </Placemark>
</Document>
</kml>