<?xml version="1.0" encoding="UTF-8"?>
<kml xmlns="http://www.opengis.net/kml/2.2">
<Document>
    <name>NA_NLC_KCN_WHA_2-NA_NLC_NGHI_HUNG.kml</name>
    <Placemark>
        <name>Tuyen_Cap_Chuan_Hoa</name>
        <LineString>
            <tessellate>1</tessellate>
            <coordinates>105.6049922916558,18.83866897051768,0
105.6052611977543,18.83863197135675,0
105.6054714050464,18.83865742474315,0
105.6056575192662,18.83863740243866,0
105.6062660320145,18.83849735410178,0
105.6064754059345,18.83840333995834,0
105.6066059582135,18.83869105520192,0
105.6068897172077,18.83845806309871,0
105.6076196498721,18.83799697234661,0
105.607832702292,18.83788512181569,0
105.6076299183658,18.83778103163404,0
105.6076190853995,18.8377701360515,0
105.6073704289406,18.83742849271922,0
105.6073705513872,18.83741156682051,0
105.6071789742765,18.83723112724709,0
105.6065670879435,18.83634383891989,0
105.6060765757062,18.83576011119654,0
105.6055747550862,18.8350137646154,0
105.6057785823429,18.83512130221521,0
105.6061702942089,18.83522521293203,0
105.6068965281975,18.83531762669667,0
105.6075806498579,18.83523060031347,0
105.6080129262787,18.83512094039681,0
105.6086424170079,18.83499342836249,0
105.6091826502745,18.83507986492147,0
105.6093684594024,18.83514178089339,0
105.6095820829546,18.83506877093389,0
105.6098920893014,18.83498085610542,0
105.610022030375,18.8349360145936,0
105.6106349500939,18.83464111211,0
105.6108763304996,18.83452181339513,0
105.6107566287439,18.8342410562779,0
105.6106268864312,18.83392654096849,0
105.6105178366997,18.83356319007911,0
105.6104492856183,18.83328993476397,0
105.6104214827529,18.83318513186221,0
105.6103114538088,18.83326111448595,0
105.6101577767569,18.83333295257044,0
105.6100666381295,18.83341771281109,0
105.60987930506,18.83369396185588,0
105.609794957962,18.83375237132395,0
105.609474859693,18.83351725272089,0
105.6090070928849,18.83333733662399,0</coordinates>
        </LineString>
    </Placemark>
</Document>
</kml>