<?xml version="1.0" encoding="UTF-8"?>
<kml xmlns="http://www.opengis.net/kml/2.2">
<Document>
    <name>NA_TKY_TAN_KY-NA_TKY_TAN_KY_3.kml</name>
    <Placemark>
        <name>Tuyen_Cap_Chuan_Hoa</name>
        <LineString>
            <tessellate>1</tessellate>
            <coordinates>105.26613,19.05208,0
105.2662,19.0522,0
105.26868,19.05104,0
105.26877,19.05075,0
105.26804,19.04787,0
105.26802,19.04541,0
105.2676442739072,19.04520369769991,0
105.2675778536111,19.04479401921626,0
105.2678337973748,19.04436015410575,0
105.2682267198982,19.04462859223775,0
105.2690294280964,19.04500184594443,0
105.268443057777,19.0436476180082,0
105.26881,19.04353,0
105.26919,19.04242,0</coordinates>
        </LineString>
    </Placemark>
</Document>
</kml>