<?xml version="1.0" encoding="UTF-8"?>
<kml xmlns="http://www.opengis.net/kml/2.2">
<Document>
    <name>NA_THA_THAI_HOA_PT-NA_THA_DONG_TAM.kml</name>
    <Placemark>
        <name>Tuyen_Cap_Chuan_Hoa</name>
        <LineString>
            <tessellate>1</tessellate>
            <coordinates>105.42825,19.32039,0
105.42865,19.32055,0
105.42865,19.32218,0
105.43147,19.32226,0
105.43162,19.32346,0
105.4333,19.32317,0
105.4347,19.3226,0
105.4350158927944,19.3225622367826,0
105.4350892811651,19.32227651104859,0
105.43722,19.32256,0
105.44285,19.3192,0
105.44344,19.31999,0
105.44567,19.31826,0
105.4458831973229,19.31814624771276,0
105.4485265646564,19.31612050729139,0
105.4485150896592,19.31610381252384,0
105.4485323700748,19.31609492932202,0
105.4485150896592,19.31610381252384,0
105.44931,19.31704,0</coordinates>
        </LineString>
    </Placemark>
</Document>
</kml>