<?xml version="1.0" encoding="UTF-8"?>
<kml xmlns="http://www.opengis.net/kml/2.2">
<Document>
    <name>NA_NLC_NGHI_THIET_3-NA_NLC_NGHI_THIET.kml</name>
    <Placemark>
        <name>Tuyen_Cap_Chuan_Hoa</name>
        <LineString>
            <tessellate>1</tessellate>
            <coordinates>105.6970388479886,18.83839914427973,0
105.6975982970923,18.83826506768505,0
105.6981581878545,18.83811448414979,0
105.6985426082397,18.83820044205061,0
105.6991189024073,18.83840714724944,0
105.6999987404748,18.83870067788853,0
105.7001683944617,18.83916224502827,0
105.70017280639,18.8395546057335,0
105.6997928187872,18.83991637788552,0
105.6990414711423,18.84026622326696,0
105.6986956383466,18.84048108437652,0
105.69811232613,18.84041157036059,0
105.697264275816,18.84043544800562,0
105.6969435414743,18.84071043136831,0
105.6965180666271,18.84120990518556,0
105.6962444191886,18.8410589345485,0
105.6959231336509,18.84081280264502,0
105.6959177237892,18.84013821162987,0
105.6956276998359,18.83931608831874,0
105.6948987255064,18.83912981221223,0
105.6921202710871,18.83845254348574,0
105.6897467697011,18.83711264857098,0
105.6897783878551,18.83671072989459,0
105.6873255756634,18.83581117534198,0
105.6861343751515,18.8353317716355,0
105.6858297038632,18.83579934921094,0
105.6857326596098,18.83652746447446,0
105.6853352556072,18.83809042942628,0</coordinates>
        </LineString>
    </Placemark>
</Document>
</kml>