<?xml version="1.0" encoding="UTF-8"?>
<kml xmlns="http://www.opengis.net/kml/2.2">
<Document>
    <name>NA_QLU_QUYNH_THANH_3-NA_QLU_QUYNH_BANG.kml</name>
    <Placemark>
        <name>Tuyen_Cap_Chuan_Hoa</name>
        <LineString>
            <tessellate>1</tessellate>
            <coordinates>105.6974729205115,19.16736232292877,0
105.6974225939309,19.16773297921232,0
105.6974123486259,19.16788000145284,0
105.6990583098041,19.16785269111174,0
105.7007327073939,19.16782398517256,0
105.7014691639041,19.16780642456795,0
105.7016217923762,19.16911090562046,0
105.7017138513434,19.17032369388419,0
105.7019379885592,19.17234541494271,0
105.701956200986,19.17244957359071,0
105.7024375312196,19.17233342608868,0
105.7025126899042,19.17290245750948,0
105.7026507566227,19.17340169825755,0
105.7028988510449,19.17378319562511,0
105.7030018085674,19.17407542731123,0
105.7032306307755,19.17443779796704,0
105.7034564925632,19.17519068959914,0
105.7037297975099,19.17629194788548,0
105.7046004900104,19.17596222511177,0
105.7068027658557,19.17544757308454,0
105.7075751901361,19.17792249237707,0
105.7076610704805,19.17817990632264,0
105.7100812843101,19.17733854309902,0
105.7126712841372,19.1772400554896,0
105.7125970851388,19.17451692407625,0
105.7138532726896,19.17438663343329,0
105.7138920612005,19.174386450063,0
105.7142297133653,19.17380647080223,0
105.71460340484,19.17393645800928,0</coordinates>
        </LineString>
    </Placemark>
</Document>
</kml>