<?xml version="1.0" encoding="UTF-8"?>
<kml xmlns="http://www.opengis.net/kml/2.2">
<Document>
    <name>NA_NDN_KIM_LIEN-NA_NDN_LANG_SEN.kml</name>
    <Placemark>
        <name>Tuyen_Cap_Chuan_Hoa</name>
        <LineString>
            <tessellate>1</tessellate>
            <coordinates>105.5548253433456,18.67188440386411,0
105.5553886264787,18.67274612704855,0
105.5545261638968,18.67321962141584,0
105.5533450989519,18.67365101798625,0
105.553339799429,18.67398832509986,0
105.553460698292,18.67468893466815,0
105.5534269904579,18.67555620194163,0
105.5532898642518,18.67665799420021,0
105.5531603067637,18.67746200436762,0
105.5533609605064,18.6783613925516,0
105.5531937226086,18.67838632948535,0
105.5534402519216,18.67928613433448,0
105.5537043840364,18.68016306467224,0
105.5542030160542,18.68064065795663,0
105.5553370412278,18.68115197489816,0
105.5559302053802,18.68120038065396,0
105.5560719056439,18.68141219306744,0
105.5559605207506,18.68257591684939,0
105.555956684601,18.68353437109539,0
105.5563247811864,18.68430616210595,0
105.5569492280843,18.68557159831626,0
105.5568634594405,18.6858014180361,0
105.5568058263235,18.6865810590935,0
105.5568035794089,18.68768503715495,0
105.5567932065908,18.6889210132096,0
105.5567845223601,18.69096884874822,0
105.556670660294,18.69103083138879,0
105.5561775157037,18.69200215791741,0
105.5559677926723,18.69384600605889,0
105.5562437795047,18.69379053358315,0
105.5567755643404,18.69361367614454,0
105.5573949103367,18.69342919008915,0
105.557737760971,18.69318791805113,0</coordinates>
        </LineString>
    </Placemark>
</Document>
</kml>