<?xml version="1.0" encoding="UTF-8"?>
<kml xmlns="http://www.opengis.net/kml/2.2">
<Document>
    <name>NA_NDN_NAM_XUAN_2-NA_NDN_NAM_XUAN.kml</name>
    <Placemark>
        <name>Tuyen_Cap_Chuan_Hoa</name>
        <LineString>
            <tessellate>1</tessellate>
            <coordinates>105.5491270443055,18.73805250902838,0
105.549112688579,18.73786031349189,0
105.5490779628807,18.73773504915732,0
105.5482163008405,18.73799554911316,0
105.5483170092589,18.73763279031439,0
105.5484468463233,18.7371536869847,0
105.5485389778429,18.73672081861165,0
105.5486299668452,18.73630244360222,0
105.5484618115327,18.73611344378893,0
105.5481776206638,18.73576349149143,0
105.5479492110385,18.73550090513067,0
105.5477246482479,18.73521832033068,0
105.5473772868903,18.73483104416973,0
105.5471322451383,18.73451621273573,0
105.5468780095732,18.7342047953405,0
105.547192029204,18.73393291022888,0
105.5474468786244,18.73371187809803,0
105.5478831998398,18.73333897564389,0
105.5482906153887,18.73298770992182,0
105.5487645764672,18.73258393519172,0
105.5491176198894,18.73229871198383,0
105.5494411374691,18.73201134520701,0
105.5497456603629,18.73168338680198,0
105.5502777170722,18.73096773824087,0
105.5509793630142,18.73002308532799,0
105.5513662762592,18.72948623351139,0
105.5520258547653,18.72860931678128,0
105.5517219239878,18.72828346970701,0
105.5513950503844,18.72786982275174,0
105.5509487926749,18.72746994064654,0
105.550749273673,18.72729492596921,0
105.5504753285701,18.72698249293733,0
105.5505242543527,18.72620836810304,0
105.5505361902662,18.7258246598205,0
105.5506247570499,18.72539241157329,0
105.5508570978518,18.72510091161897,0
105.5511945779689,18.72504588383796,0
105.5514679403025,18.72492774377786,0
105.5517235424935,18.72482463929228,0
105.5522655684118,18.72475179504332,0
105.5526008951332,18.72468717956076,0
105.5528505758776,18.7246846958076,0
105.5528391683806,18.72518240877454,0
105.5527232810378,18.72571970330307,0</coordinates>
        </LineString>
    </Placemark>
</Document>
</kml>