<?xml version="1.0" encoding="UTF-8"?>
<kml xmlns="http://www.opengis.net/kml/2.2">
<Document>
    <name>NA_YTH_YEN_THANH_3-NA_YTH_HOA_THANH.kml</name>
    <Placemark>
        <name>Tuyen_Cap_Chuan_Hoa</name>
        <LineString>
            <tessellate>1</tessellate>
            <coordinates>105.4819417030928,19.00479189410422,0
105.4821731856542,19.0047045000282,0
105.4821535588117,19.0045391328252,0
105.482916294188,19.00428297161865,0
105.4833425296292,19.00426745020975,0
105.4847742380247,19.00460792636749,0
105.4849110369142,19.00310850218088,0
105.4851597436193,19.00130870863496,0
105.4852021538517,19.00004138035214,0
105.4869387866962,19.00021627414966,0
105.4910787790654,19.00071639928407,0
105.4935412682356,19.0008470154278,0
105.4954108972784,19.00097125330766,0
105.495772004894,19.00108973714387,0
105.4961667311084,19.00021105652153,0
105.4965913221375,18.99933201322141,0
105.4966785612029,18.99943138547081,0</coordinates>
        </LineString>
    </Placemark>
</Document>
</kml>