<?xml version="1.0" encoding="UTF-8"?>
<kml xmlns="http://www.opengis.net/kml/2.2">
<Document>
    <name>NA_TCG_CHE_TRUONG_THINH-NA_TCG_THANH_HUNG.kml</name>
    <Placemark>
        <name>Tuyen_Cap_Chuan_Hoa</name>
        <LineString>
            <tessellate>1</tessellate>
            <coordinates>105.2504689395689,18.76301952952329,0
105.2500615094529,18.76251215289402,0
105.2503727075161,18.76209173423486,0
105.2488509925742,18.76062594242979,0
105.2523245294958,18.75987336365683,0
105.2531810566228,18.75981952011672,0
105.2541913975056,18.75959867320431,0
105.2546977816841,18.75958230815046,0
105.255009424061,18.75958511464101,0
105.2554974998603,18.75975157058768,0
105.2558217794346,18.76006019520887,0
105.2563224743959,18.76050625514676,0
105.2566144021772,18.76085075285425,0
105.2568669129929,18.76144187047137,0
105.25700345961,18.76220660686103,0
105.2582842711119,18.76417421749224,0
105.2598257693985,18.7666553221164,0
105.2615295663791,18.76762701119618,0
105.2627727330825,18.76837345620561,0
105.2641223464677,18.76911696575259,0
105.2660027236556,18.76961027272593,0
105.2681444995935,18.77024660613959,0
105.2691043566598,18.77044274372194,0
105.2711874643987,18.77089425748609,0
105.2715310582476,18.77104774977349,0
105.272905698862,18.77061129163803,0
105.273276989353,18.77037089743695,0
105.2746424351821,18.77032565115366,0
105.2753601481,18.77035929432726,0
105.2761138360271,18.77024590381858,0
105.2768737721638,18.77007052426819,0
105.2782283462105,18.77005578466462,0
105.278389419058,18.77024315616589,0
105.27847853405,18.77033177281577,0
105.2786168331847,18.7704666708562,0
105.2787459930315,18.77059269754953,0
105.2788904783781,18.77072222698024,0
105.2790780307085,18.77091479763069,0
105.2793087227098,18.77114868640506,0
105.2794699158771,18.77131346773585,0
105.2796298038718,18.77149008781865,0
105.2799612881082,18.77140478332568,0
105.2800832068671,18.77137479363056,0
105.2802215225339,18.77134024355713,0
105.2803801279756,18.77128237952996,0
105.2805288952577,18.77124854000809,0
105.2807023112095,18.77120749147955,0
105.2811728069816,18.77110211236552,0
105.280780678758,18.7705718640765,0
105.2809254693557,18.7705337132707,0</coordinates>
        </LineString>
    </Placemark>
</Document>
</kml>