<?xml version="1.0" encoding="UTF-8"?>
<kml xmlns="http://www.opengis.net/kml/2.2">
<Document>
    <name>NA_DLG_DO_LUONG_2-NA_DLG_DO_LUONG.kml</name>
    <Placemark>
        <name>Tuyen_Cap_Chuan_Hoa</name>
        <LineString>
            <tessellate>1</tessellate>
            <coordinates>105.3081398006049,18.90017370157958,0
105.3081803514402,18.89993026403839,0
105.3080014305994,18.89977291191632,0
105.3078551928996,18.89970973854144,0
105.3067278921265,18.90222095020117,0
105.3072331329512,18.90369580533047,0
105.3068269819199,18.90403852140187,0
105.3069701883215,18.90469274012847,0
105.3049601601443,18.90497542728253,0
105.3046345234906,18.9073301714998,0
105.3036122684504,18.90888952233409,0
105.3025544117913,18.91099743216864,0
105.3024754152481,18.91117015112212,0
105.3023342261002,18.91092518936789,0</coordinates>
        </LineString>
    </Placemark>
</Document>
</kml>