<?xml version="1.0" encoding="UTF-8"?>
<kml xmlns="http://www.opengis.net/kml/2.2">
<Document>
    <name>NA_NDN_NAM_PHUC-NA_NDN_NAM_PHUC_2.kml</name>
    <Placemark>
        <name>Tuyen_Cap_Chuan_Hoa</name>
        <LineString>
            <tessellate>1</tessellate>
            <coordinates>105.553267572556,18.57497396007394,0
105.5531326595496,18.57465339380381,0
105.5535532789245,18.57435348258698,0
105.5532590797619,18.57407478484035,0
105.5533973352502,18.57394429451358,0
105.5536828626744,18.57401482341223,0
105.5539813342581,18.57424626173047,0
105.5542586324406,18.57442864843779,0
105.5544666144616,18.57447350731974,0
105.5553627577211,18.57427377497379,0
105.5557287704981,18.57414339252388,0
105.5613939143932,18.5754951373518,0
105.566437691432,18.57659199336544,0
105.5697355685702,18.57668307784196,0
105.5722115657055,18.57666355955454,0
105.5729678848357,18.57661442776303,0
105.5741069320214,18.57638853951485,0
105.5741360855395,18.57651579309308,0
105.575463595809,18.57635671400661,0
105.5765897310384,18.57617397790816,0
105.5778841724666,18.57587010316022,0
105.5787551801764,18.57570439592972,0
105.5793048945139,18.57595104916812,0
105.578883123434,18.57710896173045,0
105.5776524235763,18.58057519376703,0
105.5768068541568,18.5841277547769,0
105.5763908657044,18.58606518249567,0
105.5768156484663,18.58609667410914,0
105.5792955426442,18.58635383711012,0
105.5793122792437,18.58635387810229,0
105.5805383731065,18.58653845471846,0
105.5821528740092,18.58524163974085,0
105.5834594899293,18.58719802374998,0
105.5839064078579,18.58718566400586,0</coordinates>
        </LineString>
    </Placemark>
</Document>
</kml>