<?xml version="1.0" encoding="UTF-8"?>
<kml xmlns="http://www.opengis.net/kml/2.2">
<Document>
    <name>NA_HNN_HUNG_KHANH-NA_HNN_HUNG_CHAU.kml</name>
    <Placemark>
        <name>Tuyen_Cap_Chuan_Hoa</name>
        <LineString>
            <tessellate>1</tessellate>
            <coordinates>105.6554961594619,18.58660391259,0
105.6555747537274,18.58635809060683,0
105.6563881232848,18.58663634741476,0
105.6569617292528,18.58678115282121,0
105.6573800771703,18.58690734200635,0
105.6578031678482,18.58704450514943,0
105.6583079583599,18.58710465743577,0
105.6584304908019,18.58711284044626,0
105.6584238166561,18.58749216606111,0
105.6584649092953,18.58776846128903,0
105.6585709918749,18.5880857594883,0
105.6589469725198,18.58891825112422,0
105.6600762771161,18.59143100067842,0
105.6613325429855,18.59406296592775,0
105.6622263362795,18.5960412726448,0
105.6631989337208,18.59833057041896,0
105.6635208871977,18.59905239184406,0
105.6638748757794,18.59960578826474,0
105.6642418599772,18.59971262454275,0
105.6647057154907,18.60007545980895,0
105.6654785306459,18.60074161693458,0
105.6656596800049,18.60101472526515,0
105.6655260803573,18.60122133735864,0</coordinates>
        </LineString>
    </Placemark>
</Document>
</kml>