<?xml version="1.0" encoding="UTF-8"?>
<kml xmlns="http://www.opengis.net/kml/2.2">
<Document>
    <name>NA_QLU_NGOC_SON_2-NA_QLU_NGOC_SON.kml</name>
    <Placemark>
        <name>Tuyen_Cap_Chuan_Hoa</name>
        <LineString>
            <tessellate>1</tessellate>
            <coordinates>105.5870609258141,19.18844049938056,0
105.587348053266,19.18915696955331,0
105.5875482735225,19.18932418544556,0
105.5877936680744,19.18959065873227,0
105.5881287589013,19.18986129092089,0
105.5884407248687,19.19008334218532,0
105.5886584639379,19.19019976159372,0
105.5889615819101,19.19032499131869,0
105.5892130654671,19.19035046933299,0
105.5894120894719,19.18990453795708,0
105.5897427059577,19.18934187413522,0
105.5901179179728,19.1888119110936,0
105.5904043730687,19.18854284087397,0
105.5907892448108,19.18813838064873,0
105.5912192566744,19.18761988993906,0
105.5915688665452,19.18710533856764,0
105.5918316174517,19.18666083510036,0
105.5921199462621,19.18619720825694,0
105.592314679086,19.18582639009133,0
105.5924036551511,19.18549680650399,0
105.5924501755545,19.18521855700954,0
105.5924514512976,19.18479765073861,0
105.5924052757972,19.18447725440133,0
105.5923528762783,19.18410866437708,0
105.5923397353489,19.18371415447916,0
105.5923951095314,19.18353119877632,0
105.5925912496168,19.18330171734432,0
105.5927723810341,19.18303674036342,0
105.5930011251161,19.18271708370358,0
105.5931121123179,19.18248018907299,0
105.5931870370204,19.18213906921593,0
105.5932772009049,19.1816731740776,0
105.5918739032348,19.18140234716963,0
105.5910000693786,19.18123122503341,0
105.5904165248435,19.18116047096582,0
105.5895970643272,19.18070089379788,0
105.5890629445332,19.18042607651064,0
105.5882246011753,19.18044272752751,0
105.5865972666332,19.18049501848421,0
105.5850371695525,19.18045008851107,0
105.5836384342106,19.18040440933388,0
105.5826213092329,19.18056470599857,0
105.581648589193,19.18069492195431,0
105.5803500690493,19.1809397696288,0
105.580274976897,19.18097952497137,0
105.5789429422519,19.18080995585452,0
105.5784221037353,19.18078403247398,0
105.5770213877538,19.18074453215326,0
105.5729680191782,19.18084255232549,0
105.5708306293251,19.18085268645002,0
105.5704227371267,19.1808480432621,0
105.5701443877345,19.18085763721674,0
105.5685175439384,19.18086175607836,0
105.5683862422753,19.18088175939442,0
105.5682819943964,19.18000639916619,0
105.5682380825695,19.17967561904535,0
105.5675697693153,19.17430214841666,0
105.5676165971576,19.1732662765693,0
105.5676608903508,19.17260220391741,0
105.567686745052,19.17202360914981,0
105.5676852640161,19.17162987990248,0
105.5677953088893,19.17122531335407,0
105.5678721107546,19.17078678664351,0
105.5679701969509,19.17027738963012,0
105.5681771575129,19.16970842346515,0
105.5683853222133,19.16930310255048,0
105.5687778902378,19.16949930852604,0
105.5692295831472,19.16969209800863,0
105.5697879906846,19.16998219415154,0
105.5702556930418,19.17027591255088,0
105.570499881982,19.17043658125606,0
105.571100780724,19.17077787146545,0
105.5711928297812,19.17082363922603,0
105.5709744204815,19.17123056945726,0</coordinates>
        </LineString>
    </Placemark>
</Document>
</kml>