<?xml version="1.0" encoding="UTF-8"?>
<kml xmlns="http://www.opengis.net/kml/2.2">
<Document>
    <name>NA_HMA_QUYNH_LOC_2-NA_HMA_QUYNH_LOC.kml</name>
    <Placemark>
        <name>Tuyen_Cap_Chuan_Hoa</name>
        <LineString>
            <tessellate>1</tessellate>
            <coordinates>105.7499189667553,19.25517354807449,0
105.7499503072432,19.25504806567945,0
105.7499494685154,19.25506351076067,0
105.7495995255669,19.25409360049321,0
105.749595790973,19.25409218913804,0
105.7485522076791,19.25424346091668,0
105.7485603084578,19.25424127831743,0
105.7485753482989,19.25434167537374,0
105.7480039025234,19.25453723636674,0
105.7474211411662,19.25510336551253,0
105.7474325142581,19.25510232078567,0
105.7460964731659,19.25684738649289,0
105.744793638195,19.25856891780729,0
105.7447893939173,19.25856727938494,0
105.7435929983808,19.26032246972236,0
105.7435848589341,19.26033535637137,0
105.7424678186343,19.26035348610683,0
105.7424718599713,19.26035080039471,0
105.7423084144733,19.26024734303044,0
105.7408403579452,19.26027568801353,0
105.7406782303261,19.26038422657679,0
105.7406843900322,19.26038082495262,0
105.7405710258877,19.26032551288615,0
105.7399276757978,19.26058211763809,0
105.7399285890633,19.26058136949158,0
105.7398459400396,19.26088398214071,0
105.7400451350537,19.2610530421545,0
105.7404495428784,19.26114849289664,0
105.740604479844,19.26131538742467,0
105.7405892653341,19.26145017616627,0</coordinates>
        </LineString>
    </Placemark>
</Document>
</kml>