<?xml version="1.0" encoding="UTF-8"?>
<kml xmlns="http://www.opengis.net/kml/2.2">
<Document>
    <name>NA_NLC_NGHI_LONG-NA_NLC_NGHI_QUANG.kml</name>
    <Placemark>
        <name>Tuyen_Cap_Chuan_Hoa</name>
        <LineString>
            <tessellate>1</tessellate>
            <coordinates>105.6639689781138,18.82265215336167,0
105.6639607688197,18.82251173511678,0
105.6638576252864,18.82230019526712,0
105.6642430085557,18.82216990239191,0
105.6644966068255,18.82209912803884,0
105.6646188339426,18.82222120538642,0
105.6649983115323,18.82216053789401,0
105.665278956233,18.82208427216771,0
105.6653699126345,18.82232404840517,0
105.6654370944331,18.82248436824809,0
105.6654782645663,18.82264321376867,0
105.6655838801162,18.82284533341259,0
105.6656979506651,18.82311669253454,0
105.6657980709485,18.82339122327889,0
105.6659725532303,18.82380507392661,0
105.6661407640426,18.8241726159915,0
105.6662402812156,18.82460327529923,0
105.6658839795056,18.8247994552123,0
105.6663872471389,18.82457804535299,0
105.6669419911778,18.82427597311366,0
105.6674626952897,18.82402216622491,0
105.668038531801,18.82372470938861,0
105.6686898276318,18.82337240639892,0
105.6693199197051,18.82306973483524,0
105.6694070977302,18.82337629050086,0
105.6699494040651,18.82308230908019,0
105.6707080119981,18.82266829744726,0
105.671269736787,18.82245918761366,0
105.671803238416,18.82326162673984,0
105.6722254247255,18.82403034909849,0
105.6725986583012,18.82469803543465,0
105.673137958628,18.82577979892642,0
105.6722447439447,18.82627087798672,0
105.6723845241295,18.82654732815429,0
105.6724603428177,18.82668769110921,0
105.6726126911067,18.82690556809236,0
105.673473401996,18.82647675154301,0
105.6743550469625,18.82601632730341,0
105.6749547466529,18.82574191622063,0
105.6753737468025,18.82556461435109,0
105.6756734586191,18.82555564961262,0
105.6760025092646,18.8255463361756,0
105.676408060651,18.82552820352254,0
105.6767134023005,18.82552255809617,0
105.6769672754056,18.82551450962445,0
105.6772853876202,18.82552112936173,0
105.6774876231885,18.82553942595963,0
105.6774659013463,18.82586814142184,0
105.6774178538201,18.82643318725773,0
105.6773877571341,18.82686457691779,0
105.6778780257567,18.8268360573248,0
105.6783877642129,18.82683899038028,0
105.6789340135813,18.82683609724081,0
105.6796131460674,18.82685168948739,0
105.6803704247413,18.82687062889334,0
105.6809381388435,18.8268737711296,0
105.6813444410112,18.82687334811891,0
105.6819245880082,18.82679556853745,0
105.6820759517796,18.82665988281218,0
105.6822628199053,18.82660500383674,0
105.6824597324624,18.8265429146995,0
105.68269628465,18.82648190512948,0
105.6829804861102,18.82639552682599,0
105.6832198214367,18.82633863074166,0
105.6833455394966,18.82631193225366,0
105.6836137618692,18.82643497676423,0
105.6839372004695,18.82676555550172,0
105.6844192505116,18.82690800299413,0
105.6849113006276,18.82695183060082,0
105.68531534747,18.82695318254669,0
105.6857110105257,18.82680633598823,0
105.6860417135451,18.82673384607512,0
105.6862932211261,18.82670855888884,0
105.6863569406435,18.82652222377673,0
105.6863125966521,18.82633535975747,0
105.6862058671156,18.82601743836209,0
105.6861338914151,18.82576855986073,0
105.6860540308363,18.82544809533211,0
105.6859152662747,18.82514103435528,0
105.686032542897,18.82500550975364,0
105.6861193686156,18.82479090575357,0
105.6861776004979,18.82461535075695,0
105.686222934963,18.82452167438879,0
105.6864089027641,18.8245855827207,0
105.6865936415841,18.82465603197371,0
105.6865690634773,18.82495065970379,0
105.6866101983577,18.82502148090838,0</coordinates>
        </LineString>
    </Placemark>
</Document>
</kml>