<?xml version="1.0" encoding="UTF-8"?>
<kml xmlns="http://www.opengis.net/kml/2.2">
<Document>
    <name>NA_YTH_SON_THANH-NA_YTH_VIEN_THANH.kml</name>
    <Placemark>
        <name>Tuyen_Cap_Chuan_Hoa</name>
        <LineString>
            <tessellate>1</tessellate>
            <coordinates>105.4835480947846,18.90599502530166,0
105.4841259254529,18.90616751326543,0
105.4836532374225,18.90715343302483,0
105.4830065409455,18.90792144805959,0
105.482824114875,18.90800727157231,0
105.4825662543288,18.90813429753007,0
105.4828308406111,18.90853959348589,0
105.4831496593483,18.90992908949747,0
105.4832073915539,18.91055882838855,0
105.4832141336302,18.91081159487095,0
105.4830844861733,18.91947733833689,0
105.4824555657263,18.92023827003648,0
105.4796487438635,18.92099412506643,0
105.4778576480622,18.92147233888485,0
105.4771703477378,18.92164061646721,0
105.4750969716576,18.9222100449585,0
105.4760605638302,18.92455760630819,0
105.4762537295609,18.92476773805625,0
105.4763315244632,18.92526743524898,0
105.4763226173944,18.92577797613469,0
105.4763291409457,18.92620028493985,0
105.4763038781946,18.9273182860897,0
105.4844427087229,18.93028457403318,0
105.48762091503,18.93112889745012,0
105.4884328873056,18.93114580849605,0
105.4895517783863,18.93090971109051,0
105.4897190899586,18.93033824226519,0
105.4891983518469,18.93023494119442,0
105.4890911245446,18.93036006804003,0</coordinates>
        </LineString>
    </Placemark>
</Document>
</kml>