<?xml version="1.0" encoding="UTF-8"?>
<kml xmlns="http://www.opengis.net/kml/2.2">
<Document>
    <name>NA_NLC_KCN_WHA_PSDT-NA_NLC_CN_NAM_CAM_2.kml</name>
    <Placemark>
        <name>Tuyen_Cap_Chuan_Hoa</name>
        <LineString>
            <tessellate>1</tessellate>
            <coordinates>105.6512884289732,18.83627284152485,0
105.6517221056563,18.83624976249796,0
105.6516422816631,18.83837102296876,0
105.6505074303059,18.83847557185881,0
105.6504313917016,18.8387338595902,0
105.6497019823026,18.83878166392318,0
105.6482566646164,18.83809269346121,0
105.6471555522812,18.83750717082288,0
105.6448680027216,18.83651717054496,0
105.6433658924129,18.8336926519616,0
105.6438704692301,18.82532871562547,0
105.6472672741395,18.82522902060555,0
105.650115330581,18.82483916255798,0
105.6501860849575,18.82054323446181,0
105.6493179133806,18.81926299246938,0
105.6505939838941,18.81841637952871,0
105.65082932341,18.81892579882295,0
105.6499280482022,18.81937061787577,0
105.6500865706548,18.81960674431869,0</coordinates>
        </LineString>
    </Placemark>
</Document>
</kml>