<?xml version="1.0" encoding="UTF-8"?>
<kml xmlns="http://www.opengis.net/kml/2.2">
<Document>
    <name>NA_QLU_QUYNH_TAN_2-NA_HMA_QUYNH_XUAN.kml</name>
    <Placemark>
        <name>Tuyen_Cap_Chuan_Hoa</name>
        <LineString>
            <tessellate>1</tessellate>
            <coordinates>105.6883354326039,19.21297119934586,0
105.6878319007862,19.21324753384528,0
105.6876336053592,19.21341727108655,0
105.6874909682664,19.21355492872925,0
105.6871704881979,19.21367588428371,0
105.6868612766669,19.21382253793832,0
105.6865880374794,19.21397790812189,0
105.6864534756524,19.21404691282488,0
105.6859353937465,19.21285667778094,0
105.6857029071388,19.21285893211401,0
105.6855751567171,19.21280563465432,0
105.6851500122138,19.21300434336485,0
105.6849218493406,19.21333608853335,0
105.6845593717453,19.21375166541161,0
105.6839957905689,19.21409359678847,0
105.6835399627561,19.214323256627,0
105.6823526375049,19.21477079787424,0
105.681446532744,19.21504948685535,0
105.6808299382333,19.21528189275794,0
105.6801985274417,19.21524266770133,0
105.6784752907574,19.21492340047396,0
105.6781705902182,19.21478514029968,0
105.6777797580352,19.21476396121631,0
105.6776684379201,19.21502735680389,0
105.6766450801942,19.21550950489078,0
105.6757127275597,19.21591631434828,0
105.6756816904686,19.21591606582643,0
105.6748017023445,19.21629680535726,0
105.6740692451594,19.21652228336409,0
105.6733969173385,19.21685490836051,0
105.6712832054104,19.21899123560223,0
105.6690540272757,19.22142619440352,0
105.6686303737347,19.22166384672929,0
105.6681018325788,19.22175652219309,0
105.6670018679212,19.22209188966966,0
105.6660740696112,19.22234798312914,0
105.66551557588,19.22256042522003,0
105.6651652115784,19.22247271099588,0
105.664680981659,19.22157923649403,0</coordinates>
        </LineString>
    </Placemark>
</Document>
</kml>