<?xml version="1.0" encoding="UTF-8"?>
<kml xmlns="http://www.opengis.net/kml/2.2">
<Document>
    <name>NA_QLU_QUYNH_YEN-NA_QLU_KHANH_THANH.kml</name>
    <Placemark>
        <name>Tuyen_Cap_Chuan_Hoa</name>
        <LineString>
            <tessellate>1</tessellate>
            <coordinates>105.6753543225318,19.13392625043086,0
105.6754268443169,19.13387796576438,0
105.6750376601451,19.13315460465113,0
105.6742328809179,19.13358820458022,0
105.6736801651198,19.13275031040799,0
105.6731183429941,19.1319921766117,0
105.6745846357214,19.13161446200576,0
105.6744035956192,19.13065735647796,0
105.6742723785286,19.12989921976827,0
105.6740606487144,19.12851602765141,0
105.6738476887074,19.127542966635,0
105.6737362373107,19.12666746925338,0
105.6760625527589,19.12627336417718,0
105.6805379101861,19.12502990195044,0
105.6816848754652,19.12473346562525,0
105.6825433286443,19.12478534341556,0
105.6830619278022,19.12477774151912,0
105.6834971124156,19.1247359698865,0
105.683915994425,19.12483527952133,0
105.684481905477,19.12500178104266,0
105.6849404294482,19.12514235425435,0
105.6858991080851,19.12498808515582,0
105.6868286309979,19.12485967088354,0
105.6878992527551,19.12462034346363,0
105.6886410437046,19.12442877315029,0
105.6894528011927,19.12420751462564,0
105.6902838685344,19.12372369823882,0
105.6907759962017,19.12347917847297,0
105.6911401827497,19.12326928652343,0
105.6915694699304,19.123000801433,0
105.692030708269,19.12261997582033,0
105.6923039017576,19.1224097606775,0
105.6922588897575,19.12216892373891,0
105.6930106625869,19.12192464443316,0
105.6933444686966,19.12180892867264,0
105.6936945887093,19.12161765192466,0
105.6938821884407,19.12158890560938,0
105.6941194243485,19.12151010994836,0
105.6940732156694,19.12131004889747,0
105.6940242277122,19.12106561051631,0
105.6939654682462,19.12086196553938,0
105.6938983590062,19.12072108870356,0
105.6938647122969,19.12060948412562,0
105.6940536597571,19.12060218845124,0</coordinates>
        </LineString>
    </Placemark>
</Document>
</kml>