<?xml version="1.0" encoding="UTF-8"?>
<kml xmlns="http://www.opengis.net/kml/2.2">
<Document>
    <name>NA_DCU_DIEN_DOAI_3-NA_DCU_DIEN_DOAI_2.kml</name>
    <Placemark>
        <name>Tuyen_Cap_Chuan_Hoa</name>
        <LineString>
            <tessellate>1</tessellate>
            <coordinates>105.5781949324013,19.10471724753602,0
105.5783335150809,19.10448855759542,0
105.5781199930032,19.10398996507787,0
105.578736293242,19.10384921472079,0
105.5793724923446,19.10358400420379,0
105.579678758044,19.10330671589561,0
105.5803213252119,19.10310893178207,0
105.583004724683,19.10730284158997,0
105.5868708614075,19.11230498026404,0
105.5889419822763,19.11514214494328,0
105.5900917485459,19.11637111618609,0
105.5894779434655,19.11681910678701,0
105.5893627060764,19.11667541998344,0</coordinates>
        </LineString>
    </Placemark>
</Document>
</kml>