<?xml version="1.0" encoding="UTF-8"?>
<kml xmlns="http://www.opengis.net/kml/2.2">
<Document>
    <name>NA_DCU_DIEN_BINH_2-NA_DCU_DIEN_NGOC.kml</name>
    <Placemark>
        <name>Tuyen_Cap_Chuan_Hoa</name>
        <LineString>
            <tessellate>1</tessellate>
            <coordinates>105.6037821223995,18.99211405691931,0
105.6032923074928,18.99215842814014,0
105.6028017024024,18.99219521545541,0
105.6027997147707,18.99172921678125,0
105.6023916797048,18.99150220635137,0
105.6007287571278,18.99162262662968,0
105.6007373580345,18.99239679771543,0
105.6004986077156,18.9956169059703,0
105.6001631953077,18.99743246701014,0
105.5995379900401,18.99862370880243,0
105.5991731261313,18.99927194174798,0
105.6003683436104,18.99971309976862,0
105.6013042747212,18.99992107087663,0
105.6014410666066,19.00041749029029,0</coordinates>
        </LineString>
    </Placemark>
</Document>
</kml>