<?xml version="1.0" encoding="UTF-8"?>
<kml xmlns="http://www.opengis.net/kml/2.2">
<Document>
    <name>NA_NLC_NGHI_HUNG_2-NA_NLC_NGHI_PHUONG.kml</name>
    <Placemark>
        <name>Tuyen_Cap_Chuan_Hoa</name>
        <LineString>
            <tessellate>1</tessellate>
            <coordinates>105.5887631160708,18.82898912650921,0
105.5888279837095,18.82878917584479,0
105.5892646491095,18.82879785042893,0
105.589857169925,18.82880559555092,0
105.5898525263137,18.82880551436367,0
105.5905236197345,18.82883118060654,0
105.5908789714997,18.82865623343583,0
105.5914817743291,18.82863856400706,0
105.5920551042956,18.8286104470609,0
105.5926477064107,18.82858297008465,0
105.5934397282569,18.82853423050349,0
105.5942046658722,18.82851694829061,0
105.5946314426319,18.82848281482307,0
105.5951095594935,18.82823060415749,0
105.5955701369037,18.82825308552633,0
105.5961157209678,18.82829009577291,0
105.5967504116725,18.82832197169041,0
105.5968942732637,18.82875027720877,0
105.5969682026521,18.82816392690973,0
105.5969412342455,18.82740420493251,0
105.5969232653439,18.82693071439998,0
105.5968909743032,18.82631476905278,0
105.5968408019998,18.82571987114769,0
105.5968063699374,18.82533054480093,0
105.5967172477387,18.82468400054292,0
105.5966602287801,18.82405387873553,0
105.5965497043916,18.82356681459668,0
105.5964707230825,18.82307733946688,0
105.5964096335512,18.82268727134261,0
105.5963433740168,18.82235149584562,0
105.5962681178857,18.8219862914932,0
105.59616933597,18.82130850386384,0
105.5958006254588,18.82150511315246,0
105.5952848275528,18.8215663934442,0
105.5947953859086,18.82160449778584,0
105.5944803651686,18.8216817382943,0
105.5941446009152,18.82172888343976,0
105.5938278313499,18.82177194013149,0
105.5935170110328,18.82182322397456,0
105.5931788455714,18.82184330641944,0
105.5928044376262,18.82189841248963,0
105.5925375336639,18.82193950542527,0
105.592123966088,18.8219584964021,0
105.5919754367107,18.82193146696781,0
105.5917659301348,18.82192179819504,0
105.5914272274689,18.82188024151072,0
105.5911090085974,18.821849975954,0
105.5908265866228,18.82180485169625,0
105.5908226887833,18.82180482104148,0
105.5905535380897,18.82177658602203,0
105.5902947998145,18.82171971486867,0
105.5901267889084,18.82168642514744,0
105.5898874346621,18.82158587544549,0
105.5896929340213,18.82148697173955,0
105.5895767486783,18.82137701682456,0
105.5893703685872,18.82141697291672,0
105.5891487081386,18.82126742815677,0
105.5889368037114,18.82113800292032,0
105.5887610501471,18.82095868999544,0
105.5885504489956,18.82071237369275,0
105.5883971107015,18.82049241658973,0
105.5882641896064,18.82026793841586,0
105.5881392002934,18.820109296371,0
105.5879745342557,18.81989043459375,0
105.5878054821196,18.81963338178146,0
105.5875877916986,18.8193618857741,0
105.5875116092056,18.8192235986297,0
105.5878711615799,18.81888559516342,0
105.5881537896449,18.81862891199117,0
105.5884111302138,18.81840119245531,0
105.588630433075,18.81815376229825,0
105.5888688986906,18.81789392909356,0
105.5890933602971,18.81765510356521,0
105.5892422006835,18.81766171569599,0
105.5895331915385,18.81729315101442,0
105.5899012687425,18.81679933681128,0
105.590136988563,18.81642372535898,0
105.5904450353276,18.81596224425928,0
105.590689925204,18.81561498977109,0
105.5910576191516,18.81513116052464,0
105.5914713134156,18.81452508078845,0
105.591353136086,18.81435986481698,0
105.5912189787838,18.81416232400375,0
105.5911117504827,18.81390924274809,0
105.5910108872772,18.81364664814977,0
105.5908500614182,18.81338240829122,0
105.5907040876596,18.81324038090113,0
105.5906593795039,18.81304906071443,0
105.5906331660369,18.81286745401593,0
105.5905593976227,18.81261520638057,0
105.5905403508613,18.81243672131297,0
105.5905456164743,18.81211254798522,0
105.5902304304214,18.81207457978268,0
105.5899664434356,18.81200594227941,0
105.5900280117661,18.8117402793153,0
105.5900471372053,18.81142827343175,0
105.5900517476936,18.81120202551188,0
105.5900540956282,18.81097353538416,0
105.5899012577491,18.81084361003576,0
105.5898007886997,18.8105430439088,0
105.5897426795125,18.8102859920085,0
105.5900955292349,18.81015319051818,0</coordinates>
        </LineString>
    </Placemark>
</Document>
</kml>