<?xml version="1.0" encoding="UTF-8"?>
<kml xmlns="http://www.opengis.net/kml/2.2">
<Document>
    <name>NA_DCU_DIEN_HOA-NA_DCU_DIEN_HANH.kml</name>
    <Placemark>
        <name>Tuyen_Cap_Chuan_Hoa</name>
        <LineString>
            <tessellate>1</tessellate>
            <coordinates>105.5838702509814,18.98888299740689,0
105.5836575891574,18.98888925160293,0
105.5836056649738,18.98851036292946,0
105.5834748875641,18.98767238302337,0
105.5834008987669,18.98720616643073,0
105.5833426322754,18.98666610814667,0
105.5832533721003,18.98577723459891,0
105.5831587687354,18.9850539757245,0
105.5831004579519,18.98466523598912,0
105.5827193946986,18.98471002312561,0
105.5823264105474,18.98473906650782,0
105.5813684101031,18.98476587149825,0
105.5792697548031,18.98490067090574,0
105.5780065241426,18.98496082326401,0
105.5771221421903,18.98491416359107,0
105.5761387164131,18.98488690723456,0
105.5757669653509,18.98477800114803,0
105.5749273257414,18.98473937353723,0
105.5744287167188,18.98470467868483,0
105.5746814399698,18.98725087838272,0
105.5740455755283,18.98723157263516,0
105.5738406565851,18.98729622019194,0
105.573185878097,18.98724510851276,0
105.5724678664517,18.98713107915883,0
105.5719263363739,18.98698379924543,0
105.5714613808963,18.98683136962985,0
105.5712220159314,18.98677102524444,0
105.5707565643405,18.98676451693057,0
105.5703603890904,18.98673114802487,0
105.5698893282394,18.98664137161194,0
105.5697395901153,18.98785515867081,0
105.5696631207094,18.98882096387753,0
105.5695096723886,18.98896692440665,0
105.56938512426,18.98950194148912,0
105.5692480916627,18.98988794234319,0
105.5691812571542,18.99036700755153,0
105.5692802691892,18.99063974930362,0
105.5691794778745,18.99110982680071,0
105.5689682365588,18.992046850737,0
105.5689034282303,18.99227122911576,0
105.5687125262465,18.99232599943137,0
105.5679955927724,18.99227831427486,0
105.5675001685375,18.99224234112408,0
105.5674914077315,18.99234664674604,0</coordinates>
        </LineString>
    </Placemark>
</Document>
</kml>