<?xml version="1.0" encoding="UTF-8"?>
<kml xmlns="http://www.opengis.net/kml/2.2">
<Document>
    <name>NA_NLC_NGHI_THIET-NA_NLC_NGHI_QUANG.kml</name>
    <Placemark>
        <name>Tuyen_Cap_Chuan_Hoa</name>
        <LineString>
            <tessellate>1</tessellate>
            <coordinates>105.6853293396592,18.83804583086688,0
105.6854741589746,18.83787380220193,0
105.6855575429911,18.83764409505934,0
105.6856559413415,18.83735563925841,0
105.6857071329173,18.8371240393074,0
105.6857736699137,18.83690209672099,0
105.6857257614077,18.83660747206032,0
105.685725318663,18.83648345681124,0
105.6857564090397,18.8362734423711,0
105.6858027501738,18.83596890062119,0
105.6859344282009,18.83571183574714,0
105.6860628522438,18.83545240617898,0
105.6863115619857,18.83507077803071,0
105.6866017327573,18.83458202298796,0
105.686842328748,18.83422887545908,0
105.6870112079235,18.83393330937234,0
105.687014766562,18.83392580334059,0
105.6871324482221,18.83366726749354,0
105.6872654353877,18.83335622174679,0
105.6874280456175,18.83299345522957,0
105.687598562935,18.83272887157013,0
105.6877492571092,18.83251897894367,0
105.6878800185248,18.8323472873417,0
105.6880052614216,18.83216040121285,0
105.6882373864603,18.83204294166983,0
105.6881985959852,18.83183260533849,0
105.6882625495566,18.83159304106951,0
105.6883300942501,18.83132031025237,0
105.6884138104644,18.83103980415641,0
105.6885213016077,18.83071665500527,0
105.6886085606147,18.830404745846,0
105.6887092615478,18.83005853396767,0
105.6888701980266,18.82983060032006,0
105.6888315115049,18.82949745300592,0
105.6887776640214,18.82913722334065,0
105.6885504752706,18.82869757508676,0
105.6885180946713,18.82827747430712,0
105.6884859449318,18.82799116987983,0
105.6885399412632,18.82781906179446,0
105.6881758226657,18.82787429159578,0
105.6878265212997,18.82782261579601,0
105.6874623976054,18.82775003287789,0
105.6872178967847,18.82757449704933,0
105.6870093408106,18.82741124644108,0
105.6868532408666,18.82708173872983,0
105.6864825684365,18.82672807562715,0
105.6863330736856,18.82638866904351,0
105.6862303607245,18.82608518448077,0
105.6861438266155,18.82575904874439,0
105.6860196153472,18.8253099681913,0
105.6859141512705,18.82510138393925,0
105.6860228189611,18.82501760434492,0
105.6860987954858,18.82483983749848,0
105.6862020549774,18.82455700600465,0
105.6864449552372,18.82466884632904,0
105.6866012969809,18.82472446257832,0
105.6867120232705,18.82483628519324,0
105.686614089246,18.82501592128837,0</coordinates>
        </LineString>
    </Placemark>
</Document>
</kml>