<?xml version="1.0" encoding="UTF-8"?>
<kml xmlns="http://www.opengis.net/kml/2.2">
<Document>
    <name>NA_TKY_NGHIA_HANH_3-NA_TKY_NGHIA_HANH.kml</name>
    <Placemark>
        <name>Tuyen_Cap_Chuan_Hoa</name>
        <LineString>
            <tessellate>1</tessellate>
            <coordinates>105.1816493583687,19.00073518767331,0
105.18149450215,19.00084740811783,0
105.1809786226973,19.00037550463268,0
105.1797372332981,19.00136539018767,0
105.1794659191053,19.002231402658,0
105.1775855720045,19.00265327209692,0
105.1769011049853,19.0013967108953,0
105.1745383156446,18.99996031703716,0
105.172950749805,18.99949260906485,0
105.1711586787753,19.00002426722659,0
105.1689340522402,18.9986568412283,0
105.1675821766678,18.99767079645854,0
105.1693031779387,18.99413333733342,0
105.1676400180895,18.99351531941577,0
105.1661293516826,18.99114137645313,0
105.1643478224691,18.98991935962351,0
105.1635712370545,18.98833595137649,0
105.1639079984004,18.98734975071554,0
105.1638999887483,18.98735443804068,0
105.1639044306553,18.98735750120816,0
105.1633513789794,18.98715443201,0
105.1632357970319,18.98716627839631,0</coordinates>
        </LineString>
    </Placemark>
</Document>
</kml>