<?xml version="1.0" encoding="UTF-8"?>
<kml xmlns="http://www.opengis.net/kml/2.2">
<Document>
    <name>NA_NLC_NGHI_THINH_01R-NA_NLC_NGHI_THINH.kml</name>
    <Placemark>
        <name>Tuyen_Cap_Chuan_Hoa</name>
        <LineString>
            <tessellate>1</tessellate>
            <coordinates>105.6689144729556,18.78368530483887,0
105.6689110472111,18.78364907557035,0
105.6689005693318,18.78362505090197,0
105.6688958123255,18.78360709918889,0
105.6688797460362,18.78357730592153,0
105.6688694004287,18.78355358448374,0
105.6688590979378,18.7835299626659,0
105.6688488389379,18.78350644014433,0
105.6688507777152,18.7834830159311,0
105.6688532411201,18.78345378283072,0
105.6688566932858,18.78341307453434,0
105.6688586542311,18.78338994932481,0
105.6688545811269,18.78336694461654,0
105.6688510162136,18.78333832017049,0
105.6688409806092,18.78331555487374,0
105.6688369725631,18.78329286387957,0
105.668827008292,18.78327028862423,0
105.6688170855251,18.78324780722037,0
105.6688072039707,18.78322541903195,0
105.6687795543349,18.78320318206804,0
105.6687509439755,18.78319214561095,0
105.668711063547,18.78317566071367,0
105.6686820033017,18.78317023106772,0
105.6686411301939,18.78316484388592,0
105.6685890609383,18.78315398955439,0
105.6685654013038,18.78315406387592,0
105.6685416077589,18.78315427836856,0
105.6685000267308,18.78315457398336,0
105.6684340378806,18.78316048079333,0
105.6683924276292,18.78316074235884,0
105.6683508011336,18.78316100404538,0
105.6683032076906,18.78316130318058,0
105.668279402882,18.78316145276101,0
105.668249639312,18.78316163989497,0
105.6682317768297,18.78316175209605,0
105.6682019998329,18.78316193922461,0
105.6681765772237,18.78317311619453,0
105.6681749790715,18.78318416556676,0
105.6681717021696,18.7832063912868,0
105.668159071553,18.78325118278784,0
105.6681532090094,18.78329064554571,0
105.6681558814864,18.78331328222882,0
105.6681525108998,18.78333605514471,0
105.6681526547542,18.78337609205165,0
105.6681544990657,18.78340485509399,0
105.6681519489581,18.78342221238863,0
105.6681537991713,18.78345121573031,0
105.6681512634918,18.78346869207176,0
105.6681548841076,18.78348614744445,0
105.6681498961622,18.78352126705155,0
105.6681518632936,18.78355067408561,0
105.6681459970894,18.78359213343929,0
105.6681417814583,18.78362193103189,0
105.6681383927882,18.78364588080882,0
105.668134137242,18.78367595804815,0
105.6681360901154,18.78370616447763,0
105.6681292250272,18.78375486731848,0
105.6681240384358,18.78379166312966,0
105.6681196912297,18.78382250409574,0
105.6681161973536,18.78384729394957,0
105.6681108469552,18.78388477576108,0
105.6681052421088,18.78392277465149,0
105.6681078471869,18.78394821745433,0
105.668102200468,18.78398664524202,0
105.668094611915,18.78403828908743,0
105.6680943538996,18.78408382900705,0
105.6680942472769,18.78412952256155,0
105.6680895819759,18.78416234836783,0
105.6680848904466,18.78419535712636,0
105.6680885478498,18.78421525076065,0
105.6680903354062,18.78424855504532,0
105.6680865587495,18.78427533291355,0
105.6680845491685,18.7843360242634,0
105.6680759357261,18.78439733456882,0
105.668069175572,18.78444545432567,0
105.6680662614867,18.78446619433675,0
105.6680584425321,18.78452184947409,0
105.6680535189598,18.78455689335654,0
105.6680485679386,18.78459213914393,0
105.6680512913601,18.78462048198084,0
105.6680463071868,18.78465609506399,0
105.6680412938609,18.78469191486976,0
105.6680362520472,18.78472794302289,0
105.6680321972876,18.784756916967,0
105.6680203022253,18.78479332443715,0
105.6680093729404,18.78482260506003,0
105.6679983926892,18.78485202267477,0
105.66798051332,18.78488157912612,0
105.6679931587319,18.78488898985616,0
105.6680685255763,18.78488898858114,0
105.6681017978372,18.78489640801533,0
105.6681497869779,18.78489640704684,0
105.6681762666802,18.78490383484258,0
105.668189985874,18.78490383453822,0
105.668217424264,18.78490383387968,0
105.6682723010229,18.78490383291063,0
105.6682979969517,18.78491871542417,0
105.6683246113161,18.78492616958559,0
105.668357294966,18.78494110482037,0
105.6683823428982,18.78496357453999,0
105.668409101996,18.78497108185206,0
105.6684358929288,18.78497859813962,0
105.6684565937943,18.78497859764343,0
105.6685033869301,18.78499365700918,0
105.6685241124014,18.78499365665332,0
105.6685572081721,18.78500875215996,0
105.6685911647058,18.78501610675759,0
105.6686251754145,18.78502341852056,0
105.6686460031192,18.78502326032057,0
105.6686731124791,18.7850306319258,0
105.6687349910953,18.78503774632158,0
105.668776075882,18.78504502680562,0
105.6687963405901,18.78505247409625,0
105.6688241543996,18.78505226071338,0
105.6688936718894,18.78505172773,0
105.6689145229893,18.78505156796402,0
105.6689562182586,18.78505124829457,0
105.6689840105124,18.78505103502901,0
105.6690113425571,18.78505843309044,0
105.6690391442745,18.78505821955951,0
105.6690734632835,18.78506561125851,0
105.6691008384472,18.78507317751417,0
105.6691633472707,18.78507317645173,0
105.6691838412575,18.78508075161394,0
105.6692324872955,18.78508075071128,0
105.669253332488,18.78508077171891,0
105.6692877580006,18.78508862016676,0
105.669321966398,18.78510407988299,0
105.6693562599459,18.78511957816666,0
105.6693836653345,18.78513506084337,0
105.6694113502042,18.78514292528601,0
105.6694183288648,18.78514297964433,0
105.6694460541685,18.78515085455255,0
105.6694738159909,18.78515873960125,0
105.6695014542892,18.78517432011573,0
105.6695501828718,18.78519010532156,0
105.6695781007191,18.78519804095776,0
105.6695990366769,18.78520593137971,0
105.6696270225863,18.78521388754284,0
105.669690135845,18.78522988719092,0
105.6697182361339,18.78523787497523,0
105.6697674991191,18.78525377662796,0
105.6698098301795,18.78526958253786,0
105.6698663999775,18.7852855415188,0
105.6698805346417,18.78528565518903,0
105.6699301911835,18.78530159815965,0
105.6699656901631,18.78530967005437,0
105.6699870606948,18.78531763847834,0
105.6700298822182,18.78533360531359,0
105.6700513325524,18.78534160316141,0
105.6700943135121,18.78535762938698,0
105.6701371934183,18.78536583344527,0
105.6701516444789,18.78537381308026,0
105.6701948600085,18.78538991997351,0
105.6702307806245,18.7853981073464,0
105.6702741784647,18.78541427573727,0
105.6703030689173,18.78542243484619,0
105.6703606232551,18.78543084488147,0
105.6704186318729,18.78544721725595,0
105.6704624361467,18.78546351080556,0
105.6704771976429,18.78547161165765,0
105.6705279121525,18.78548002844407,0
105.670557118398,18.7854882728827,0
105.6705719671246,18.78549640501565,0
105.6706295422328,18.78549684743397,0
105.6706439118341,18.78549684751702,0
105.6706731723412,18.78550486316518,0
105.670702466482,18.78551288808375,0
105.6707533868353,18.7855209225245,0
105.6707827618761,18.78552896630445,0
105.670812171031,18.78553701922521,0
105.6708416144356,18.78554508163067,0
105.6708789489322,18.78556123482077,0
105.6709012600712,18.78556932533721,0
105.670938729679,18.78558553484274,0
105.6709676536345,18.78558553476019,0
105.6709980050598,18.7856017823334,0
105.6710276948979,18.78560992024538,0
105.671042181932,18.78560992021099,0
105.6710719149232,18.78561806771807,0
105.6711250193079,18.78564256738346,0
105.6711556799478,18.78565894864858,0
105.6711936905113,18.78567536808475,0
105.6712236520552,18.78568359221469,0
105.6712609351278,18.78569182598772,0
105.6712982620277,18.78570006943491,0
105.6713283382014,18.78570832250263,0
105.6713584496888,18.78571658576962,0
105.6713885968936,18.78572485860564,0
105.6714187794328,18.7857331412589,0
105.6714436552513,18.78575804802014,0
105.6714559419172,18.7857997553716,0
105.6714609373738,18.78584171107243,0
105.6714501918626,18.78587545562549,0
105.6714310064865,18.78590086921954,0
105.6714053223155,18.78593490516723,0
105.6713861729689,18.78596103645344,0
105.6713473421829,18.7860127769459,0
105.6713436354738,18.78604727203569,0
105.6713323662254,18.78608178297531,0
105.671337122062,18.78612553094574,0
105.6713390324965,18.78614310504978,0
105.6713314932894,18.78621352135542,0
105.6713286532923,18.78625791840965,0
105.6713248377433,18.78629359941649,0
105.6713277156406,18.78632059501896,0
105.6713248432312,18.78636564784827,0
105.6713296694901,18.78641114296917,0
105.671325816213,18.78644757665168,0
105.6713296988833,18.78648435848693,0
105.6713326236529,18.78651206645212,0
105.6713424528574,18.78660518200191,0
105.6713385559966,18.78671140218246,0
105.6713440656691,18.78676073597994,0
105.671342817777,18.78682030132419,0
105.6713472687138,18.78686035582269,0
105.6713971767887,18.78688105009626,0
105.6714540030047,18.78689181021892,0
105.6714778670993,18.78689210189735,0
105.6715268502089,18.7869027837541,0
105.6715587033428,18.78690317407943,0
105.671591855519,18.78691367865823,0
105.6716318398585,18.78691451326798,0
105.6716651849223,18.78692531489486,0
105.6716972547106,18.78692609344717,0
105.6717293345923,18.78692687332362,0
105.6717868907508,18.78693828438265,0
105.6718511590571,18.78693984861529,0
105.6718833080817,18.78694063165019,0
105.6719154668482,18.78694141365496,0
105.6719732931051,18.78695285728254,0
105.6719974486624,18.78695344646071,0
105.6720377203611,18.78695442907274,0
105.672103804626,18.78696609706077,0
105.6721441449466,18.78696708353143,0
105.6721925737087,18.78696826707762,0
105.6722087218713,18.78696866185875,0
105.6722652590711,18.78697004375023,0
105.6723379949256,18.78697182192295,0
105.6723720607609,18.78698257177595,0
105.6724283676684,18.78698326987888,0
105.6724785805939,18.7869941164668,0
105.6725127570433,18.78700478054267,0
105.6725550550854,18.78701556200614,0
105.6725913723885,18.78703657118288,0
105.6726257462447,18.78704730216437,0
105.6726622551451,18.78706840797206,0
105.6726966734431,18.787079025579,0
105.6727411750035,18.78709976382396,0
105.6727944833425,18.78716233575553,0
105.6727929120086,18.78719382505757,0
105.6727978977695,18.78725721376762,0
105.6727843840345,18.78731049712523,0
105.6727807381613,18.78733219170213,0
105.6727802125024,18.78740858380092,0
105.6727785692385,18.78744112979141,0
105.6727730334454,18.7874956539209,0
105.6727758308546,18.78755069579402,0
105.6727786495224,18.78760614706897,0
105.6727944604785,18.78768464174007,0
105.6727973743826,18.78774109647437,0
105.6728065275899,18.78778666449392,0
105.6728134286768,18.78782102149711,0
105.6728273257276,18.78789020626511,0
105.6728366613864,18.78793668279255,0
105.67285295733,18.78801834381045,0
105.6728666959033,18.788088289666,0
105.6728672207996,18.78813513804777,0
105.6729003264065,18.78817094912761,0</coordinates>
        </LineString>
    </Placemark>
</Document>
</kml>