<?xml version="1.0" encoding="UTF-8"?>
<kml xmlns="http://www.opengis.net/kml/2.2">
<Document>
    <name>NA_HMA_QUYNH_LAP_2-NA_HMA_QUYNH_LAP.kml</name>
    <Placemark>
        <name>Tuyen_Cap_Chuan_Hoa</name>
        <LineString>
            <tessellate>1</tessellate>
            <coordinates>105.7742486912278,19.27899767677967,0
105.7750301544948,19.27868793800195,0
105.7755987575837,19.27963456322187,0
105.7765782132203,19.27926335059142,0
105.7779699941814,19.27867069370208,0
105.7779736030371,19.27867226932566,0
105.7774134104368,19.27759982058188,0
105.7776357665082,19.27758286538106,0
105.7783496057305,19.2775754454762,0
105.7787004451979,19.27756940316959,0
105.77880175885,19.27770937287045,0
105.7794087305504,19.27794715706686,0
105.7797216056994,19.27796579313645,0
105.7797084452892,19.27795504252409,0
105.7799045489249,19.27808590092795,0
105.7799046398112,19.27810413001206,0
105.7799094799382,19.27808808837755,0
105.7804364800373,19.27818044813275,0
105.7808702362536,19.27798837335153,0
105.7818072475493,19.27789199343209,0
105.7835022878322,19.27776246840444,0
105.7843460466139,19.27778959715554,0
105.7851346491672,19.27797015963583,0
105.7856235870622,19.27812768699051,0
105.7857824487126,19.27795115514474,0
105.7861837701615,19.27771874288464,0
105.7859730367765,19.27763955739496,0
105.7859734275019,19.27764886460195,0
105.7853437087864,19.27731850201872,0
105.7845637963895,19.27700661850304,0
105.7832986828627,19.27615419774851,0
105.7817286111264,19.27497698981214,0
105.780367414682,19.27366619364222,0
105.7783755305629,19.27154183081311,0
105.777261324105,19.26894807005077,0
105.7779049538339,19.26792596264102,0
105.7766323440965,19.26486422437248,0
105.7759274465524,19.2643913631183,0
105.7753849566312,19.26394812399004,0
105.7753872013241,19.26394153415956,0
105.7754102790964,19.26465591593272,0
105.7754280805557,19.26532529543991,0
105.775453205846,19.26579027903002,0
105.7754847305797,19.2660456514872,0
105.7752553877957,19.2660248066271,0
105.7748299665702,19.26601321917977,0
105.7748356786646,19.26601305747461,0
105.7748344384389,19.26601424295385,0
105.7747908612089,19.26606924850606,0</coordinates>
        </LineString>
    </Placemark>
</Document>
</kml>