<?xml version="1.0" encoding="UTF-8"?>
<kml xmlns="http://www.opengis.net/kml/2.2">
<Document>
    <name>NA_HNN_HUNG_LONG_2-NA_HNN_HUNG_LINH.kml</name>
    <Placemark>
        <name>Tuyen_Cap_Chuan_Hoa</name>
        <LineString>
            <tessellate>1</tessellate>
            <coordinates>105.5711244578914,18.63438492742685,0
105.57133636298,18.63419633110311,0
105.5714860055669,18.6332689449722,0
105.5714618620039,18.63224018056446,0
105.5715201572208,18.63162411925115,0
105.5712086966649,18.62887419809774,0
105.5709997132226,18.62773889030116,0
105.5708199412487,18.6270574167929,0
105.5711204580815,18.6269565898791,0
105.5712053183332,18.62633076798797,0
105.5728203592833,18.62581891505798,0
105.5748994377494,18.62488704448652,0
105.5754711396429,18.62486668453216,0
105.575897480241,18.62465467128915,0
105.5759322206028,18.62464627198634,0
105.5762277199719,18.6243869908275,0
105.576019677153,18.62407733590128,0
105.5762965617037,18.62396986764635,0</coordinates>
        </LineString>
    </Placemark>
</Document>
</kml>