<?xml version="1.0" encoding="UTF-8"?>
<kml xmlns="http://www.opengis.net/kml/2.2">
<Document>
    <name>NA_VIH_SARA_VINH-NA_VIH_PHONG_DINH_CANG_3.kml</name>
    <Placemark>
        <name>Tuyen_Cap_Chuan_Hoa</name>
        <LineString>
            <tessellate>1</tessellate>
            <coordinates>105.70528,18.66223,0
105.70541,18.66286,0
105.70443,18.66304,0
105.70354,18.66281,0
105.70282,18.66254,0
105.70183,18.66241,0
105.70181,18.66253,0</coordinates>
        </LineString>
    </Placemark>
</Document>
</kml>