<?xml version="1.0" encoding="UTF-8"?>
<kml xmlns="http://www.opengis.net/kml/2.2">
<Document>
    <name>NA_NAD_NGHIA_BINH_5-NA_NAD_NGHIA_BINH.kml</name>
    <Placemark>
        <name>Tuyen_Cap_Chuan_Hoa</name>
        <LineString>
            <tessellate>1</tessellate>
            <coordinates>105.4936649941518,19.33946583669486,0
105.4939427482463,19.3392166899157,0
105.4937309631235,19.33900033729731,0
105.4927927835198,19.33970229293404,0
105.4935248830956,19.3403184268082,0
105.4946055573028,19.34128127236869,0
105.494861675661,19.34030394692822,0
105.4954399983697,19.34085463336084,0
105.4966092893088,19.34216195931755,0
105.4978850804708,19.341177559936,0
105.4985421672133,19.3425952815833,0
105.4994938834848,19.34480438777652,0
105.4994450325204,19.34504608949908,0
105.4995898754479,19.34562736964259,0
105.4994195356012,19.34593066091415,0
105.4992131832288,19.34691090727161,0
105.4990366853884,19.34826717888983,0
105.5001547065211,19.34831158412328,0
105.5013465861013,19.34840176719785,0
105.5011536237223,19.34806160179087,0
105.5012085399804,19.34727249531509,0
105.5013265698176,19.34726945533462,0
105.5013709966694,19.34683267831503,0
105.5013617797017,19.34658806764673,0
105.5013721917542,19.34637221593495,0
105.5014136730461,19.34630363400893,0
105.5015131944465,19.34637869675642,0</coordinates>
        </LineString>
    </Placemark>
</Document>
</kml>