<?xml version="1.0" encoding="UTF-8"?>
<kml xmlns="http://www.opengis.net/kml/2.2">
<Document>
    <name>NA_DCU_MINH_CHAU-NA_DCU_DIEN_THANG.kml</name>
    <Placemark>
        <name>Tuyen_Cap_Chuan_Hoa</name>
        <LineString>
            <tessellate>1</tessellate>
            <coordinates>105.5273654158005,18.93793564662235,0
105.5276483748246,18.93831428385867,0
105.5276988671342,18.93880415188707,0
105.527800642317,18.93897064508157,0
105.5280990173507,18.93909139433525,0
105.5281784560163,18.93946208730283,0
105.5283646640466,18.94090231449475,0
105.5284859909204,18.94112025239141,0
105.5284209046519,18.94136273578005,0
105.5283130734954,18.94141435982023,0
105.5289691160415,18.94761844744929,0
105.5299279225687,18.94801396600609,0
105.5300478077877,18.94861200919656,0
105.5323676450363,18.94986640540882,0
105.5332000004449,18.95044383473171,0
105.5346682670864,18.95244207895685,0
105.535091596807,18.95330464809815,0
105.5359276432217,18.95456824365604,0
105.5362016322524,18.95439853401643,0</coordinates>
        </LineString>
    </Placemark>
</Document>
</kml>