<?xml version="1.0" encoding="UTF-8"?>
<kml xmlns="http://www.opengis.net/kml/2.2">
<Document>
    <name>NA_THA_NGHIA_MY-NA_THA_DONG_TAM.kml</name>
    <Placemark>
        <name>Tuyen_Cap_Chuan_Hoa</name>
        <LineString>
            <tessellate>1</tessellate>
            <coordinates>105.4594601259262,19.30886596197259,0
105.4595282592671,19.30893383447264,0
105.4599365929663,19.30854640287915,0
105.4602287192235,19.30845670134769,0
105.4598635268633,19.30830417744481,0
105.4594086490717,19.30821320772971,0
105.4589386699323,19.30830989101077,0
105.4583532231441,19.30882054246646,0
105.4577818009056,19.30926308671787,0
105.4562527412685,19.3104907588868,0
105.4543356144887,19.31187150634249,0
105.4542247712441,19.31205454407561,0
105.4529829075768,19.31272313222807,0
105.4524316280026,19.3135633501142,0
105.451528488198,19.31475448891504,0
105.4502893065748,19.31506778299661,0
105.450290198562,19.31528329385049,0
105.4492916795307,19.31592102418009,0
105.4487210556592,19.31607862732606,0
105.4485501467021,19.31613720772144,0
105.449249058092,19.31709437923309,0</coordinates>
        </LineString>
    </Placemark>
</Document>
</kml>