<?xml version="1.0" encoding="UTF-8"?>
<kml xmlns="http://www.opengis.net/kml/2.2">
<Document>
    <name>NA_HNN_HUNG_YEN_2-NA_HNN_HUNG_YEN.kml</name>
    <Placemark>
        <name>Tuyen_Cap_Chuan_Hoa</name>
        <LineString>
            <tessellate>1</tessellate>
            <coordinates>105.5981522907159,18.74022076200749,0
105.5985341935776,18.74053205649711,0
105.5987253397813,18.74030144848886,0
105.5991193848988,18.73971371538994,0
105.5993549812546,18.73934360637837,0
105.5979480930967,18.7385553166854,0
105.5976836258971,18.73871972090325,0
105.5970605199701,18.73941979996578,0
105.5964090385956,18.74014588588482,0
105.5954276437336,18.74136671663738,0
105.5948032506436,18.74310712470564,0
105.5944736482023,18.74380603322116,0
105.5943424759192,18.74431111823004,0
105.5942863925997,18.7454878494949,0
105.5939572612398,18.74721334666792,0
105.5936964138036,18.7488213561412,0
105.5934713746886,18.75146836379966,0
105.5938254032465,18.75204933934342,0
105.5944198094657,18.75271600119138,0
105.5950143434828,18.75326111759416,0
105.5953734844549,18.75365599102587,0
105.5955468964203,18.75395498486322,0
105.5955727409221,18.7543286628135,0
105.5953882634707,18.75725469220662,0
105.5953181946854,18.75742760199445,0
105.5938786627568,18.75822191122193,0
105.5937667007809,18.75795060580872,0
105.5935945429981,18.75770465621996,0
105.5934511453065,18.75754043495559,0
105.5921374102863,18.75757466521762,0</coordinates>
        </LineString>
    </Placemark>
</Document>
</kml>