<?xml version="1.0" encoding="UTF-8"?>
<kml xmlns="http://www.opengis.net/kml/2.2">
<Document>
    <name>NA_ASN_ANH_SON_3-NA_ASN_ANH_SON_2.kml</name>
    <Placemark>
        <name>Tuyen_Cap_Chuan_Hoa</name>
        <LineString>
            <tessellate>1</tessellate>
            <coordinates>105.0841318613205,18.92796917467847,0
105.0842692296151,18.92801736212971,0
105.0844756786589,18.92817255334898,0
105.0846655805178,18.92834392179381,0
105.0848255077128,18.92851529027717,0
105.0849618889165,18.92868463929062,0
105.0850871311034,18.92862947762746,0
105.0853688567465,18.92850722802192,0
105.0858367031944,18.92836054811757,0
105.0864969970723,18.92852243057166,0
105.086972532508,18.92832391985738,0
105.0874361126081,18.9280029467522,0
105.0876125600237,18.92797670148618,0
105.0888349702865,18.92821358721551,0
105.0892936026625,18.9283249724869,0
105.0897479510075,18.92841927118882,0
105.0905627661051,18.92862586836814,0
105.0912345906749,18.92877215783051,0
105.0923035264357,18.92881236020584,0
105.0924801887782,18.928822254193,0
105.092578630404,18.92930533627725,0
105.0926170587673,18.92970669022289,0
105.0927399296498,18.93119806019569,0
105.0936920268889,18.9313925744432,0
105.0953394329684,18.9311053601111,0
105.0962838289488,18.93088587455888,0
105.0974509635264,18.9305739437407,0
105.097553615439,18.93084317730957,0
105.0989105531057,18.93046516915811,0
105.1004837336599,18.93010154907727,0
105.1014000372746,18.92986552212744,0
105.1017953593911,18.92974224449872,0
105.1020087449998,18.93034274385497,0
105.102216824319,18.93086946994058,0
105.1028358942315,18.93061389458552,0
105.1029288912217,18.93057392410488,0</coordinates>
        </LineString>
    </Placemark>
</Document>
</kml>