<?xml version="1.0" encoding="UTF-8"?>
<kml xmlns="http://www.opengis.net/kml/2.2">
<Document>
    <name>NA_QLU_QUYNH_BANG_2-NA_QLU_QUYNH_BANG.kml</name>
    <Placemark>
        <name>Tuyen_Cap_Chuan_Hoa</name>
        <LineString>
            <tessellate>1</tessellate>
            <coordinates>105.7145625173241,19.17397123716898,0
105.7142888128601,19.17388652177818,0
105.7140236707412,19.17440227294015,0
105.7151730518317,19.17451930364117,0
105.7161049513632,19.17457405628547,0
105.7164864752864,19.17459852423352,0
105.7174970213219,19.17459795048709,0
105.7184578198515,19.17463975692531,0
105.7198346034834,19.17465909369754,0
105.7205563309784,19.17467169038758,0
105.7220038731715,19.17469655960893,0
105.724886983783,19.17473711337712,0
105.7279416896284,19.17476816270075,0
105.7291790877191,19.17480091389834,0
105.729197317033,19.17430759831193,0</coordinates>
        </LineString>
    </Placemark>
</Document>
</kml>