<?xml version="1.0" encoding="UTF-8"?>
<kml xmlns="http://www.opengis.net/kml/2.2">
<Document>
    <name>NA_QLU_QUYNH_THANH_2-NA_QLU_QUYNH_HAU.kml</name>
    <Placemark>
        <name>Tuyen_Cap_Chuan_Hoa</name>
        <LineString>
            <tessellate>1</tessellate>
            <coordinates>105.6700472442533,19.16723459779694,0
105.6699250833937,19.1672567308212,0
105.6698359383354,19.166855909182,0
105.6693665000096,19.16684769320783,0
105.6687681662756,19.1668604026061,0
105.668279606209,19.16685948010858,0
105.6679714413321,19.16692015601291,0
105.6675365301349,19.1671542802606,0
105.6672264033937,19.16727702349764,0
105.666329193685,19.16752932736875,0
105.6641441421357,19.16872405632922,0
105.6627245771325,19.16949431979647,0
105.6613724550407,19.17064991524884,0
105.659863116331,19.17192752813347,0
105.6587595504848,19.17285078074745,0
105.6566933024905,19.17452239814788,0
105.6562677141162,19.17483600183774,0
105.6560515852678,19.17504449113645,0
105.6548816830586,19.17369997628549,0
105.6515797761461,19.17028370355061,0
105.6492577483101,19.16771457587465,0
105.6468718613818,19.16500235970362,0
105.6453423086153,19.16337687700653,0
105.6444557236956,19.16237376849639,0
105.6457626618931,19.16129828798163,0
105.6460790544722,19.16163708337467,0</coordinates>
        </LineString>
    </Placemark>
</Document>
</kml>