<?xml version="1.0" encoding="UTF-8"?>
<kml xmlns="http://www.opengis.net/kml/2.2">
<Document>
    <name>NA_THA_HIEU_HOA-NA_THA_DONG_TAM.kml</name>
    <Placemark>
        <name>Tuyen_Cap_Chuan_Hoa</name>
        <LineString>
            <tessellate>1</tessellate>
            <coordinates>105.43801,19.32982,0
105.43501,19.32992,0
105.43504,19.32514,0
105.43502,19.32455,0
105.43507,19.32416,0
105.43535,19.3237,0
105.43563,19.32339,0
105.43563,19.32339,0
105.4359,19.32317,0
105.43573,19.32306,0
105.43503,19.32257,0
105.4351,19.32229,0
105.43718,19.32257,0
105.43753,19.32247,0
105.44009,19.32091,0
105.44283,19.31921,0
105.44344,19.32001,0
105.44567,19.31826,0
105.4458713824992,19.31814823316625,0
105.4485271425705,19.3161255713836,0
105.4485264221665,19.31612421901875,0
105.4485242370172,19.31611146194486,0
105.4484979948498,19.31611120747158,0
105.44933,19.31702,0</coordinates>
        </LineString>
    </Placemark>
</Document>
</kml>