<?xml version="1.0" encoding="UTF-8"?>
<kml xmlns="http://www.opengis.net/kml/2.2">
<Document>
    <name>NA_YTH_SON_THANH_2-NA_YTH_BAO_THANH_2.kml</name>
    <Placemark>
        <name>Tuyen_Cap_Chuan_Hoa</name>
        <LineString>
            <tessellate>1</tessellate>
            <coordinates>105.471807718277,18.92341852368512,0
105.4719951376319,18.92375692817506,0
105.4728836193681,18.92369444867225,0
105.4729637503624,18.92268272149225,0
105.4771848767996,18.92165608172648,0
105.4775898903608,18.92166052194911,0
105.4788056015968,18.92124567778211,0
105.4796374216676,18.92098433811463,0
105.4804269969463,18.92085176516593,0
105.4824865981936,18.92021776054357,0
105.4829834774137,18.91958851095686,0
105.483087413013,18.91877530384928,0
105.4848177731037,18.91864399780651,0
105.4859741404652,18.91874929638039,0
105.4863660782576,18.91919586308916,0
105.4864126816392,18.91947623532795,0
105.4863734543324,18.92002841502496,0
105.4862276092172,18.92043533318625,0
105.4852978885174,18.92043723615273,0
105.4844399169087,18.92069825951502,0
105.4839222505689,18.92113530622481,0
105.4839205741882,18.9212244280914,0
105.4839152097702,18.92128183396606,0
105.4839152097702,18.92128183396606,0</coordinates>
        </LineString>
    </Placemark>
</Document>
</kml>