<?xml version="1.0" encoding="UTF-8"?>
<kml xmlns="http://www.opengis.net/kml/2.2">
<Document>
    <name>NA_THA_NGHIA_QUANG-NA_THA_TAY_HIEU_2.kml</name>
    <Placemark>
        <name>Tuyen_Cap_Chuan_Hoa</name>
        <LineString>
            <tessellate>1</tessellate>
            <coordinates>105.4187977320042,19.31479915763941,0
105.4189620531249,19.31479882745063,0
105.4189604033145,19.31501827757121,0
105.4183661011472,19.3150729494308,0
105.4179430130337,19.31500210429928,0
105.4177058121928,19.31500961319099,0
105.4163105957439,19.31469432088523,0
105.4163117358262,19.31549622700735,0
105.4163174263677,19.31619356626837,0
105.4158001972395,19.31606463982251,0
105.4156641011302,19.31673668571703,0
105.4158103760778,19.3171844896436,0
105.4158612249473,19.3174827560881,0
105.4158935639636,19.31781638222479,0
105.416302443658,19.31812124309426,0
105.4161878762748,19.31874138573322,0
105.4164588568938,19.31883105125178,0
105.416618099909,19.31900252450934,0
105.4167046835662,19.31943345353027,0
105.4171903638641,19.31948312155889,0
105.4174578204246,19.31942795347589,0
105.417352546709,19.32017974389439,0
105.4181264248244,19.32083376899575,0
105.4197154786519,19.32186050621884,0
105.4200233951155,19.32217085048136,0
105.4203054010355,19.32335708775756,0
105.4201447267673,19.32356662971191,0
105.4201663079355,19.32384766739431,0
105.4199894572361,19.32402889778519,0
105.4198391024037,19.32420786687594,0
105.4204513171637,19.32417439942447,0
105.421621948266,19.32389270229544,0
105.4218353028091,19.32397090851584,0
105.4219877603939,19.32541945307298,0
105.4205382624144,19.32552321717367,0
105.4201327777748,19.32534853751431,0</coordinates>
        </LineString>
    </Placemark>
</Document>
</kml>