<?xml version="1.0" encoding="UTF-8"?>
<kml xmlns="http://www.opengis.net/kml/2.2">
<Document>
    <name>NA_NLC_NGHI_PHONG-NA_NLC_NGHI_THAI_2.kml</name>
    <Placemark>
        <name>Tuyen_Cap_Chuan_Hoa</name>
        <LineString>
            <tessellate>1</tessellate>
            <coordinates>105.7086704137061,18.73952233244347,0
105.7084851851974,18.73965541037862,0
105.7083732884452,18.7398178012924,0
105.7082225052058,18.74011827858437,0
105.7080465019391,18.74039075682691,0
105.7079460443744,18.74059093947015,0
105.7078476232651,18.74079007607048,0
105.708129010862,18.74141613643636,0
105.708444207223,18.74185144807672,0
105.7086996947761,18.74147524901158,0
105.708888996351,18.7412070142168,0
105.7090956247728,18.74091737375402,0
105.7093362943816,18.74065558068661,0
105.7095635940276,18.74031302014649,0
105.7098452786445,18.73998364336497,0
105.7100245421763,18.73971758177414,0
105.7102872203579,18.73937912306748,0
105.71052591444,18.73908411960845,0
105.7107078450024,18.73886619011546,0
105.7108770683339,18.73862554297717,0
105.7111023235322,18.73834114147184,0
105.7112912479154,18.73810967250116,0
105.7115674507946,18.73775025519523,0
105.7118412732166,18.73738449023606,0
105.7120479355957,18.737101352734,0
105.7122770822216,18.73679082164654,0
105.7124701978215,18.73653236133949,0
105.7128252728287,18.73602967717997,0
105.7131858334683,18.73550348557681,0
105.7135186078776,18.73500019074431,0
105.7138581361019,18.73455522604523,0
105.7141193129488,18.73415985583664,0
105.7144633556153,18.73365749683528,0
105.7145924958723,18.73339770917378,0
105.7148736835694,18.73285092042297,0
105.7152884087162,18.73209666381744,0
105.7155120476107,18.73172314180679,0
105.7159211938119,18.73110641867734,0
105.716283485401,18.73053917387407,0
105.7166523170346,18.72998073869792,0
105.7168969387104,18.72959457651719,0
105.7171554549468,18.72922534942299,0
105.7171359646143,18.72903037389499,0
105.717362938411,18.72868932248429,0
105.7176079069111,18.72832788543288,0
105.7177060387734,18.72819376696253,0
105.7178989838652,18.72790818415785,0
105.7179881969857,18.72775467010633,0
105.7180731350205,18.72783569485171,0
105.7180723731079,18.72783569360171,0
105.7183515192238,18.72781251190525,0
105.7184158304542,18.72793404004285,0
105.718651064313,18.72765135172351,0
105.7188470814175,18.72742388932149,0
105.7190387004105,18.72719672372562,0
105.7191772807675,18.72703891589156,0
105.719181386546,18.72703677903106,0
105.7193190485888,18.72689026011131,0
105.7194274474306,18.72677288281543,0
105.7195808022611,18.72691355435425,0
105.7197766893869,18.72710297974125,0
105.7200296237125,18.72736091186152,0
105.7202430937788,18.7275678147064,0
105.7204987344458,18.7277601467761,0
105.7203217734597,18.72798570531669,0
105.7200360225651,18.72820591255624,0
105.7197902013675,18.72835851715933,0
105.7199269382705,18.72871864174942,0
105.7202570213376,18.72901876751467,0
105.7203237034652,18.72886121081615,0
105.7208495966257,18.72891025228467,0</coordinates>
        </LineString>
    </Placemark>
</Document>
</kml>