<?xml version="1.0" encoding="UTF-8"?>
<kml xmlns="http://www.opengis.net/kml/2.2">
<Document>
    <name>NA_HMA_MAI_HUNG-NA_HMA_QUYNH THIEN.kml</name>
    <Placemark>
        <name>Tuyen_Cap_Chuan_Hoa</name>
        <LineString>
            <tessellate>1</tessellate>
            <coordinates>105.718823664577,19.23241606947017,0
105.7188501078746,19.23230168844164,0
105.718847392001,19.2323149627728,0
105.7186379772564,19.23222579646628,0
105.7186347518763,19.23223861031537,0
105.7187427337174,19.23196511556276,0
105.7187345343498,19.23198664111736,0
105.7176100151083,19.2317019364496,0
105.7175938733102,19.23176309935876,0
105.7179474551746,19.23056547896671,0
105.717977540985,19.23055566008692,0
105.7158584244462,19.22981990075556,0
105.7158662828027,19.22983058473236,0
105.7151664056581,19.23076826561543,0
105.7151830658402,19.23079749340684,0
105.7148606371784,19.23090467258528,0
105.7148845355847,19.23095478456958,0
105.7059748189336,19.23473714892918,0
105.7059154507684,19.23559890378269,0
105.7033023998629,19.23566024828236,0
105.7027965458538,19.2355369766249,0
105.6995576566966,19.23639466657562,0
105.6994528912669,19.2365512915443,0
105.6994405230582,19.23658264099061,0
105.7012790989512,19.23995043291096,0
105.7008261008726,19.2403339110094,0
105.7008237604595,19.24032164984326,0
105.7027857322152,19.24314326345483,0
105.7045593774935,19.24534027305049,0
105.70582530213,19.24666231753312,0
105.7067616287057,19.24737602675044,0
105.7067641336092,19.24737108249634,0
105.7066904546454,19.24739167451316,0</coordinates>
        </LineString>
    </Placemark>
</Document>
</kml>