<?xml version="1.0" encoding="UTF-8"?>
<kml xmlns="http://www.opengis.net/kml/2.2">
<Document>
    <name>NA_YTH_XUAN_THANH-NA_YTH_NAM_THANH.kml</name>
    <Placemark>
        <name>Tuyen_Cap_Chuan_Hoa</name>
        <LineString>
            <tessellate>1</tessellate>
            <coordinates>105.4561707456374,18.98400649761729,0
105.4555492017744,18.98289401800552,0
105.4538006440692,18.98375126768816,0
105.4547277958638,18.98550714097664,0
105.4527907768704,18.98573281064911,0
105.4526332746999,18.98602356339573,0
105.4497517006035,18.98212589576962,0
105.4495599805044,18.98227286074696,0
105.4488892984256,18.98217860488826,0
105.4485163072975,18.98135379155106,0
105.4469580976662,18.97896041599938,0
105.4470270622431,18.97729776132999,0
105.450528714917,18.97545992031435,0
105.4522004190189,18.97460837812531,0
105.4520274696645,18.97234782818406,0
105.4521303168585,18.97031074196221,0
105.4519181151649,18.97001349154145,0
105.4511350345237,18.96967912050885,0
105.4508506101667,18.96852923857047,0
105.4504057897803,18.96655789623022,0
105.4496592469929,18.96319460031775,0
105.4490329654577,18.96042283990705,0
105.4483853405843,18.95742944708907,0
105.4482062116239,18.956534146748,0
105.4479435264484,18.95655797642506,0
105.4476736014493,18.95658994466879,0
105.4474869534872,18.95674215530155,0
105.4470530837082,18.95675308150218,0
105.4468036186969,18.95679675306274,0
105.4444330705974,18.95706970700449,0
105.4444356573941,18.95804913738438,0
105.4439467848148,18.95807544853621,0
105.4434867753769,18.95816334076828,0
105.4434707541725,18.95798117613646,0</coordinates>
        </LineString>
    </Placemark>
</Document>
</kml>