<?xml version="1.0" encoding="UTF-8"?>
<kml xmlns="http://www.opengis.net/kml/2.2">
<Document>
    <name>NA_YTH_BAO_THANH_2-NA_YTH_VIEN_THANH.kml</name>
    <Placemark>
        <name>Tuyen_Cap_Chuan_Hoa</name>
        <LineString>
            <tessellate>1</tessellate>
            <coordinates>105.47173,18.92344,0
105.47181,18.92342,0
105.47177,18.92477,0
105.47081,18.92474,0
105.47066,18.92553,0
105.47397,18.92669,0
105.47635,18.92733,0
105.48178,18.92938,0
105.48451,18.93029,0
105.48556,18.93051,0
105.4866,18.93088,0
105.48729,18.93109,0
105.48767,18.93115,0
105.48837,18.93112,0
105.48942,18.93093,0
105.48957,18.93031,0
105.48919,18.93026,0
105.48911,18.93034,0
105.4890453429557,18.93030272471873,0</coordinates>
        </LineString>
    </Placemark>
</Document>
</kml>