<?xml version="1.0" encoding="UTF-8"?>
<kml xmlns="http://www.opengis.net/kml/2.2">
<Document>
    <name>NA_NDN_NAM_GIANG-NA_HNN_HUNG_DAO.kml</name>
    <Placemark>
        <name>Tuyen_Cap_Chuan_Hoa</name>
        <LineString>
            <tessellate>1</tessellate>
            <coordinates>105.5898311267006,18.68059728490729,0
105.5898239965369,18.68078172828303,0
105.5896025048248,18.6807702373243,0
105.5896027829335,18.68077139147329,0
105.5895091357757,18.68069426594939,0
105.589508648458,18.68069553729066,0
105.5883046294888,18.68050736513348,0
105.5883105259127,18.68051070198985,0
105.588253669524,18.68027800486655,0
105.5882519721848,18.68027930972397,0
105.588017131013,18.67916036616986,0
105.5892539989364,18.67878254413914,0
105.5892504743997,18.67877599233619,0
105.5903735033718,18.67823467998006,0
105.591550961705,18.67764371269033,0
105.5915455041811,18.67764660525848,0
105.5929800182889,18.67741607545738,0
105.5951578380908,18.67762457709757,0
105.5996397479363,18.67813482615002,0
105.5996385195983,18.67812704978615,0
105.6015358885619,18.67835952412799,0
105.603681010274,18.6786074162024,0
105.6036723538947,18.67859754194462,0
105.6055174781177,18.67876561911129,0
105.6069418401324,18.67844615661557,0
105.60694546553,18.67843275416967,0
105.6073465720924,18.6780831108185,0
105.6077845701156,18.67759510945859,0
105.6076878327719,18.67755014273686,0
105.6074857612517,18.67760042659582,0
105.6073027704995,18.6776042875746,0
105.6071500229743,18.6775810526862,0
105.6070049501254,18.67752547538742,0
105.6070313992746,18.67750803167643,0</coordinates>
        </LineString>
    </Placemark>
</Document>
</kml>