<?xml version="1.0" encoding="UTF-8"?>
<kml xmlns="http://www.opengis.net/kml/2.2">
<Document>
    <name>NA_QLU_QUYNH_HUNG-NA_DCU_DIEN_HOANG_2.kml</name>
    <Placemark>
        <name>Tuyen_Cap_Chuan_Hoa</name>
        <LineString>
            <tessellate>1</tessellate>
            <coordinates>105.6263398651837,19.11226077167787,0
105.6264837587068,19.11312761101139,0
105.6266125752149,19.11359797501971,0
105.6271413855462,19.11410596538828,0
105.627975303897,19.1128806572321,0
105.6286891156658,19.11161054051826,0
105.6291500547461,19.11071096900816,0
105.6294595039119,19.10819252010833,0
105.6296620442846,19.10637334865666,0
105.6298606752113,19.10500888324125,0
105.630062135235,19.10502816591853,0
105.632541925705,19.10532335188174,0
105.6336070082944,19.10330561348469,0
105.6350760892616,19.10082452425616,0
105.6364524469722,19.09845983968681,0
105.6373513712982,19.09698635921133,0
105.6378648182138,19.09601707430076,0
105.63863138558,19.09642543098443,0
105.6391449355192,19.09674557690528,0
105.6393843851468,19.09694361475282,0
105.6392417163302,19.0971387761543,0</coordinates>
        </LineString>
    </Placemark>
</Document>
</kml>