<?xml version="1.0" encoding="UTF-8"?>
<kml xmlns="http://www.opengis.net/kml/2.2">
<Document>
    <name>NA_QLU_QUYNH_THUAN_2-NA_QLU_NGO.kml</name>
    <Placemark>
        <name>Tuyen_Cap_Chuan_Hoa</name>
        <LineString>
            <tessellate>1</tessellate>
            <coordinates>105.6905218496269,19.09567583308942,0
105.690466241652,19.09569026909049,0
105.6905742236865,19.09619506563378,0
105.6901070306399,19.09628874885793,0
105.6898405976802,19.09635816543011,0
105.6895550574249,19.09641109606555,0
105.6892664448623,19.09647669064925,0
105.6890303445453,19.09659338192899,0
105.6888779447824,19.09665664386219,0
105.6882712375764,19.09694092661743,0
105.6878215169985,19.09723294944287,0
105.6873257486422,19.0975614186317,0
105.6872641168127,19.09747446348776,0
105.6863152963958,19.09809046625302,0
105.6857784556929,19.09839634848913,0
105.685100438261,19.09893937261079,0
105.6845315067251,19.09932736303205,0
105.6842704597118,19.09949385274693,0
105.6839083255272,19.09965887007341,0
105.68341124647,19.09999935568289,0
105.682771376412,19.10040234957938,0
105.6820030778117,19.10090418106935,0
105.6813628234829,19.10137034729362,0
105.6808752922743,19.1017618884065,0
105.6804778605539,19.1021018721219,0
105.679689014775,19.10265764383934,0
105.6790278582817,19.10314561206893,0
105.6786671477768,19.10342754391632,0
105.6760033190985,19.10534966432964,0
105.673709543548,19.10702813618072,0
105.672825314966,19.10768735453421,0
105.6717517574385,19.10848662226567,0
105.6707956526189,19.10916279104858,0
105.6708608901872,19.10959520735263,0</coordinates>
        </LineString>
    </Placemark>
</Document>
</kml>