<?xml version="1.0" encoding="UTF-8"?>
<kml xmlns="http://www.opengis.net/kml/2.2">
<Document>
    <name>NA_NLC_NGHI_DUC-NA_NLC_NGHI_AN.kml</name>
    <Placemark>
        <name>Tuyen_Cap_Chuan_Hoa</name>
        <LineString>
            <tessellate>1</tessellate>
            <coordinates>105.6899010028107,18.73187285814532,0
105.6898596771933,18.73196294548774,0
105.6900432253038,18.73202212246579,0
105.6902222096823,18.73209490778663,0
105.689999281937,18.73256985216776,0
105.6897713098071,18.73311360482296,0
105.6894445015022,18.73380999620858,0
105.6892056056865,18.73430498487824,0
105.6889299011972,18.73491395689704,0
105.6887670948802,18.73531444647487,0
105.6886827242964,18.73555376586904,0
105.6885613389405,18.73587888335188,0
105.6883561791542,18.73597515728179,0
105.6881935356961,18.7364303600607,0
105.6880115325144,18.73690007948926,0
105.6878824830066,18.73719029639203,0
105.6877537686874,18.73754640618112,0
105.6875867340254,18.73799461329016,0
105.6874371385604,18.73844601856623,0
105.6872403369922,18.73897280632465,0
105.6871087999274,18.7392997109575,0
105.6869545639019,18.73969815251655,0
105.6868061972588,18.74015131293999,0
105.6866249189948,18.7406881366853,0
105.6865209532724,18.7409730837037,0
105.6864204447443,18.74128068594309,0
105.6863356194063,18.74160271570238,0
105.6864483093855,18.7418301422999,0
105.686220862418,18.74217251400989,0
105.686419980625,18.74243306639694,0
105.6865384967583,18.74267313030745,0
105.686734451093,18.74304374177653,0
105.6869031612661,18.74334096158396,0
105.6870516570914,18.7436586084763,0
105.6871014636542,18.74382690256955,0
105.6869559258576,18.7442333609923,0
105.6868311970125,18.74451126566997,0
105.6867133487731,18.74481298586802,0
105.6866182418871,18.74506424487382,0
105.6865247393222,18.74536048086633,0
105.686428967142,18.74561708863207,0
105.6866481371697,18.74572449220053,0
105.686899642128,18.74574849015675,0
105.6870524659491,18.74573413103804,0</coordinates>
        </LineString>
    </Placemark>
</Document>
</kml>