<?xml version="1.0" encoding="UTF-8"?>
<kml xmlns="http://www.opengis.net/kml/2.2">
<Document>
    <name>NA_NAD_TT_NGHIA_DAN - NA_NAD_NGHIA_BINH_4.kml</name>
    <Placemark>
        <name>Tuyen_Cap_Chuan_Hoa</name>
        <LineString>
            <tessellate>1</tessellate>
            <coordinates>105.4790027394588,19.32849670818122,0
105.4790519290418,19.32844913937701,0
105.479375745815,19.32965658551208,0
105.4820671610609,19.3291916744618,0
105.4817541242108,19.3280068615925,0
105.4806720569161,19.32639821501403,0
105.4808300217143,19.32634855751393,0
105.4810869066271,19.32599164577437,0
105.4811997129458,19.32557412365003,0
105.4813755991853,19.32453501792718,0
105.4806424847293,19.32375907762513,0
105.4849497986003,19.320894651261,0
105.4851135943071,19.32085864373163,0
105.4853039950561,19.32069971823933,0
105.4851621140106,19.32054833035755,0
105.4850416634221,19.32037571870416,0
105.4842888348164,19.32003867086806,0
105.4826010649624,19.31820353327657,0
105.4820203542412,19.31751296412038,0
105.4809749442502,19.31534368864608,0
105.4808178664828,19.31501328737967,0
105.4809887168347,19.31399518970226,0
105.4808935776249,19.31325573080429,0
105.4811711369336,19.31306381156083,0
105.4818714402131,19.31208614135819,0
105.4818508543673,19.31180172914641,0
105.4819132611957,19.31156483983917,0
105.4818195180601,19.31078887753873,0
105.4816479471928,19.31056288995496,0
105.4808091865436,19.31051185026237,0
105.4794499774616,19.310012410798,0
105.4787897099199,19.30968117703275,0
105.4785758063965,19.30971623786392,0
105.4778913045639,19.31050307198808,0
105.4781210828423,19.31060192998714,0</coordinates>
        </LineString>
    </Placemark>
</Document>
</kml>