<?xml version="1.0" encoding="UTF-8"?>
<kml xmlns="http://www.opengis.net/kml/2.2">
<Document>
    <name>NA_TCG_THANH_THUY_2-NA_TCG_THANH_KHE_2.kml</name>
    <Placemark>
        <name>Tuyen_Cap_Chuan_Hoa</name>
        <LineString>
            <tessellate>1</tessellate>
            <coordinates>105.3162908703182,18.71410320379648,0
105.3164112250863,18.71385913920464,0
105.3164386360005,18.71370461080032,0
105.3159931545883,18.71371359072108,0
105.3153085949242,18.71370441147665,0
105.3145111954191,18.71368238869057,0
105.3142847565798,18.71330346795482,0
105.3151080999899,18.71291723789032,0
105.315900205134,18.71254461962126,0
105.3158256022148,18.71255604390682,0
105.3148965840059,18.71222795336613,0
105.3133094086413,18.71168350380146,0
105.3125460535544,18.71142106925945,0
105.3116653537683,18.71015801570268,0
105.3110127443522,18.7092280551389,0
105.3103388442582,18.70795962270233,0
105.3100448095261,18.70737722213359,0
105.30987901302,18.70713410705581,0
105.3093652277306,18.7062422501129,0
105.3088523002779,18.70538896950203,0
105.3083729155235,18.70435256807167,0
105.3079725796242,18.70350863369407,0
105.3076176082051,18.70242908993069,0
105.3072120032481,18.70093437539532,0
105.3066071766516,18.69970015755616,0
105.3058668316072,18.69979043288921,0
105.3057615925852,18.69925916413082,0
105.3052922059265,18.69844282773965,0
105.3046386248562,18.6973270922336,0
105.3042002950183,18.69661761442806,0
105.3041395541147,18.6954766338498,0
105.3034652252259,18.69455031129454,0
105.303464614504,18.69459637045381,0
105.3034850192423,18.69462282452115,0</coordinates>
        </LineString>
    </Placemark>
</Document>
</kml>