<?xml version="1.0" encoding="UTF-8"?>
<kml xmlns="http://www.opengis.net/kml/2.2">
<Document>
    <name>NA_THA_NGHIA_THUAN-NA_THA_NB_DONG_HIEU.kml</name>
    <Placemark>
        <name>Tuyen_Cap_Chuan_Hoa</name>
        <LineString>
            <tessellate>1</tessellate>
            <coordinates>105.489904593582,19.27332322044568,0
105.4899697852859,19.27260398034866,0
105.4905545055269,19.27242212667224,0
105.4902220479848,19.27461810941956,0
105.4899485797606,19.27481720176064,0
105.4893498921131,19.27474064000901,0
105.4890799529815,19.27629564743164,0
105.4897083403752,19.27633779673566,0
105.4889461556059,19.28201686825149,0
105.4875845533585,19.2814921219661,0
105.4859520968769,19.28193665936571,0
105.4848260178129,19.28229407443595,0
105.4836655603639,19.28225634081739,0
105.4825157417555,19.28174341736023,0
105.4798341845893,19.28409237013204,0
105.4782559485069,19.28337486936399,0
105.4783321646669,19.28289537325972,0
105.4777148615814,19.28285710363379,0
105.4776350207712,19.28329557018635,0
105.4766843222513,19.28322035914053,0
105.4766913707453,19.2842264663316,0
105.4772707124996,19.28442687935296,0</coordinates>
        </LineString>
    </Placemark>
</Document>
</kml>