<?xml version="1.0" encoding="UTF-8"?>
<kml xmlns="http://www.opengis.net/kml/2.2">
<Document>
    <name>NA_TCG_THANH_CHUONG_2-NA_TCG_THANH_CHUONG.kml</name>
    <Placemark>
        <name>Tuyen_Cap_Chuan_Hoa</name>
        <LineString>
            <tessellate>1</tessellate>
            <coordinates>105.3389664264388,18.77119012303917,0
105.3391030398062,18.7721294601243,0
105.3399988347426,18.77214498552082,0
105.3400301391775,18.77310897041288,0
105.3400081199074,18.77339386330802,0
105.3399560097857,18.77369154099053,0
105.3398606021565,18.77394889452856,0
105.339663549698,18.7743276542631,0
105.3392736930796,18.77489059954289,0
105.3390220112534,18.7753992992941,0
105.338797921485,18.77547868992345,0
105.3384519217547,18.77615077277912,0
105.3383294978136,18.77629619834542,0
105.3380893939135,18.77652739242873,0
105.3376490206879,18.7768853790509,0
105.3373587270264,18.77715116258383,0
105.3370218321119,18.77745150087366,0
105.3364851001355,18.77796058600087,0
105.3355401884546,18.77880531602914,0
105.3343035137734,18.77992445895053,0
105.3340784195094,18.78018941556712,0
105.333616291351,18.78096522128269,0
105.333105915025,18.78197287136597,0
105.3330259582639,18.7824613506722,0
105.3322906531188,18.78262488399198,0
105.3319442553477,18.78258338123565,0
105.3316194346638,18.7826941105822,0</coordinates>
        </LineString>
    </Placemark>
</Document>
</kml>