<?xml version="1.0" encoding="UTF-8"?>
<kml xmlns="http://www.opengis.net/kml/2.2">
<Document>
    <name>NA_QLU_QUYNH_HUNG_2-NA_QLU_QUYNH_NGOC_2.kml</name>
    <Placemark>
        <name>Tuyen_Cap_Chuan_Hoa</name>
        <LineString>
            <tessellate>1</tessellate>
            <coordinates>105.6471115648155,19.1216301933135,0
105.6475322133557,19.12207323619012,0
105.6491408813981,19.12083139368007,0
105.6501883539603,19.12005394652044,0
105.6520976607446,19.11858731224653,0
105.6528070226504,19.11808556994614,0
105.6549938507038,19.11941517671774,0
105.6601447983954,19.1218084921332,0
105.6612054553006,19.12040731521824,0
105.6621827087505,19.11931348655209,0
105.6636094905693,19.11807393127131,0
105.6645204206868,19.11874582537797,0
105.6646107107327,19.11841392565067,0</coordinates>
        </LineString>
    </Placemark>
</Document>
</kml>