<?xml version="1.0" encoding="UTF-8"?>
<kml xmlns="http://www.opengis.net/kml/2.2">
<Document>
    <name>NA_DCU_DIEN_HANH-NA_DCU_CAU_BUNG.kml</name>
    <Placemark>
        <name>Tuyen_Cap_Chuan_Hoa</name>
        <LineString>
            <tessellate>1</tessellate>
            <coordinates>105.5675043647013,18.99233907437981,0
105.5675066367243,18.99224877898983,0
105.5687538841545,18.99231711192899,0
105.5689223991345,18.99240992152869,0
105.568720549728,18.99302086314233,0
105.5685714668935,18.99356803696508,0
105.5684851461479,18.99427480623822,0
105.5683700964741,18.99578268278318,0
105.5683450446755,18.9966982053868,0
105.5682402638184,18.99770715552789,0
105.5681531384061,18.99808366062973,0
105.567510328652,18.99997827122778,0
105.5675148664901,19.00115501577121,0
105.5675709704812,19.0019099338538,0
105.567355939642,19.0027133382929,0
105.5669524799534,19.00444261667871,0
105.5659585051009,19.00904283049412,0
105.5659463190968,19.00921033824104,0
105.567164637539,19.00949451569925,0
105.5694108270958,19.00987573246924,0
105.5725083715788,19.01049532603982,0
105.5733556390328,19.01058021314687,0
105.5740307260937,19.01061604434122,0
105.573832343438,19.01050636781245,0
105.5765371132688,19.01051857562953,0
105.5785028812751,19.01037972380947,0
105.579703104855,19.01037811238604,0
105.5809101210866,19.01047827439633,0
105.5815216957238,19.01045237112135,0
105.5816233594388,19.01056207681751,0
105.58157998603,19.01232908264342,0
105.582047043771,19.01233684649912,0
105.5821318378395,19.01242049850982,0
105.5821514342983,19.01254727263227,0</coordinates>
        </LineString>
    </Placemark>
</Document>
</kml>