<?xml version="1.0" encoding="UTF-8"?>
<kml xmlns="http://www.opengis.net/kml/2.2">
<Document>
    <name>NA_DCU_DIEN_THINH-NA_DCU_DIEN_CHAU_2.kml</name>
    <Placemark>
        <name>Tuyen_Cap_Chuan_Hoa</name>
        <LineString>
            <tessellate>1</tessellate>
            <coordinates>105.6031694984887,18.94667309423474,0
105.6035064733413,18.94671580749899,0
105.6037669768553,18.94666975313827,0
105.6041368622174,18.94670143179749,0
105.6040366479722,18.94750962170904,0
105.6039422242444,18.94764267062054,0
105.6038303248489,18.94863772894148,0
105.6036946289209,18.94953972024287,0
105.603540181693,18.95067605629248,0
105.6033569035936,18.95190381767519,0
105.6031380487285,18.95346998159392,0
105.6028392654834,18.9555833253668,0
105.6028389147634,18.95574405565407,0
105.6027890947258,18.95627899283516,0
105.6032123480036,18.95633879581311,0
105.6029598169378,18.95820968500632,0
105.6027733157978,18.95973576954432,0
105.6029325955703,18.95983458579862,0
105.6034971027547,18.9599025819938,0
105.6044164860481,18.96000696685555,0
105.6053709752972,18.96014112023092,0</coordinates>
        </LineString>
    </Placemark>
</Document>
</kml>