<?xml version="1.0" encoding="UTF-8"?>
<kml xmlns="http://www.opengis.net/kml/2.2">
<Document>
    <name>NA_DLG_TRUNG_SON-NA_DLG_DA_SON.kml</name>
    <Placemark>
        <name>Tuyen_Cap_Chuan_Hoa</name>
        <LineString>
            <tessellate>1</tessellate>
            <coordinates>105.3103306199009,18.8695379394006,0
105.310333588853,18.86944309771153,0
105.3105883019315,18.8693780691415,0
105.3104751375902,18.86893437147715,0
105.3090941041886,18.86931843925178,0
105.3078390478666,18.8695124093816,0
105.3068884933566,18.86949905239437,0
105.3056130355339,18.86982471165563,0
105.3053509034581,18.87061113813938,0
105.3040787265332,18.87181170925896,0
105.305363284988,18.87284379926837,0
105.3069845991625,18.8752534972036,0
105.3072850556425,18.8767855095445,0
105.3071439816078,18.87799940406495,0
105.3072704143552,18.87887920669613,0
105.3068647699048,18.87925017313003,0
105.3074158402528,18.87984864029441,0
105.3074621922325,18.8800802686626,0
105.3074026027187,18.88134694843722,0
105.3073641707415,18.8820723321366,0
105.306351425221,18.88208943396958,0
105.3059129589767,18.88200692422796,0
105.3061031428813,18.88141481480216,0
105.3059622219192,18.88113918355066,0
105.3059579643456,18.88081168790485,0
105.3057775322828,18.88083760371959,0</coordinates>
        </LineString>
    </Placemark>
</Document>
</kml>