<?xml version="1.0" encoding="UTF-8"?>
<kml xmlns="http://www.opengis.net/kml/2.2">
<Document>
    <name>NA_YTH_LANG_THANH-NA_YTH_HAU_THANH.kml</name>
    <Placemark>
        <name>Tuyen_Cap_Chuan_Hoa</name>
        <LineString>
            <tessellate>1</tessellate>
            <coordinates>105.4756357979575,19.03981645359081,0
105.4749560003909,19.03986144832879,0
105.4744095500171,19.03986137470289,0
105.4739190741426,19.04047907330309,0
105.4734323510585,19.04140211607987,0
105.4728828753333,19.04207457808465,0
105.47128579197,19.04315140360661,0
105.470088796567,19.0441667190704,0
105.4681826502159,19.04535491533441,0
105.4676432893633,19.04595996208658,0
105.4673237279563,19.04654976681503,0
105.4673261059329,19.04725909966879,0
105.4670805901893,19.04774033431861,0
105.4668605010787,19.04841455429878,0
105.46634193325,19.0488738019659,0
105.4657226585222,19.04929654459025,0
105.4644502925431,19.04931574130189,0
105.4642152276916,19.04979759123342,0
105.4643921971081,19.05088602186431,0
105.4642588983713,19.05193194933217,0
105.4632622051315,19.05301261271508,0
105.4620238321494,19.05404669324267,0
105.4603509529312,19.05530347303083,0
105.4590632569753,19.0589153177896,0
105.4570946429817,19.06503913102264,0
105.4536917368741,19.0737538901038,0
105.4546724961441,19.07378943133424,0
105.4552677686473,19.07396685929205,0
105.455913298831,19.0748165817332,0
105.4566043913405,19.07621619941269,0
105.4572327325915,19.07592522549887,0
105.4572704901628,19.07591273492242,0
105.4576373206708,19.07575030189909,0
105.4577571636287,19.07656687085725,0</coordinates>
        </LineString>
    </Placemark>
</Document>
</kml>