<?xml version="1.0" encoding="UTF-8"?>
<kml xmlns="http://www.opengis.net/kml/2.2">
<Document>
    <name>NA_NLC_NGHI_YEN-NA_NLC_NGHI_LOC.kml</name>
    <Placemark>
        <name>Tuyen_Cap_Chuan_Hoa</name>
        <LineString>
            <tessellate>1</tessellate>
            <coordinates>105.6473691455273,18.85673471422101,0
105.6483843082671,18.85646123793975,0
105.6491446679531,18.85675832439926,0
105.6495808816943,18.85700694266199,0
105.6480180325705,18.8586693589155,0
105.6465832845355,18.8600143926488,0
105.6436519293196,18.86145805699761,0
105.6353172372815,18.86468343517596,0
105.6269050063198,18.86741739146867,0
105.6246743368713,18.8684809963868,0
105.6239797020555,18.86883115903614,0
105.6231479471536,18.8683099778186,0
105.6224596179295,18.86655701820526,0</coordinates>
        </LineString>
    </Placemark>
</Document>
</kml>