<?xml version="1.0" encoding="UTF-8"?>
<kml xmlns="http://www.opengis.net/kml/2.2">
<Document>
    <name>NA_NLC_NGHI_HOP_2-NA_NLC_NGHI_HOP.kml</name>
    <Placemark>
        <name>Tuyen_Cap_Chuan_Hoa</name>
        <LineString>
            <tessellate>1</tessellate>
            <coordinates>105.698915096652,18.80895559887129,0
105.6988485526024,18.80876807656504,0
105.6988352972565,18.80824078696848,0
105.6993397402283,18.80802110747491,0
105.6997083380584,18.80791117079046,0
105.6999865915467,18.80781970726107,0
105.7006029112518,18.80777156069886,0
105.700984093801,18.80776051189588,0
105.7012040801784,18.80777253801403,0
105.7011964347432,18.80848102967446,0
105.701115942256,18.8091966855955,0
105.7009648406114,18.81054975190895,0
105.7014657113225,18.81053926843567,0
105.7017444014399,18.81045083595095,0
105.7018971599211,18.81051423838896,0
105.7022427573536,18.81055904909283,0
105.7027850632994,18.81072350883979,0
105.7036457947073,18.81096766127254,0
105.703673095965,18.81147703239743,0
105.7037536386876,18.81210741244504,0
105.7038238134467,18.81262259801995,0
105.7038915402708,18.81350966594202,0
105.7039699289173,18.81426077482556,0
105.7040660573779,18.81481908167613,0
105.7042483185547,18.8147201002154,0
105.7041625440982,18.81452200750417,0</coordinates>
        </LineString>
    </Placemark>
</Document>
</kml>