<?xml version="1.0" encoding="UTF-8"?>
<kml xmlns="http://www.opengis.net/kml/2.2">
<Document>
    <name>NA_VIH_HUNG_CHINH-NA_HNN_HUNG_NGUYEN_AGG.kml</name>
    <Placemark>
        <name>Tuyen_Cap_Chuan_Hoa</name>
        <LineString>
            <tessellate>1</tessellate>
            <coordinates>105.6446441531114,18.66678936919896,0
105.6448019775858,18.66723082974382,0
105.6420740742288,18.66805124517801,0
105.640178406706,18.66873895890323,0
105.6390590698667,18.66911610265418,0
105.638930456108,18.66891979732109,0
105.6356163945966,18.66998038630149,0
105.6342584892237,18.67038005377126,0
105.6343055402058,18.67061681369367,0
105.633659114742,18.67073123431179,0
105.6337251227519,18.67092234458798,0</coordinates>
        </LineString>
    </Placemark>
</Document>
</kml>