<?xml version="1.0" encoding="UTF-8"?>
<kml xmlns="http://www.opengis.net/kml/2.2">
<Document>
    <name>NA_DCU_DIEN_TRUONG_2-NA_DCU_DIEN_TRUONG.kml</name>
    <Placemark>
        <name>Tuyen_Cap_Chuan_Hoa</name>
        <LineString>
            <tessellate>1</tessellate>
            <coordinates>105.6007837313822,19.09072638437162,0
105.6010156342548,19.09086545280399,0
105.6012503545132,19.09096600232386,0
105.6010321724136,19.09154480975204,0
105.6008624063536,19.09210183138457,0
105.6018766132002,19.09377437870246,0
105.6044631575794,19.09760288377238,0
105.6069092985318,19.10068041432605,0
105.6079403964314,19.10194163266804,0
105.6114082059847,19.09933104796607,0
105.6109149871007,19.09862867840909,0
105.6109874979307,19.09853734554786,0</coordinates>
        </LineString>
    </Placemark>
</Document>
</kml>