<?xml version="1.0" encoding="UTF-8"?>
<kml xmlns="http://www.opengis.net/kml/2.2">
<Document>
    <name>NA_DCU_DIEN_THAI-NA_YTH_HOP_THANH.kml</name>
    <Placemark>
        <name>Tuyen_Cap_Chuan_Hoa</name>
        <LineString>
            <tessellate>1</tessellate>
            <coordinates>105.525678998159,19.00771843366431,0
105.5253575850717,19.00758186568733,0
105.5250539116025,19.0075530903141,0
105.5249906303427,19.00820698610316,0
105.5247258400189,19.00975813438563,0
105.5239459550978,19.00997497824271,0
105.5225733424247,19.01010780783804,0
105.5214533556525,19.01008823382997,0
105.5209138147366,19.0097662282593,0
105.5204946334192,19.0094143864877,0
105.5199666814368,19.00916315387256,0
105.5185305927203,19.00873839580852,0
105.5164833708635,19.00817251246671,0
105.5151673403171,19.00787609580228,0
105.5144929117818,19.00770274636182,0
105.513231442297,19.00749699199844,0
105.5105289647794,19.00709530174978,0
105.5087283104557,19.00664608776304,0
105.5080533744846,19.00649524314905,0
105.5078835683701,19.00649625530573,0
105.5079005202738,19.00667860772366,0
105.5077361475479,19.00699714657687,0
105.5070677652212,19.00823909471564,0
105.5070272402393,19.00855328570402,0
105.5069122600211,19.00858479628105,0
105.506883565644,19.00877474216409,0
105.5063402688809,19.00883413361858,0
105.5055065596687,19.00888890394123,0
105.5054496881973,19.00866442947257,0
105.5054464630587,19.00854326226249,0</coordinates>
        </LineString>
    </Placemark>
</Document>
</kml>