<?xml version="1.0" encoding="UTF-8"?>
<kml xmlns="http://www.opengis.net/kml/2.2">
<Document>
    <name>NA_VIH_NGHI_KIM_4-NA_VIH_DANG_THAI_MAI.kml</name>
    <Placemark>
        <name>Tuyen_Cap_Chuan_Hoa</name>
        <LineString>
            <tessellate>1</tessellate>
            <coordinates>105.6542449118574,18.72432134742839,0
105.6538668042691,18.72418323346778,0
105.6547603363984,18.72232445936922,0
105.65649689705,18.718898287193,0
105.6568022393587,18.71828738624824,0
105.6572223695002,18.71747782899519,0
105.6575271685392,18.71636104173429,0
105.6579190087188,18.71645085720051,0
105.6584009597056,18.71666319760336,0
105.6593480256211,18.71715452601865,0
105.6598553259304,18.71635330551112,0
105.6604068368977,18.715546559114,0
105.6607761687462,18.71500588491806,0
105.6612939306825,18.71413113802269,0
105.6616539313835,18.71361916502207,0
105.6619408461223,18.71321007600111,0
105.6621850486097,18.71298853562963,0
105.6625113673312,18.71286431070089,0
105.6634126843549,18.71305651357993,0
105.6645025865356,18.71326340389788,0
105.665200675808,18.71163878936088,0
105.6650542160497,18.71129996024263,0</coordinates>
        </LineString>
    </Placemark>
</Document>
</kml>