<?xml version="1.0" encoding="UTF-8"?>
<kml xmlns="http://www.opengis.net/kml/2.2">
<Document>
    <name>NA_DCU_DIEN_DOAI_2-NA_DCU_YEN_LY.kml</name>
    <Placemark>
        <name>Tuyen_Cap_Chuan_Hoa</name>
        <LineString>
            <tessellate>1</tessellate>
            <coordinates>105.5782211190012,19.1046294434274,0
105.5782875711282,19.10432293133989,0
105.5782020276961,19.10406678672709,0
105.5781115381903,19.10388241766577,0
105.5783539990023,19.1038627242667,0
105.5786201797261,19.10380429677473,0
105.5789696619132,19.10370625516623,0
105.5793076681534,19.10355394852701,0
105.5794930778567,19.10341477024019,0
105.5797439983897,19.10321295123333,0
105.5799554740309,19.10310472669471,0
105.5802753687402,19.1030149995991,0
105.5801260384722,19.10271923828672,0
105.579808512238,19.10227704549514,0
105.5795347239584,19.10179529726434,0
105.5788879343336,19.10045938672154,0
105.5784488184362,19.09959214904519,0
105.5779295138884,19.09854046793909,0
105.5774123524989,19.09758510952298,0
105.5773843816925,19.09736705845468,0
105.5770678387852,19.09675744653966,0
105.5767970326359,19.09618648750446,0
105.5766160078215,19.09580136598799,0
105.5768980511683,19.09566092399143,0
105.5775608799234,19.09545287896855,0
105.5786791938466,19.09499725831276,0
105.579027790291,19.09478396522506,0
105.5794805203221,19.09438493650514,0
105.5804298438624,19.09361836616551,0
105.5817806924522,19.09243933430816,0
105.582274167329,19.09184855197845,0
105.5828667664027,19.09095420256577,0
105.5827635241469,19.09083449534048,0
105.5836806066537,19.08941252797721,0
105.584911894996,19.08742222663283,0
105.5861617773554,19.08541662554991,0
105.5870027155921,19.08412260906687,0
105.5871989308416,19.08397676241196,0
105.5875480491752,19.08381886798136,0
105.5878817417871,19.08386582046286,0
105.5879496950217,19.08357134302732,0
105.5882440190678,19.08345421441304,0
105.5883052503462,19.08360307262104,0
105.5884959057389,19.08354796963709,0</coordinates>
        </LineString>
    </Placemark>
</Document>
</kml>