<?xml version="1.0" encoding="UTF-8"?>
<kml xmlns="http://www.opengis.net/kml/2.2">
<Document>
    <name>NA_TCG_THANH_MAI_2-NA_TCG_THANH_GIANG.kml</name>
    <Placemark>
        <name>Tuyen_Cap_Chuan_Hoa</name>
        <LineString>
            <tessellate>1</tessellate>
            <coordinates>105.3994878293739,18.65650328236825,0
105.3996257417206,18.6563538813696,0
105.3998027121415,18.65599719314916,0
105.4000302589412,18.65615344647814,0
105.4005213189555,18.65630983494369,0
105.4009726514116,18.65644929173256,0
105.401463040223,18.65669953771043,0
105.4026245786605,18.65739058266843,0
105.4035247412502,18.65795598178723,0
105.4037702370621,18.65813709745922,0
105.4045244499276,18.65857560881383,0
105.4047202439792,18.65868595634036,0
105.4057265043845,18.65910780051204,0
105.4080447451651,18.6600304806171,0
105.4086547421913,18.66027984981269,0
105.409749179563,18.6610084150394,0
105.4101055842068,18.66124219916047,0
105.4112503584003,18.66176708792712,0
105.412685746838,18.66242996013919,0
105.4133737352386,18.66303704251409,0
105.413998255607,18.66363789860225,0
105.4147662279627,18.66454387225049,0
105.4150553279003,18.66486751157002,0
105.4158662395932,18.66551448085336,0
105.4169875187269,18.66650587668535,0
105.4198922979867,18.66904732370585,0
105.4230701814471,18.6717284874176,0
105.4213921323888,18.67262689544096,0
105.4210764574117,18.67275699112416,0
105.4194467391066,18.67384619963357,0
105.4193576598125,18.67403610900206,0
105.4180892361472,18.67477659626401,0
105.4175700204852,18.67422497630254,0
105.4180931330787,18.67417508582534,0
105.418228091968,18.67419031223665,0</coordinates>
        </LineString>
    </Placemark>
</Document>
</kml>