<?xml version="1.0" encoding="UTF-8"?>
<kml xmlns="http://www.opengis.net/kml/2.2">
<Document>
    <name>NA_HMA_CN_HOANG_MAI-NA_HMA_QUYNH_LOC_3.kml</name>
    <Placemark>
        <name>Tuyen_Cap_Chuan_Hoa</name>
        <LineString>
            <tessellate>1</tessellate>
            <coordinates>105.738362728952,19.27425129032906,0
105.7384343469656,19.27431147025313,0
105.738563672532,19.27425101390308,0
105.73874847661,19.27415251251913,0
105.7388937375864,19.27408898199554,0
105.7389775467629,19.27407733121891,0
105.739165828396,19.27407807717059,0
105.7391138579406,19.27439809947464,0
105.7389915560361,19.27478374750603,0
105.7389130858736,19.27509270984472,0
105.7388245730236,19.27530699015147,0
105.7386343692254,19.27582403638111,0
105.7384687503029,19.27636594223339,0
105.7383279397065,19.27689997760001,0
105.7381243014536,19.27744467014105,0
105.7377771973668,19.27849224783431,0
105.7376459192605,19.27848573904335,0
105.7374410381294,19.27900263939768,0
105.7370550855106,19.28003737181509,0
105.7367530214572,19.28092130377267,0
105.7364519510986,19.28172871161054,0
105.7365567575327,19.28182066277943,0
105.7361955937963,19.2826613761285,0
105.7359956076757,19.28308704187723,0
105.7358792258601,19.28355590333179,0
105.7358493701027,19.28424004075326,0
105.7358128661148,19.28515693850539,0
105.7357076707104,19.28634862928687,0
105.7358234087292,19.28708980882246,0
105.7357480842669,19.28799590505107,0
105.7357659325053,19.28905755343237,0
105.735639025103,19.28974594581648,0
105.735452482939,19.28983233308609,0
105.7353704605175,19.29023407915758,0
105.7353274330327,19.29058223758661,0
105.7353848529936,19.29088047856938,0
105.7354814757367,19.29165099462112,0
105.7356061177309,19.29210733510175,0
105.7356039635737,19.29249140504491,0
105.7356284684908,19.29286986318566,0
105.7357265736733,19.29356653022293,0
105.7357164594527,19.29359717315457,0
105.7358153345078,19.29401853001005,0
105.7358116440908,19.29403046121665,0
105.7358690749534,19.29462715984001,0
105.7359478455058,19.29515934335728,0
105.7360059305701,19.29563922474901,0
105.7355252451233,19.29565803777317,0
105.7349981037978,19.29571511944229,0
105.7343329106962,19.29581606866807,0
105.7337817205538,19.2959143785138,0
105.7327672176858,19.29607914304002,0
105.7318798193635,19.29598067339402,0
105.7300007515868,19.29571302285404,0
105.7291092407684,19.295543956149,0
105.728089833636,19.29554945813779,0
105.7264363686187,19.29547490913586,0
105.7253550732842,19.29539899978366,0
105.725436408946,19.29484598177392,0
105.725595427858,19.29384405593683,0
105.7256287035833,19.29294439493369,0
105.7256669234154,19.29217262514703,0
105.7257196062352,19.29123984925156,0
105.7256225990148,19.29053438918693,0
105.7258168974441,19.29042633501505,0
105.7260159870928,19.29037741222243,0
105.7261592640577,19.29045873940747,0</coordinates>
        </LineString>
    </Placemark>
</Document>
</kml>