<?xml version="1.0" encoding="UTF-8"?>
<kml xmlns="http://www.opengis.net/kml/2.2">
<Document>
    <name>NA_DCU_DIEN_PHUC_2-NA_DCU_DIEN_CHAU.kml</name>
    <Placemark>
        <name>Tuyen_Cap_Chuan_Hoa</name>
        <LineString>
            <tessellate>1</tessellate>
            <coordinates>105.5896275252255,18.97496502759394,0
105.5899268240457,18.97477369244193,0
105.5900972535164,18.97451802474544,0
105.5897036858217,18.9744030819528,0
105.5898483402743,18.97406168300564,0
105.589650524617,18.97395962746948,0
105.5893043105539,18.97379292858059,0
105.5894029041939,18.97351935249674,0
105.5894855973357,18.97336533018452,0
105.5897612267382,18.97278318337693,0
105.5899474420179,18.97242502846359,0
105.59029150047,18.97261422780713,0
105.5906367782814,18.97276835763865,0
105.5911056964032,18.97299690512121,0
105.5914205183071,18.97231366965086,0
105.5918743655882,18.97148526889475,0
105.5929280087593,18.97148309371702,0
105.59377552486,18.97205014446302,0
105.5953030109723,18.97216399415565,0
105.596918774724,18.97250884261295,0
105.5971896488725,18.97083482424406,0
105.5984354607689,18.97095116322728,0
105.5998296267525,18.97097278347373,0
105.5996005950443,18.97382190850828,0
105.6008369180242,18.97392939142544,0
105.6005928804931,18.97707031103157,0
105.6002785987728,18.97695352855429,0</coordinates>
        </LineString>
    </Placemark>
</Document>
</kml>