<?xml version="1.0" encoding="UTF-8"?>
<kml xmlns="http://www.opengis.net/kml/2.2">
<Document>
    <name>NA_NLC_NGHI_THAI-NA_NLC_NGHI_THAI_2.kml</name>
    <Placemark>
        <name>Tuyen_Cap_Chuan_Hoa</name>
        <LineString>
            <tessellate>1</tessellate>
            <coordinates>105.7324233047059,18.71206838842654,0
105.7323488415876,18.71198693130329,0
105.732292336237,18.71189441972793,0
105.7319773396081,18.71197255661862,0
105.7316628488103,18.71216319127074,0
105.7312667263647,18.71259820522756,0
105.7309999602235,18.71290209041279,0
105.7306209966868,18.71329685509403,0
105.7306320431275,18.71329417866372,0
105.7306342382835,18.71329415673096,0
105.7303298015805,18.71358492866748,0
105.7301005398535,18.71381801126676,0
105.7298618484108,18.71404809582343,0
105.7295428188521,18.71376670588451,0
105.7295358482526,18.71365743178934,0
105.7291953225846,18.71404820250188,0
105.7290433235716,18.71419518302991,0
105.7289044393011,18.7143650737655,0
105.7287336901623,18.7145786991991,0
105.7285305266628,18.71482888667079,0
105.7283212450045,18.71509783028932,0
105.728148907494,18.71510365955876,0
105.7279369567632,18.71538224630815,0
105.7277358001351,18.71561029407088,0
105.727488524272,18.71595153901352,0
105.727304591434,18.7161779729183,0
105.7270984351027,18.71642576950691,0
105.7268785081577,18.71666213559937,0
105.7267259339336,18.71688852230353,0
105.7264852580614,18.71714448939088,0
105.7262894846588,18.71739804084373,0
105.7261201391571,18.71761139234957,0
105.7259621616998,18.717835367867,0
105.725752996572,18.71809564642182,0
105.7254695890551,18.71841406247947,0
105.7252384285471,18.71873519415875,0
105.724974681541,18.71911833055436,0
105.7248237022593,18.71927880085885,0
105.7246391767524,18.71942741031771,0
105.7244738081488,18.71965833670025,0
105.7241874379584,18.72013170275981,0
105.7239985301307,18.72039731505753,0
105.7236437376528,18.72084362886686,0
105.7235503724459,18.7210342254814,0
105.7233264439919,18.72143988744667,0
105.7231330221843,18.72180256501677,0
105.7229361688144,18.72207337421056,0
105.7227400434161,18.72247365717793,0
105.7225697071742,18.72290472851976,0
105.7226585176592,18.72300453254392,0
105.72245662657,18.72328671501248,0
105.7222928444189,18.72353336713961,0
105.7219245409276,18.72394955054482,0
105.7216588125673,18.72427642441173,0
105.7213453380222,18.72465453879961,0
105.7208877684172,18.72514364837846,0
105.7205439189633,18.7255210699309,0
105.7202193055993,18.72587247068414,0
105.7199923176978,18.72615051770336,0
105.7197783883992,18.72640104497459,0
105.7194685979412,18.72678508574776,0
105.7196769193268,18.72702549091391,0
105.7198951810393,18.7272334176431,0
105.7202047394266,18.72752476110148,0
105.7204956633757,18.72776917883965,0
105.7203523928188,18.7279576643668,0
105.7200386726028,18.72819378079238,0
105.7197851539137,18.72835647290372,0
105.7199223906382,18.72871902649415,0
105.7202704252477,18.7290186419478,0
105.720345577228,18.72886229995909,0
105.720852588431,18.72891112872314,0</coordinates>
        </LineString>
    </Placemark>
</Document>
</kml>