<?xml version="1.0" encoding="UTF-8"?>
<kml xmlns="http://www.opengis.net/kml/2.2">
<Document>
    <name>NA_NDN_NAM_CAT-NA_HNN_HUNG_DAO.kml</name>
    <Placemark>
        <name>Tuyen_Cap_Chuan_Hoa</name>
        <LineString>
            <tessellate>1</tessellate>
            <coordinates>105.5953017441382,18.65389454088606,0
105.5953290428426,18.65384544982454,0
105.5954981977814,18.65435282933779,0
105.5949966540829,18.65463490676021,0
105.5941045720629,18.65509121133457,0
105.59305150383,18.65556927552583,0
105.5920862142875,18.6559338411923,0
105.5922477671937,18.65650165622203,0
105.5928856189207,18.65870585273471,0
105.5931487138446,18.65964680012489,0
105.59362678797,18.66050270376411,0
105.594120213403,18.66117151699392,0
105.5947506296056,18.6618601710329,0
105.5952701757714,18.66264456030376,0
105.5948187423614,18.66336537529627,0
105.5964959858314,18.6650516772036,0
105.5982810990167,18.66785756949001,0
105.6004868753219,18.67271934788088,0
105.6010198331046,18.67411453281589,0
105.6008831046221,18.67411455983851,0
105.6005834185173,18.67400022127154,0
105.5997945176269,18.67367725825915,0
105.5998600515617,18.67401072141356,0
105.5997517111181,18.67487438517956,0
105.5986632309368,18.6746759839725,0
105.5977282840392,18.67505605403968,0
105.5970919406169,18.67541697014448,0
105.5957562836344,18.67618045650522,0
105.5954540856723,18.67728457261337,0
105.5953564744831,18.67768806627418,0
105.596068817286,18.67782404384333,0
105.5961898865596,18.67800559611117,0
105.5961991846026,18.67875651605971,0
105.5971224749492,18.67877628255432,0
105.5990204697498,18.67872333609961,0
105.6008356321292,18.67891566842025,0
105.60171097999,18.67902025505596,0
105.601813995072,18.67859812754259,0
105.6030026205583,18.67873015414185,0
105.6032200587761,18.67851937448754,0
105.605443233716,18.67865932570492,0
105.6062181224145,18.67860759469446,0
105.6072649158689,18.67823167198299,0
105.6077766742438,18.67764189817804,0
105.6074281267786,18.67745897305124,0
105.6070195307614,18.67751092777694,0</coordinates>
        </LineString>
    </Placemark>
</Document>
</kml>