<?xml version="1.0" encoding="UTF-8"?>
<kml xmlns="http://www.opengis.net/kml/2.2">
<Document>
    <name>NA_NLC_NGHI_KHANH-NA_NLC_NGHI_HOP.kml</name>
    <Placemark>
        <name>Tuyen_Cap_Chuan_Hoa</name>
        <LineString>
            <tessellate>1</tessellate>
            <coordinates>105.6970497276638,18.79509611586544,0
105.6972831838569,18.79516552037693,0
105.6974565581578,18.79522056700824,0
105.6975166831708,18.79501327606935,0
105.6975941446079,18.79503232405357,0
105.6976794059101,18.79479137138267,0
105.6977573858282,18.79446851463982,0
105.6978503257699,18.79422987092706,0
105.6982103339164,18.79432161984435,0
105.6986659790836,18.79446108427249,0
105.6987785831005,18.7943927257962,0
105.6988383759135,18.79454915723731,0
105.6989200229568,18.7949538321286,0
105.6989943287679,18.79541201873872,0
105.6990857541527,18.79583589157651,0
105.6991400066327,18.79615090331732,0
105.6992334879536,18.79657931493717,0
105.6993190390276,18.79697802588071,0
105.6993651700223,18.79730307479155,0
105.6994406546495,18.79768387772312,0
105.6994936002487,18.79799528160125,0
105.6995568868696,18.7983573794767,0
105.6996648739189,18.79885405491274,0
105.6997329156891,18.79924684315601,0
105.6998243120925,18.79961410462407,0
105.6999197815574,18.80011259338001,0
105.7000245856353,18.80073307443443,0
105.7001148612857,18.80120000840355,0
105.7002139320074,18.80171725729748,0
105.7002881860295,18.8021167057458,0
105.7002913219034,18.80212032210593,0
105.7003760533846,18.80261349016684,0
105.7004585393992,18.80303225933331,0
105.7005406461589,18.80351186787182,0
105.70061273126,18.80399520258127,0
105.7006745974505,18.80438412917731,0
105.7007047428384,18.80459521442075,0
105.7010010920477,18.80465314741348,0
105.7010856323376,18.80545416234528,0
105.7011844408156,18.80627876987658,0
105.7012031986033,18.80704805623042,0
105.7012168669911,18.8078059049164,0
105.7011898208026,18.80825989094214,0
105.7011608811256,18.80890295771236,0
105.7011158734889,18.80932049059528,0
105.7010591455697,18.80987225641153,0
105.7009543844653,18.81054507260466,0
105.7013605847528,18.81055807379841,0
105.7016530759571,18.81055389312728,0
105.70164915291,18.81042877483654,0
105.7020713453954,18.81042965269954,0
105.7023783137813,18.81051492477534,0
105.7028363692746,18.81066194233411,0
105.7031726106872,18.81077251522519,0
105.7034953759138,18.81086228534849,0
105.7036900125232,18.81096449461676,0
105.7036302399948,18.8112314198634,0
105.7036891390801,18.8117834670524,0
105.7037411214424,18.81226583807051,0
105.7037910936567,18.81263734450485,0
105.7038397766733,18.81298914311009,0
105.7038683113949,18.81331697144554,0
105.7038882300224,18.81358949121343,0
105.7039199211877,18.81395373102654,0
105.7039702388756,18.81428259089525,0
105.7040021691411,18.81451734867543,0
105.7040712574879,18.814745031568,0
105.7040984548654,18.81468568876133,0
105.7041261738775,18.81461391351876,0
105.7041402536381,18.81450106651631,0</coordinates>
        </LineString>
    </Placemark>
</Document>
</kml>