<?xml version="1.0" encoding="UTF-8"?>
<kml xmlns="http://www.opengis.net/kml/2.2">
<Document>
    <name>NA_DCU_DIEN_LOC-NA_DCU_DIEN_AN.kml</name>
    <Placemark>
        <name>Tuyen_Cap_Chuan_Hoa</name>
        <LineString>
            <tessellate>1</tessellate>
            <coordinates>105.5963056618255,18.88110635196558,0
105.596180648296,18.88093098825075,0
105.5964556864272,18.88082408646305,0
105.5967122498545,18.88067460809516,0
105.5971718327912,18.88052609333936,0
105.5978102284559,18.88028118484121,0
105.5987059029668,18.87992788139952,0
105.5991655679046,18.87972159831622,0
105.5998407789965,18.87945784820124,0
105.5999948720638,18.87976299442376,0
105.6001504559642,18.88000167567757,0
105.5998095409655,18.88022098952483,0
105.5994791580264,18.88041850134787,0
105.5995172370853,18.88055700979391,0
105.5997700202027,18.88087691724002,0
105.600028297046,18.88124883616085,0
105.5999100211239,18.88155751166869,0
105.5997467372517,18.88226161740662,0
105.599594682705,18.88252839277349,0
105.5995865235715,18.88286722310308,0
105.5995335873383,18.88322051471633,0
105.5989399674943,18.88393857808456,0
105.5988139932694,18.88480086476128,0
105.5987705464418,18.8858522790882,0
105.5987329078651,18.88789598614395,0
105.5987188358025,18.88826574718763,0
105.5986140314148,18.88917040286584,0
105.5985514672317,18.88965587857126,0
105.5988711116321,18.88976379486153,0
105.5991478235987,18.8899673990852,0
105.5992939578452,18.8901855499752,0
105.5992070864858,18.89060203316902,0
105.598963102861,18.89154978477123,0
105.5988370096894,18.89208980185688,0
105.5988019815179,18.8923545385253,0
105.5989071696457,18.89315108891457,0
105.5989624849594,18.89368958914795,0
105.5989599766954,18.89405877825533,0
105.5992924459416,18.89405468408479,0
105.5995527235287,18.8939739699836,0
105.6004782719239,18.8941982243901,0
105.6009248711767,18.89423177826496,0
105.6016872484791,18.89414762365098,0
105.6019251592734,18.89538865533609,0
105.6020373649898,18.89593670521604,0
105.6023991011969,18.89763822966756,0
105.602475733235,18.89810857477193,0
105.6029028016308,18.89936633367702,0
105.6026530678318,18.8995218610522,0
105.6030086853454,18.90045082210098,0
105.603419859693,18.90171121022445,0
105.6041964945947,18.90448891947472,0
105.6043323034822,18.90482445821954,0
105.6042399218771,18.90483033170652,0</coordinates>
        </LineString>
    </Placemark>
</Document>
</kml>