<?xml version="1.0" encoding="UTF-8"?>
<kml xmlns="http://www.opengis.net/kml/2.2">
<Document>
    <name>NA_QLU_QUYNH_TAN-NA_QLU_QUYNH_TAN_2.kml</name>
    <Placemark>
        <name>Tuyen_Cap_Chuan_Hoa</name>
        <LineString>
            <tessellate>1</tessellate>
            <coordinates>105.664756219966,19.22159489857536,0
105.6647552758509,19.22159635975585,0
105.6646411986352,19.22154292390535,0
105.6649537307833,19.2224018037182,0
105.6645411272896,19.22270643579485,0
105.6642056065604,19.2227997498182,0
105.6638684246472,19.22290363102525,0
105.6629327069853,19.22321586357562,0
105.6616495671284,19.22366156842417,0
105.6608027088697,19.22390750012432,0
105.6597745789491,19.22422115662142,0
105.6590533904122,19.22442625545335,0
105.6582362997631,19.22467191987553,0
105.657015664983,19.22500225915522,0
105.6561881410263,19.22525402618356,0
105.65434545005,19.22575008681306,0
105.6527866348695,19.22640157301351,0
105.6511127728204,19.22710544007039,0
105.6507394161994,19.22722680398406,0
105.6507530914596,19.22726335083486,0
105.6493865851896,19.22543549939854,0
105.6474508664781,19.22526077186355,0
105.6470395376347,19.22351325968784,0
105.6436587184822,19.22599698059511,0
105.6436954196111,19.22644090789922,0
105.6437562110934,19.22662083254493,0
105.6442827783338,19.22788275743806,0
105.6445860617264,19.22850995875286,0
105.6449137049057,19.22934607571215,0
105.6460790475042,19.23103189422806,0
105.6456480715889,19.23211793005837,0
105.64487483852,19.23371472735868,0
105.644413785576,19.23442555975633,0
105.6441358430734,19.23462956681645,0
105.6441343804951,19.23462850422578,0
105.6439976806934,19.23460460618219,0</coordinates>
        </LineString>
    </Placemark>
</Document>
</kml>