<?xml version="1.0" encoding="UTF-8"?>
<kml xmlns="http://www.opengis.net/kml/2.2">
<Document>
    <name>NA_VIH_NGUYEN_TRAI-NA_VIH_QUAN_BAU.kml</name>
    <Placemark>
        <name>Tuyen_Cap_Chuan_Hoa</name>
        <LineString>
            <tessellate>1</tessellate>
            <coordinates>105.67121,18.70699,0
105.6725,18.70468,0
105.67217,18.70456,0
105.67496,18.69903,0
105.6749510516311,18.69902763925502,0
105.6749515074683,18.69903612395225,0
105.6746317679375,18.69900492855901,0
105.674006241429,18.7002523890853,0
105.6736878793906,18.70002363648465,0
105.6737056425581,18.70002340585391,0
105.6736969783492,18.70001407264769,0
105.6737058551034,18.70001395747006,0
105.6736969783492,18.70001407264769,0</coordinates>
        </LineString>
    </Placemark>
</Document>
</kml>