<?xml version="1.0" encoding="UTF-8"?>
<kml xmlns="http://www.opengis.net/kml/2.2">
<Document>
    <name>NA_DCU_DIEN_TRUNG-NA_DCU_DIEN_BINH.kml</name>
    <Placemark>
        <name>Tuyen_Cap_Chuan_Hoa</name>
        <LineString>
            <tessellate>1</tessellate>
            <coordinates>105.6214263543,18.91686264168991,0
105.6209573964855,18.91678937473587,0
105.6209274144988,18.91698554458892,0
105.6208431259872,18.91696948611789,0
105.6206946634755,18.91739701758643,0
105.6159340444321,18.91673475254279,0
105.6143912837033,18.9165187678964,0
105.6121075109967,18.91639989523813,0
105.6113265993976,18.91624911300231,0
105.6111934821415,18.91613121207667,0
105.6100019393926,18.91583821742812,0
105.6096423408019,18.91581636753649,0
105.6081119983044,18.91542176682297,0
105.607737091904,18.91533676340596,0
105.6073815909629,18.91540723359654,0
105.6080098591363,18.91747815235487,0
105.6088241885342,18.9204802068085,0
105.6089771007801,18.92118395670355,0
105.6089817792289,18.92183774091678,0
105.6089109665675,18.92222756716233,0
105.6087237322001,18.92214494526283,0
105.6082955001329,18.92209254953579,0
105.6079793851244,18.92204745768648,0
105.6079333287833,18.92230574475681,0
105.607826808578,18.92251765746947,0
105.6077686573309,18.92283471452644,0
105.6058713259615,18.92243765558049,0
105.605778039503,18.92303294461252,0</coordinates>
        </LineString>
    </Placemark>
</Document>
</kml>