<?xml version="1.0" encoding="UTF-8"?>
<kml xmlns="http://www.opengis.net/kml/2.2">
<Document>
    <name>NA_DCU_DIEN_THANH-NA_DCU_DIEN_CHAU.kml</name>
    <Placemark>
        <name>Tuyen_Cap_Chuan_Hoa</name>
        <LineString>
            <tessellate>1</tessellate>
            <coordinates>105.6108932280493,18.97622201539565,0
105.610997317016,18.97621961929319,0
105.611009551085,18.97724821682781,0
105.6096086340675,18.97742930600356,0
105.6087009867443,18.97756789358563,0
105.6075880754769,18.97763789857755,0
105.6060155546896,18.977585469515,0
105.603866654563,18.97746370999065,0
105.6010156008099,18.97744472552648,0
105.6005659528446,18.9772443618705,0
105.6005708179046,18.97688649292403,0
105.6002694780124,18.97692608957206,0</coordinates>
        </LineString>
    </Placemark>
</Document>
</kml>