<?xml version="1.0" encoding="UTF-8"?>
<kml xmlns="http://www.opengis.net/kml/2.2">
<Document>
    <name>NA_NDN_HUNG_TIEN_2-NA_NDN_HONG_LONG.kml</name>
    <Placemark>
        <name>Tuyen_Cap_Chuan_Hoa</name>
        <LineString>
            <tessellate>1</tessellate>
            <coordinates>105.5339273437858,18.67189758455097,0
105.5337841808796,18.67190393714441,0
105.5336681753397,18.67194935818067,0
105.5335997790098,18.67179054331548,0
105.5332655087113,18.67117561075435,0
105.532844401896,18.67067851746194,0
105.5326868221164,18.67037835499185,0
105.5324139073491,18.67014680072329,0
105.5321751907468,18.67017189372514,0
105.5316447839141,18.67001688879355,0
105.5316152796149,18.67000037186625,0
105.531137175858,18.66997273777275,0
105.5308471620083,18.66992128117287,0
105.5273931473494,18.6705889452249,0
105.5263608321548,18.67064516610261,0
105.5262324213982,18.67408794466546,0
105.5230033770204,18.67389895734303,0
105.5218808725476,18.67353432238436,0
105.521229095757,18.6735559209926,0
105.5207553505898,18.67344475165605,0
105.5205843597651,18.67439318256819,0
105.5198209360242,18.67694337453486,0
105.5207737907767,18.67717269618188,0
105.5209679156542,18.67803471411303,0
105.519315674901,18.67746490614124,0
105.519355237484,18.6773321412439,0</coordinates>
        </LineString>
    </Placemark>
</Document>
</kml>