<?xml version="1.0" encoding="UTF-8"?>
<kml xmlns="http://www.opengis.net/kml/2.2">
<Document>
    <name>NA_DCU_DIEN_XUAN-NA_DCU_CAU_BUNG.kml</name>
    <Placemark>
        <name>Tuyen_Cap_Chuan_Hoa</name>
        <LineString>
            <tessellate>1</tessellate>
            <coordinates>105.566747261294,19.01706534390661,0
105.5669913881254,19.01711724854337,0
105.5670073245379,19.01692350058751,0
105.5671032353375,19.01662809165193,0
105.5671157104434,19.01639779899254,0
105.5671665646251,19.01614442353262,0
105.5671881355706,19.01576910822061,0
105.5670428783362,19.01558230303175,0
105.5670548191391,19.01534323260333,0
105.5650441763938,19.0151962080742,0
105.5659335110041,19.00920291491244,0
105.5669466588767,19.0094425161646,0
105.5688293488887,19.0097949039065,0
105.5694439984104,19.00987816544686,0
105.5706067425435,19.010112718562,0
105.5724615096256,19.01047749756793,0
105.5734241161564,19.01059737426251,0
105.574023698407,19.01060589714987,0
105.5737984358722,19.01050683973439,0
105.5744989474957,19.01053598075039,0
105.5755577327136,19.01053947634965,0
105.5766137279772,19.01054603603249,0
105.5784289360899,19.01040570280754,0
105.5796618007009,19.01037795561452,0
105.5808998465395,19.01049707531429,0
105.5815253201007,19.01044047112084,0
105.5815733340641,19.01052680196231,0
105.5815672794419,19.01126154367436,0
105.5815837331674,19.0123570439632,0
105.5820572270691,19.01234467688294,0
105.5821287781536,19.01242438632498,0
105.5821413142414,19.01253113653219,0</coordinates>
        </LineString>
    </Placemark>
</Document>
</kml>