<?xml version="1.0" encoding="UTF-8"?>
<kml xmlns="http://www.opengis.net/kml/2.2">
<Document>
    <name>NA_DLG_THUAN_SON_2-NA_DLG_THUAN_SON.kml</name>
    <Placemark>
        <name>Tuyen_Cap_Chuan_Hoa</name>
        <LineString>
            <tessellate>1</tessellate>
            <coordinates>105.3080851501257,18.83740277405244,0
105.3079618216223,18.83743507336034,0
105.3077168587972,18.83744465564842,0
105.3075208202411,18.8372753414623,0
105.3074059093176,18.83709244926694,0
105.3071811710724,18.83742564790807,0
105.3070061924766,18.83807185929718,0
105.3061745078376,18.83773428864291,0
105.3055343928349,18.83899457598952,0
105.3052634173918,18.83888671230656,0
105.3047113531711,18.8388694888246,0
105.3038848410619,18.83876944879346,0
105.3032862500878,18.83880594158861,0
105.3032085356929,18.83940664994947,0
105.3032563042614,18.83970747001603,0
105.3031747114533,18.84005220678593,0
105.3031677436184,18.84133464164383,0
105.3030363103687,18.84160112971706,0
105.3030276723141,18.84175958985255,0
105.3028209146087,18.8425529371159,0
105.3027853660221,18.84273956913142,0
105.3028704387492,18.84349108264753,0
105.3030230638751,18.84377769204078,0
105.3030263139943,18.84407071487897,0
105.3031208225173,18.84435068076414,0
105.3031128179584,18.84460805537459,0
105.3032180951313,18.84498142302141,0
105.303119886471,18.84567002193777,0
105.303083637689,18.84596362597343,0
105.3029090545118,18.84658880215095,0
105.3027265741432,18.84706656896676,0
105.302834054168,18.84716587602124,0
105.3025548048755,18.8475160406404,0
105.3023538366747,18.84770165491588,0
105.3021155437535,18.84797419081024,0
105.3019998669309,18.84822235591402,0
105.3017421146783,18.84812136875282,0
105.3006998777011,18.84853272037534,0
105.3002650577749,18.84813710599303,0
105.2997876194722,18.84827923330874,0
105.299474889838,18.84828023901099,0
105.2993786932432,18.8482227164201,0</coordinates>
        </LineString>
    </Placemark>
</Document>
</kml>