<?xml version="1.0" encoding="UTF-8"?>
<kml xmlns="http://www.opengis.net/kml/2.2">
<Document>
    <name>NA_HNN_HUNG_NGUYEN_01R-NA_HNN_HUNG_NGUYEN.kml</name>
    <Placemark>
        <name>Tuyen_Cap_Chuan_Hoa</name>
        <LineString>
            <tessellate>1</tessellate>
            <coordinates>105.6278030945694,18.67080942258083,0
105.6278235015629,18.67085532065499,0
105.6279844827766,18.67084601855495,0
105.627987864717,18.67094785753211,0
105.6278217099712,18.67096774947309,0
105.6278296429255,18.67111713708709,0
105.6278311999585,18.67122030845274,0
105.6279559433388,18.6712116844051,0
105.6280854031449,18.67120155691785,0
105.6282096687415,18.67118532747297,0
105.6283498845357,18.67117262945817,0
105.6285000898946,18.6711695850203,0
105.6286182183268,18.6711609905604,0
105.6287513796224,18.6711501103276,0
105.628881104375,18.67113339234841,0
105.6290007035024,18.67112316722222,0
105.6291135802359,18.6711121652486,0
105.6292254221824,18.6710949364677,0
105.62933688656,18.67107326973853,0
105.6294543123181,18.67106043197673,0
105.6295650947389,18.6710457710062,0
105.6296824755467,18.67103323331013,0
105.6297920639808,18.67101015844196,0
105.6298971458183,18.67099323597346,0
105.6300573926249,18.67098393983642,0
105.6302054155791,18.67096384231991,0
105.6303113321987,18.67094270103388,0
105.6304284582079,18.67093103913681,0
105.6305308468061,18.67091947482238,0
105.6306376199455,18.67090697659729,0
105.6307384070331,18.67089318039356,0
105.6308403315697,18.67087854812495,0
105.6309231873006,18.67086298587149,0
105.6310061233987,18.67085310451991,0
105.6311019611548,18.67084295946796,0
105.6312009114903,18.67082850528415,0
105.631305228201,18.67081561121561,0
105.6314073251536,18.67080207298875,0
105.6315094797434,18.67078368170228,0
105.6316106823372,18.67077198410508,0
105.6316991962939,18.67076143364634,0
105.6318008811638,18.67075038089238,0
105.6319044399306,18.67073824365305,0
105.6320091801278,18.67073071530813,0
105.632112370849,18.67072112769903,0
105.6322127722486,18.67071029956855,0
105.6323284349449,18.67069529971465,0
105.6325139916047,18.67067275405445,0
105.6326283656866,18.67065725239477,0
105.6327264581685,18.67064631282219,0
105.6327990641688,18.67063521057455,0
105.6328814385859,18.67062410190907,0
105.6329614836971,18.67061331390413,0
105.6330478156702,18.67060334767526,0
105.6333216461357,18.67056907761836,0
105.6335102828613,18.67054685600022,0
105.6336025088611,18.67053564694694,0
105.6336841523105,18.67052786318102,0
105.6337678535129,18.67051829425324,0
105.6337541606971,18.67043993585179,0
105.6337397818541,18.670367748329,0
105.6337215463959,18.67028230659061,0
105.6337107518298,18.67021121818386,0
105.6338002245792,18.67019316529464,0
105.633890642316,18.67017955695911,0</coordinates>
        </LineString>
    </Placemark>
</Document>
</kml>