<?xml version="1.0" encoding="UTF-8"?>
<kml xmlns="http://www.opengis.net/kml/2.2">
<Document>
    <name>NA_YTH_PHUC_THANH-NA_YTH_VAN_THANH.kml</name>
    <Placemark>
        <name>Tuyen_Cap_Chuan_Hoa</name>
        <LineString>
            <tessellate>1</tessellate>
            <coordinates>105.4793084399657,19.01793602974508,0
105.4792087672799,19.01764395528993,0
105.4786700330442,19.01783061254032,0
105.4782849033207,19.01780482082593,0
105.4778111068518,19.01806940892094,0
105.4778519679129,19.01780213652114,0
105.4780975496271,19.02195498310618,0
105.4783148595225,19.02453112699325,0
105.4784209242938,19.02509146542264,0
105.477471949644,19.02507998277446,0
105.4761033486697,19.02560904223938,0
105.4763111610193,19.02628190996696,0
105.4754001972599,19.02663037446496,0
105.4758246525224,19.02741804238053,0
105.4740395550385,19.02777114280495,0
105.4733589190308,19.02663553678219,0</coordinates>
        </LineString>
    </Placemark>
</Document>
</kml>