<?xml version="1.0" encoding="UTF-8"?>
<kml xmlns="http://www.opengis.net/kml/2.2">
<Document>
    <name>NA_YTH_LY_THANH-NA_YTH_NAM_THANH.kml</name>
    <Placemark>
        <name>Tuyen_Cap_Chuan_Hoa</name>
        <LineString>
            <tessellate>1</tessellate>
            <coordinates>105.416394459257,18.94678648851636,0
105.4159427073959,18.94673913670011,0
105.4157796752161,18.94690690394792,0
105.4161801403604,18.94937362879309,0
105.4162182878996,18.94951054435529,0
105.4164770565991,18.94941221779678,0
105.4173099040512,18.94889399639945,0
105.4175035065319,18.94916742008516,0
105.4178376338939,18.94960016277489,0
105.4187051094884,18.94888732651403,0
105.4195054444426,18.9481870848354,0
105.4232901641358,18.94492079023057,0
105.4242032985457,18.94536319647814,0
105.4264194369778,18.9490909388909,0
105.4278743830249,18.95164859910594,0
105.4287439108123,18.95327041271172,0
105.4292189444882,18.95409636114998,0
105.4296101561128,18.95474154268005,0
105.4306073828734,18.95648917279874,0
105.4321527091521,18.95884022199268,0
105.4324222318129,18.96021517352031,0
105.4327550461752,18.96005661423618,0
105.4342818326694,18.95976428265538,0
105.4352409210723,18.95946067791722,0
105.436074667254,18.95926723415841,0
105.4365786441755,18.95903757442832,0
105.4397744031713,18.95764068323908,0
105.4402917437847,18.95754362064813,0
105.4405289802932,18.95754955533596,0
105.4422854352227,18.95737834362517,0
105.4422961291752,18.95828227979495,0
105.443158030304,18.95825359625571,0
105.4434655086554,18.95818683402133,0
105.4434569221734,18.95797073636593,0</coordinates>
        </LineString>
    </Placemark>
</Document>
</kml>