<?xml version="1.0" encoding="UTF-8"?>
<kml xmlns="http://www.opengis.net/kml/2.2">
<Document>
    <name>NA_QLU_CAU_GIAT_2-NA_QLU_QUYNH_HONG.kml</name>
    <Placemark>
        <name>Tuyen_Cap_Chuan_Hoa</name>
        <LineString>
            <tessellate>1</tessellate>
            <coordinates>105.6348778262542,19.14313716522649,0
105.6352071722467,19.14408328002991,0
105.6356420434463,19.14392901821955,0
105.6353920858348,19.14313341123522,0
105.6349860927118,19.14257997174976,0
105.6339156344221,19.14116177667348,0
105.6328629115682,19.14021292762964,0
105.6325050452936,19.14089712226578,0
105.6319977233439,19.14163406401151,0
105.6315078671419,19.14205395817221,0
105.6310080180734,19.14251700095389,0
105.6288396158355,19.14485620987805,0
105.6270957616694,19.14299873896082,0
105.6275327820901,19.14258810826184,0
105.6271071603616,19.14230862953028,0</coordinates>
        </LineString>
    </Placemark>
</Document>
</kml>