<?xml version="1.0" encoding="UTF-8"?>
<kml xmlns="http://www.opengis.net/kml/2.2">
<Document>
    <name>NA_THA_LANG_VAC - NA_THA_LONG_SON.kml</name>
    <Placemark>
        <name>Tuyen_Cap_Chuan_Hoa</name>
        <LineString>
            <tessellate>1</tessellate>
            <coordinates>105.4284626300368,19.31066674300409,0
105.4285399786479,19.31083287711016,0
105.4285051726085,19.31182671869932,0
105.4286420529855,19.31198139576929,0
105.4312539921595,19.31203361679858,0
105.4317907675072,19.31209902622265,0
105.4322782653112,19.31217510485347,0
105.4342632386086,19.31246074152921,0
105.4343660099442,19.31167556398662,0
105.4347627888288,19.31169984655112,0
105.4340731856507,19.3109467471221,0
105.4339592315206,19.30959619563201,0
105.4335732996293,19.30813139354395,0
105.4338733625334,19.30685748688542,0
105.4338110694697,19.30604774810241,0
105.4328730250628,19.30543025538751,0
105.4318227192446,19.30425508653817,0
105.4318088662022,19.30359357853064,0
105.4323659942477,19.30261159636053,0
105.4326749101154,19.30141822708458,0
105.4337071750326,19.29898230371233,0
105.4337592056754,19.29857874620705,0
105.4340721496506,19.29551291210522,0
105.4343357441377,19.29384279347232,0
105.4340459812712,19.29110198924085,0
105.4339674157136,19.29013395928365,0
105.4335227704815,19.28953922760544,0
105.4334166941759,19.28937601161273,0</coordinates>
        </LineString>
    </Placemark>
</Document>
</kml>