<?xml version="1.0" encoding="UTF-8"?>
<kml xmlns="http://www.opengis.net/kml/2.2">
<Document>
    <name>NA_NAD_NGHIA_KHANH_2-NA_NAD_NGHIA_KHANH.kml</name>
    <Placemark>
        <name>Tuyen_Cap_Chuan_Hoa</name>
        <LineString>
            <tessellate>1</tessellate>
            <coordinates>105.4027868372316,19.22091713978012,0
105.4022763879206,19.22151348824603,0
105.4014932489889,19.22001365816889,0
105.4012276703956,19.21945687695479,0
105.4010698515995,19.21898589381275,0
105.4007710014867,19.21836819519885,0
105.400232771113,19.21720187934141,0
105.4000915030893,19.21694147218062,0
105.3988140581012,19.21534738433389,0
105.3986286228249,19.21512171185038,0
105.3982454823976,19.21459213703226,0
105.3971504777999,19.2138349445102,0
105.396559186574,19.21337973229246,0
105.3964202807989,19.21334186088277,0
105.3956314319814,19.21321471889616,0
105.393643042663,19.21815589789045,0
105.392750160922,19.2174877057876,0
105.3911696224446,19.21534938595744,0
105.390261688942,19.21405417247306,0
105.3899785725166,19.21401715849652,0
105.3893508073888,19.2131791860543,0
105.3887899183622,19.21279300219329,0
105.3874551157443,19.21203005503161,0
105.3872345087695,19.21257914250093,0
105.3872956640819,19.21267525240459,0</coordinates>
        </LineString>
    </Placemark>
</Document>
</kml>