<?xml version="1.0" encoding="UTF-8"?>
<kml xmlns="http://www.opengis.net/kml/2.2">
<Document>
    <name>NA_QLU_QUYNH_YEN_2-NA_QLU_QUYNH_YEN.kml</name>
    <Placemark>
        <name>Tuyen_Cap_Chuan_Hoa</name>
        <LineString>
            <tessellate>1</tessellate>
            <coordinates>105.6752778366345,19.13393435159149,0
105.6754549764967,19.13389494215459,0
105.6756602043335,19.13429662791078,0
105.6750488421891,19.13460003112164,0
105.6742973446131,19.13351029490539,0
105.6715018796316,19.13470882729578,0
105.6718132467322,19.13530262128812,0
105.6735870497176,19.13736846013236,0
105.6763647609657,19.14034299377946,0
105.6778749879441,19.1411271678774,0
105.6788742827561,19.14157428792224,0
105.6799076869912,19.14169266729347,0
105.6799076841378,19.14327879467804,0
105.6809205644375,19.14323595034088,0
105.6821859806277,19.14309281351703,0
105.6828784610185,19.14381897948726,0
105.6828878134451,19.14393745422667,0</coordinates>
        </LineString>
    </Placemark>
</Document>
</kml>