<?xml version="1.0" encoding="UTF-8"?>
<kml xmlns="http://www.opengis.net/kml/2.2">
<Document>
    <name>NA_YTH_TANG_THANH_2-NA_YTH_TT_YEN_THANH.kml</name>
    <Placemark>
        <name>Tuyen_Cap_Chuan_Hoa</name>
        <LineString>
            <tessellate>1</tessellate>
            <coordinates>105.4690439587993,18.99268019080752,0
105.4689708810131,18.99224770725673,0
105.4648218100352,18.99226694379736,0
105.4645710238264,18.99470161643255,0
105.4645459933042,18.99523461927948,0
105.4646655175414,18.99525315894821,0
105.4646481657979,18.99550590731799,0
105.4646454474099,18.99587893871633,0
105.464618051508,18.99604910063891,0
105.4660424678394,18.99603194108854,0
105.4670105635529,18.99599514199151,0
105.4676427909691,18.99603234343947,0
105.4684439921784,18.99651450958476,0
105.4697529552216,18.99742763809188,0
105.4688693605791,18.99924674263929,0
105.4687378276863,18.99906406133887,0</coordinates>
        </LineString>
    </Placemark>
</Document>
</kml>