<?xml version="1.0" encoding="UTF-8"?>
<kml xmlns="http://www.opengis.net/kml/2.2">
<Document>
    <name>NA_QLU_QUYNH_VAN-NA_QLU_QUYNH_VAN_4.kml</name>
    <Placemark>
        <name>Tuyen_Cap_Chuan_Hoa</name>
        <LineString>
            <tessellate>1</tessellate>
            <coordinates>105.6656821929089,19.18480603996104,0
105.6655881321952,19.18486804367436,0
105.6661793492376,19.18550025163474,0
105.6665279160307,19.1858643260342,0
105.6668825980426,19.18621656528686,0
105.6672237772746,19.18659368507501,0
105.667572790219,19.18700766768542,0
105.6677990122617,19.18724145128131,0
105.6688347787585,19.18845306175809,0
105.6695174119773,19.18919629685974,0
105.6706384833587,19.19043941565031,0
105.6714814873515,19.19131937738156,0
105.671786136122,19.19167604087681,0
105.6719215993872,19.19185224912675,0
105.6722310293392,19.19173386819383,0
105.6730463462946,19.19271105391087,0
105.6736279463109,19.19349862837593,0
105.6754027014716,19.19580057981253,0
105.6759439250728,19.19643511324096,0
105.6765180969165,19.19705906796352,0
105.6771853616168,19.19792914508741,0
105.6767262956107,19.19821249853685,0
105.6761670043364,19.19853285871124,0
105.6745487945265,19.19955431038148,0
105.6741613747416,19.19885716773555,0
105.673536296335,19.19930025242038,0</coordinates>
        </LineString>
    </Placemark>
</Document>
</kml>