<?xml version="1.0" encoding="UTF-8"?>
<kml xmlns="http://www.opengis.net/kml/2.2">
<Document>
    <name>NA_NLC_NGHI_DIEN-NA_NLC_NGHI_DONG.kml</name>
    <Placemark>
        <name>Tuyen_Cap_Chuan_Hoa</name>
        <LineString>
            <tessellate>1</tessellate>
            <coordinates>105.6181225853034,18.78441407701736,0
105.6180010760703,18.78447010450206,0
105.6180796492331,18.78477235278507,0
105.6181801388265,18.78510020720952,0
105.6182890088396,18.78537422440764,0
105.6179192023208,18.78546254292524,0
105.6175722678054,18.78553982339387,0
105.6172150177788,18.78563231331376,0
105.6169247037655,18.78570034870613,0
105.6166303572961,18.78576752244989,0
105.6163909491157,18.78579328288278,0
105.616236769253,18.78545710094736,0
105.6161488213558,18.78514744385836,0
105.616037616333,18.78479357004848,0
105.6158842196424,18.78451706130949,0
105.6156713401554,18.78414775513229,0
105.6154091948019,18.78379885724224,0
105.6152530879431,18.78346907281235,0
105.6150818053155,18.78311329242434,0
105.614921425867,18.78273438099559,0
105.6147667265116,18.78238424768009,0
105.6146176315421,18.78204145735979,0
105.6144062741114,18.78156203633812,0
105.6141816842136,18.78154731594044,0
105.6138700704532,18.78157651026945,0
105.6135165959732,18.7816880887036,0
105.6133180291377,18.78174202458084,0
105.6131443765173,18.7818108463928,0
105.6126623067271,18.78198977559543,0
105.6122474674361,18.78212657456323,0
105.6120572848433,18.78217539175118,0
105.6118755684914,18.78219600384058,0
105.6116904721144,18.78220595243349,0
105.6114990251601,18.78222990086178,0
105.6113122437317,18.78227162318487,0
105.6110914060909,18.78230804139433,0
105.6109511023392,18.7823308927582,0
105.6107428587072,18.78236646835342,0
105.6105124606426,18.78240185169252,0
105.6103244251431,18.78244729138411,0
105.6101748921868,18.78234079458419,0
105.6100521605553,18.78239472099877,0
105.6098684978442,18.78240643181317,0
105.6096211838728,18.78245474142679,0
105.6093190534164,18.78250122653813,0
105.6087739273931,18.78255055579114,0
105.6083043935837,18.78261168920515,0
105.6078410815786,18.78266588126671,0
105.607588009932,18.7827104789191,0
105.6072080346812,18.78275183777802,0
105.6067978041395,18.78280734842259,0
105.6062942442943,18.78287013722782,0
105.6059361208433,18.78292116670409,0
105.6055784666908,18.78297724913836,0
105.6051481840167,18.78305567877448,0
105.6048602987545,18.78310145084161,0
105.6045477156455,18.78314542918175,0
105.6042267973266,18.7831929137238,0
105.603910728113,18.78325217236996,0
105.6036820505266,18.78327164074234,0
105.6034157552516,18.7833154458868,0
105.6031224477595,18.78336271309318,0
105.6028924293331,18.78334300195973,0
105.6028424203737,18.7837802992263,0
105.6025317545018,18.7837625602685,0
105.6022540693433,18.78373791237259,0
105.601935122905,18.78370344633049,0
105.6015461123808,18.78370161953594,0
105.6013072977901,18.78359335241703,0
105.6010579672354,18.78361687157394,0
105.6007304204455,18.78360244677816,0
105.6004050309569,18.78357321424368,0
105.6001723589833,18.78348687325265,0
105.6001667758275,18.78377520232556,0
105.5998607981324,18.78366122971866,0
105.5996979397419,18.78368366481584,0
105.5994998152636,18.78375139428885,0
105.5992715368778,18.78381384644912,0
105.599169193714,18.78385113613475,0
105.5990475399597,18.7838983206833,0
105.5988754249759,18.78379595690193,0
105.598607774248,18.783917182885,0
105.5982815749738,18.78401175455034,0
105.5979201858159,18.78411700890287,0
105.5976959664103,18.78419936622023,0
105.5972752720394,18.78426783640521,0
105.597288468429,18.78438005617269,0
105.5970381291562,18.78437751842375,0
105.5968056308301,18.78438477408902,0
105.5965963483217,18.7843819254804,0
105.5962928182426,18.78441849985329,0
105.5962838176847,18.78441916573583,0
105.5959036782339,18.78444672477278,0
105.5954553452711,18.78448645207448,0
105.5954421949238,18.78448612126892,0
105.5950215941207,18.78451550841271,0
105.5948124076403,18.78452639364378,0
105.5941855371619,18.78458993226827,0
105.5936521931269,18.78463310831773,0
105.5936301071593,18.78463742160449,0
105.5931340051401,18.78465874160129,0
105.5931246592291,18.78466143363676,0
105.5926268481647,18.78471016834365,0
105.592039751403,18.78479073592523,0
105.5916643164556,18.78483713591221,0
105.591299651307,18.78489754895087,0
105.5909410036441,18.78491835551129,0
105.5906608288513,18.78496010581912,0
105.5903642372124,18.78503539240964,0
105.5904097595369,18.78530413742195,0
105.5904089880624,18.78561153483474,0
105.5907800565813,18.78559039186751,0
105.5909704719135,18.78558316198368,0
105.5911708240498,18.78558046360816,0
105.5912106048592,18.78559186061785,0</coordinates>
        </LineString>
    </Placemark>
</Document>
</kml>