<?xml version="1.0" encoding="UTF-8"?>
<kml xmlns="http://www.opengis.net/kml/2.2">
<Document>
    <name>NA_DLG_NAM_SON_3-NA_DLG_BAC_SON.kml</name>
    <Placemark>
        <name>Tuyen_Cap_Chuan_Hoa</name>
        <LineString>
            <tessellate>1</tessellate>
            <coordinates>105.2682713978972,18.91656500664002,0
105.2676215671134,18.91627878407637,0
105.2669041300351,18.91670379874155,0
105.2654856255119,18.9178226504955,0
105.2646485531992,18.91694466368559,0
105.2638628301125,18.91737279950853,0
105.2627066346698,18.91647282850454,0
105.2613860706895,18.91597889295736,0
105.2608787377088,18.91575088509882,0
105.2599486655677,18.91557243970816,0
105.2590918949766,18.91521278755656,0
105.2583074790535,18.91453491214373,0
105.25813646622,18.91453379003361,0
105.2578973313793,18.914295238099,0
105.2570749999633,18.91352400251456,0
105.2568339804651,18.91322071929276,0
105.2566119551931,18.91314480885665,0
105.2565976052229,18.91314481015778,0
105.2562657224121,18.91241523447501,0
105.2562002506775,18.91234004462298,0
105.2557619061048,18.91253685751323,0
105.2550938528145,18.91290067066147,0
105.2547171999727,18.91303514511648,0
105.2548367069158,18.91329798375337,0
105.2548861460146,18.91363579106701,0
105.2548508058059,18.91381579692348,0
105.2545945788509,18.91390849485465,0</coordinates>
        </LineString>
    </Placemark>
</Document>
</kml>