<?xml version="1.0" encoding="UTF-8"?>
<kml xmlns="http://www.opengis.net/kml/2.2">
<Document>
    <name>NA_QLU_QUYNH_THANH-NA_QLU_QUYNH_THANH_3.kml</name>
    <Placemark>
        <name>Tuyen_Cap_Chuan_Hoa</name>
        <LineString>
            <tessellate>1</tessellate>
            <coordinates>105.6973793133887,19.16736473113673,0
105.6973295912545,19.16794465151639,0
105.6959617937245,19.16789180978577,0
105.695292692283,19.16775159784559,0
105.6933063677106,19.1669122551726,0
105.6922351181816,19.16643131715519,0
105.6912853031271,19.16614896687098,0
105.6901184601608,19.16592422111502,0
105.6888723548399,19.1657331731837,0
105.6882888413706,19.16582653870227,0
105.6876463271237,19.16599197682838,0
105.6870213497837,19.16621196714737,0
105.686297593453,19.16638969126221,0
105.6860760414235,19.16645946728412,0
105.6863681851369,19.16785519033968,0
105.6872655228478,19.16760396274218,0</coordinates>
        </LineString>
    </Placemark>
</Document>
</kml>