<?xml version="1.0" encoding="UTF-8"?>
<kml xmlns="http://www.opengis.net/kml/2.2">
<Document>
    <name>NA_NLC_BAI_LU-NA_NLC_NGHI_LOC.kml</name>
    <Placemark>
        <name>Tuyen_Cap_Chuan_Hoa</name>
        <LineString>
            <tessellate>1</tessellate>
            <coordinates>105.661889363067,18.88305530574508,0
105.6614742714867,18.88132186537976,0
105.6609691473707,18.87989503700081,0
105.6604249960169,18.87849721343533,0
105.6589727251929,18.87930096655803,0
105.6579843796003,18.87990362779367,0
105.6574793021659,18.88026650532477,0
105.6546586075815,18.87894320696581,0
105.6526030439599,18.87799964255613,0
105.6515661929753,18.877498101211,0
105.6504391503867,18.877016254418,0
105.6495794103423,18.87660962239498,0
105.6473084631193,18.87561854379271,0
105.6461247051396,18.87430442358851,0
105.6443640665299,18.87182856988718,0
105.6431651990008,18.86970011900403,0
105.6418226512715,18.86637646296157,0
105.6410434606868,18.86422862406829,0
105.6399950615854,18.86259973251818,0
105.6450816061981,18.86076377194239,0
105.6458362264094,18.86031664873384,0
105.6464665269687,18.8597182984059,0
105.6476066823236,18.85875177459401,0
105.6499316684554,18.8562090239804,0
105.6490740846473,18.85638163082474,0
105.6476963744541,18.85681637230595,0
105.6429393293376,18.85916078347602,0</coordinates>
        </LineString>
    </Placemark>
</Document>
</kml>