<?xml version="1.0" encoding="UTF-8"?>
<kml xmlns="http://www.opengis.net/kml/2.2">
<Document>
    <name>NA_NDN_KHANH_SON_2-NA_NDN_NAM_LOC.kml</name>
    <Placemark>
        <name>Tuyen_Cap_Chuan_Hoa</name>
        <LineString>
            <tessellate>1</tessellate>
            <coordinates>105.5011627737566,18.65731770277233,0
105.5012500682943,18.65729152165965,0
105.5013227219631,18.65750378051668,0
105.5017817732407,18.6572646905052,0
105.5019306872541,18.6573806237587,0
105.5031605204522,18.65650826080939,0
105.5030968384683,18.65637056874416,0
105.5034260721298,18.65608880236308,0
105.5037849835093,18.655647208258,0
105.5047967018976,18.65427659523901,0
105.5051675495286,18.65412662793953,0
105.5062180174577,18.65243701656892,0
105.5065576679134,18.65051370711946,0
105.5069586286088,18.6482068454744,0
105.5074396571104,18.64716201777479,0
105.5079917263985,18.6463606824783,0
105.5084942921495,18.64583660803731,0
105.5092424656756,18.64367641049981,0
105.5091114107517,18.64355352921818,0
105.5090618107403,18.64284415083636,0
105.5091553869898,18.64255329260476,0
105.5098409707151,18.64228877918518,0
105.5103042535245,18.64205718835332,0
105.5108756315296,18.6415814731266,0
105.5113689670425,18.64134840650274,0
105.5124108576653,18.64101813296223,0
105.5129299338235,18.64074863477386,0
105.5136590033978,18.64051687233063,0
105.5142690647745,18.64030329289501,0
105.5148675318846,18.63988382613755,0
105.5154220334589,18.6394306199643,0
105.5160607738932,18.63899264162519,0
105.5168996720821,18.63826076129569,0
105.5179431227847,18.63676480370664,0
105.5185319610761,18.63588685733071,0
105.5189497202584,18.6350457897822,0
105.5194178230734,18.63411911946904,0
105.520180715958,18.63309693214768,0
105.5208062320625,18.63252111676531,0
105.5213959921379,18.63190167297044,0
105.5213459743165,18.63182146756043,0</coordinates>
        </LineString>
    </Placemark>
</Document>
</kml>