<?xml version="1.0" encoding="UTF-8"?>
<kml xmlns="http://www.opengis.net/kml/2.2">
<Document>
    <name>NA_CCG_BONG_KHE-NA_CCG_PU_MAT_2.kml</name>
    <Placemark>
        <name>Tuyen_Cap_Chuan_Hoa</name>
        <LineString>
            <tessellate>1</tessellate>
            <coordinates>104.859880653883,19.06235347029374,0
104.8599823109825,19.06250156948864,0
104.8603580848705,19.06221390154686,0
104.8605953602065,19.06263361732845,0
104.8607210673392,19.0623981733435,0
104.8609743859204,19.06220987259406,0
104.8611559862462,19.06225385930457,0
104.8614411014725,19.06262362335006,0
104.8617681217052,19.06234683487094,0
104.8620968306258,19.06198340756313,0
104.8625415126691,19.06147916293819,0
104.8628365305928,19.06119255856082,0
104.863037214799,19.06146496378675,0
104.8636346814714,19.06207284263303,0
104.8643331578793,19.06279501698941,0
104.865049409573,19.06352963610582,0
104.8655443148136,19.06405628475907,0
104.8660034783284,19.06461525142372,0
104.8662953808576,19.0649346267695,0
104.8664115003798,19.06516392074676,0
104.8664040422051,19.06552037479758,0
104.8663999664591,19.06602235279136,0
104.8663189989116,19.06661540533701,0
104.8663307170762,19.06691253767285,0
104.8666700739734,19.06731060843682,0
104.8669173152007,19.06763597049708,0
104.8672750867479,19.06747499123608,0
104.8673229781267,19.06754513992476,0</coordinates>
        </LineString>
    </Placemark>
</Document>
</kml>