<?xml version="1.0" encoding="UTF-8"?>
<kml xmlns="http://www.opengis.net/kml/2.2">
<Document>
    <name>NA_THA_NGHIA_HOA - NA_THA_DONG_TAM.kml</name>
    <Placemark>
        <name>Tuyen_Cap_Chuan_Hoa</name>
        <LineString>
            <tessellate>1</tessellate>
            <coordinates>105.4413970549965,19.31133454947186,0
105.4413992791603,19.31180183284064,0
105.4395513820621,19.31176943067809,0
105.439330811818,19.31168904215268,0
105.4393971544747,19.31230581857138,0
105.4397452247676,19.31349502795928,0
105.4404196227091,19.31607892863545,0
105.440292167828,19.31627234984348,0
105.4401412601409,19.31678847394821,0
105.4403468515472,19.31669623104506,0
105.4412119591434,19.31679958952711,0
105.4411941169669,19.31730609996615,0
105.4414855265889,19.31788828811531,0
105.4415878921875,19.31806153619589,0
105.4418758236293,19.31844815899861,0
105.4439909110344,19.31700992707799,0
105.444561197331,19.31738028183664,0
105.4452053581501,19.31738028585715,0
105.4454213183956,19.31757648313979,0
105.4456426700785,19.31793525689189,0
105.4458806943786,19.31816193266907,0
105.4468754010543,19.31743536612928,0
105.4477848327585,19.3166485132809,0
105.448538313701,19.31613991858217,0
105.4492686451301,19.31710701543253,0</coordinates>
        </LineString>
    </Placemark>
</Document>
</kml>