<?xml version="1.0" encoding="UTF-8"?>
<kml xmlns="http://www.opengis.net/kml/2.2">
<Document>
    <name>NA_VIH_BUI_DUONG_LICH-NA_VIH_QUAN_BAU.kml</name>
    <Placemark>
        <name>Tuyen_Cap_Chuan_Hoa</name>
        <LineString>
            <tessellate>1</tessellate>
            <coordinates>105.66443,18.69582,0
105.66484,18.69477,0
105.66502,18.69477,0
105.66502,18.6945,0
105.66559,18.69448,0
105.6659,18.69425,0
105.66622,18.69392,0
105.66633,18.69362,0
105.66628,18.69244,0
105.67131,18.69196,0
105.67327,18.69185,0
105.67504,18.69184,0
105.67519,18.69789,0
105.6749676522663,18.69906766081486,0
105.6746422810654,18.69901462185926,0
105.6740122796152,18.70022806911456,0
105.6736971372538,18.69999770055597,0</coordinates>
        </LineString>
    </Placemark>
</Document>
</kml>