<?xml version="1.0" encoding="UTF-8"?>
<kml xmlns="http://www.opengis.net/kml/2.2">
<Document>
    <name>NA_TCG_THANH_HUNG-NA_DLG_THUAN_SON.kml</name>
    <Placemark>
        <name>Tuyen_Cap_Chuan_Hoa</name>
        <LineString>
            <tessellate>1</tessellate>
            <coordinates>105.3082592205478,18.82321427707905,0
105.3082260900758,18.8233039184209,0
105.3079109195835,18.8234153894216,0
105.3084452757926,18.82381314569905,0
105.308520322697,18.82405989120046,0
105.308533223804,18.82717791996595,0
105.3074726800331,18.82918739376775,0
105.3065153428512,18.83049309855819,0
105.304106222884,18.83440378111875,0
105.3031005209875,18.83706947142457,0
105.3033552401498,18.83796734976273,0
105.3034132798037,18.83948126414603,0
105.303416737068,18.84094985626704,0
105.3031074364721,18.84207997450018,0
105.3029768859516,18.84276989676118,0
105.3033032520545,18.84423626658407,0
105.303380432805,18.84520641765882,0
105.3031926941141,18.84611546032357,0
105.3029110070891,18.84698321880762,0
105.3027591238829,18.84727553545931,0
105.3023244143541,18.84766292283808,0
105.302047220767,18.84802809261926,0
105.3017665914487,18.84819775950171,0
105.3007920466436,18.84857495642944,0
105.3004468095767,18.84811296888573,0
105.2997071122425,18.84825323894894,0</coordinates>
        </LineString>
    </Placemark>
</Document>
</kml>