<?xml version="1.0" encoding="UTF-8"?>
<kml xmlns="http://www.opengis.net/kml/2.2">
<Document>
    <name>NA_NDN_NAM_DAN_2-NA_NAN_VAN_DIEN_2.kml</name>
    <Placemark>
        <name>Tuyen_Cap_Chuan_Hoa</name>
        <LineString>
            <tessellate>1</tessellate>
            <coordinates>105.4919766874984,18.70844742016962,0
105.4917052927228,18.70794613540803,0
105.4913885023971,18.70780527039096,0
105.4909543148283,18.70769334640502,0
105.4906520919643,18.70776206163454,0
105.4903383284858,18.70798226187521,0
105.4903622925573,18.70759269130445,0
105.4916521943156,18.70672826395578,0
105.4919847994927,18.7064462211344,0
105.4916480362852,18.70597434650254,0
105.4916557525837,18.70595841028982,0
105.493032013686,18.70441657231236,0
105.4942879444837,18.7029331557988,0
105.495640479643,18.70143396233442,0
105.495516429818,18.70128068236302,0
105.4955315305619,18.70127136678992,0
105.4961573973804,18.70202357285815,0
105.4966741893309,18.70337267015002,0
105.4970487194414,18.70343856716478,0
105.4975682957271,18.7041735184114,0
105.4984480830057,18.70541278047031,0
105.4984582173033,18.70555993899537,0
105.4992375849996,18.70628551080387,0
105.5001829664136,18.70748366305826,0
105.501535273878,18.70852823599634,0
105.5031191316664,18.70999898512775,0
105.5042461241888,18.71121113635648,0
105.5042633612254,18.71170535466608,0
105.5029894599973,18.71172726321434,0
105.50246385536,18.71207370121104,0
105.5024576392677,18.71212326769199,0
105.5024051754762,18.71218600046939,0
105.5023275253588,18.71220140195691,0</coordinates>
        </LineString>
    </Placemark>
</Document>
</kml>