<?xml version="1.0" encoding="UTF-8"?>
<kml xmlns="http://www.opengis.net/kml/2.2">
<Document>
    <name>NA_DCU_DIEN_CAT-NA_DCU_DIEN_THANG.kml</name>
    <Placemark>
        <name>Tuyen_Cap_Chuan_Hoa</name>
        <LineString>
            <tessellate>1</tessellate>
            <coordinates>105.5651996467844,18.96555155192294,0
105.564937627163,18.96549498919806,0
105.5649695024054,18.9651607956976,0
105.5649825634338,18.96492003550838,0
105.5643771259591,18.96483052461969,0
105.5638761811238,18.96476783103135,0
105.562899546483,18.964683967114,0
105.5623636214547,18.96456094102984,0
105.5618481873255,18.96432458755883,0
105.5608715443479,18.9642065665255,0
105.5597851806658,18.96393013732108,0
105.5584779441228,18.96368833296067,0
105.557276674593,18.96343845684413,0
105.556298718758,18.96325053205326,0
105.5552480766699,18.96301278187107,0
105.5547411135147,18.96325989038374,0
105.5545518073128,18.96330323251671,0
105.5535667480178,18.9630987206922,0
105.55239722556,18.96285366327252,0
105.5513726278194,18.96263881337573,0
105.5508909289046,18.96255918671135,0
105.5498205803844,18.9623649394594,0
105.5494564651656,18.96228550414021,0
105.5485187443232,18.96209616323909,0
105.5479157690706,18.96198805363308,0
105.5471232293985,18.96181785908394,0
105.5457155712868,18.96152323311482,0
105.5436637221976,18.96111236131731,0
105.5427179800844,18.96088958338258,0
105.5423273301463,18.96083774151415,0
105.5417979689777,18.96067533747013,0
105.5417946024161,18.96083958467112,0
105.5414169972424,18.96070865937784,0
105.5409404740506,18.96050555235323,0
105.5405652767208,18.9603090083668,0
105.5401603125143,18.95999929437473,0
105.5398417320687,18.95960993909737,0
105.5393703391698,18.95906725023325,0
105.538725346679,18.958325156691,0
105.5385631014458,18.95809753329603,0
105.5379666205676,18.95742552951137,0
105.5373523766298,18.95669950658315,0
105.5368976524715,18.956143619122,0
105.5363509275905,18.95549935177388,0
105.5365146247229,18.9554121660096,0
105.5361480772175,18.95496532651171,0
105.5359033027191,18.95457794385324,0
105.5361931575257,18.95440192542369,0</coordinates>
        </LineString>
    </Placemark>
</Document>
</kml>