<?xml version="1.0" encoding="UTF-8"?>
<kml xmlns="http://www.opengis.net/kml/2.2">
<Document>
    <name>NA_DCU_DIEN_AN-NA_DCU_DIEN_BINH.kml</name>
    <Placemark>
        <name>Tuyen_Cap_Chuan_Hoa</name>
        <LineString>
            <tessellate>1</tessellate>
            <coordinates>105.6042327458471,18.90482984721542,0
105.6043097752902,18.90484309763324,0
105.6051210717916,18.90778403331758,0
105.6061165147211,18.91172174533778,0
105.6066562569427,18.91162115491733,0
105.6072279087002,18.91320200271676,0
105.6071070357504,18.91384975076998,0
105.6076108513709,18.91536703717488,0
105.6073802321058,18.91541143508772,0
105.6080245361097,18.91754746904532,0
105.6088446611074,18.92052785573304,0
105.6089911564899,18.92121627189423,0
105.6089921918132,18.92184541180661,0
105.6088835003196,18.9222284997172,0
105.6086921051197,18.92214035904139,0
105.6079800771713,18.92206561405927,0
105.6079323832526,18.92233556003433,0
105.6078176781304,18.92251576449134,0
105.6077537439348,18.92283895182313,0
105.605873368746,18.92243625425619,0
105.6057785533312,18.92303352323058,0</coordinates>
        </LineString>
    </Placemark>
</Document>
</kml>