<?xml version="1.0" encoding="UTF-8"?>
<kml xmlns="http://www.opengis.net/kml/2.2" xmlns:gx="http://www.google.com/kml/ext/2.2" xmlns:kml="http://www.opengis.net/kml/2.2" xmlns:atom="http://www.w3.org/2005/Atom">
<Document>
	<name>NGHI_TRUONG - NGHI_AN.kml</name>
	<StyleMap id="m_ylw-pushpin003149">
		<Pair>
			<key>normal</key>
			<styleUrl>#s_ylw-pushpin003149</styleUrl>
		</Pair>
		<Pair>
			<key>highlight</key>
			<styleUrl>#s_ylw-pushpin_hl33149</styleUrl>
		</Pair>
	</StyleMap>
	<Style id="s_ylw-pushpin003149">
		<IconStyle>
			<scale>1.1</scale>
			<Icon>
				<href>http://maps.google.com/mapfiles/kml/pushpin/ylw-pushpin.png</href>
			</Icon>
			<hotSpot x="20" y="2" xunits="pixels" yunits="pixels"/>
		</IconStyle>
		<LineStyle>
			<color>ff00ffff</color>
			<width>2</width>
		</LineStyle>
	</Style>
	<Style id="s_ylw-pushpin_hl33149">
		<IconStyle>
			<scale>1.3</scale>
			<Icon>
				<href>http://maps.google.com/mapfiles/kml/pushpin/ylw-pushpin.png</href>
			</Icon>
			<hotSpot x="20" y="2" xunits="pixels" yunits="pixels"/>
		</IconStyle>
		<LineStyle>
			<color>ff00ffff</color>
			<width>2</width>
		</LineStyle>
	</Style>
	<Placemark>
		<name>NGHI_TRUONG - NGHI_AN</name>
		<styleUrl>#m_ylw-pushpin003149</styleUrl>
		<LineString>
			<tessellate>1</tessellate>
			<coordinates>
				105.6750598839111,18.77016791460829,0 105.6748616287876,18.7702146826124,0 105.6745105362108,18.77010565225147,0 105.6741789455691,18.77006405689677,0 105.6743815760066,18.76945661315519,0 105.6746060465029,18.76890058790803,0 105.6747922404629,18.76833136309545,0 105.6749733703655,18.76786881410393,0 105.6751415077941,18.76742116647403,0 105.6753151490346,18.7669416875422,0 105.6755849618196,18.76637400229368,0 105.675738023178,18.76597089516074,0 105.6758546387445,18.76570044893303,0 105.6759666504439,18.76537809507002,0 105.6760982185089,18.76503459072782,0 105.6761784033656,18.76483552478954,0 105.6762511500208,18.76465193032555,0 105.6763185027313,18.76446442716518,0 105.6764123764391,18.76423574080277,0 105.6765027859887,18.76399841313042,0 105.6766245925324,18.763693038982,0 105.6766789894265,18.76355693007998,0 105.6768016296287,18.76327419630856,0 105.6768885205309,18.76304090869773,0 105.6769682137631,18.76284159050348,0 105.6770535356966,18.7626352496159,0 105.6771112027671,18.76245559116162,0 105.6772143369254,18.76216954837546,0 105.6772657781422,18.76200253802645,0 105.6773297018562,18.76178496052002,0 105.6774490130469,18.76144419625366,0 105.6776298975728,18.76102602837788,0 105.6778124557054,18.7605810905559,0 105.6779928518664,18.76021633305402,0 105.6781272419846,18.75992740310391,0 105.6782296185688,18.75971449744879,0 105.6783814460828,18.75938247839755,0 105.6785122318417,18.75911553276969,0 105.6786117877062,18.75888903694912,0 105.6787710194062,18.758520778211,0 105.678963696881,18.75813328921769,0 105.6790620749315,18.7579181269093,0 105.6792676276769,18.75746964958638,0 105.6794313434656,18.75713897836358,0 105.6795625390081,18.75682884781174,0 105.6797898479533,18.75639941068546,0 105.6799786726525,18.75602944679477,0 105.6802017376738,18.75566234558625,0 105.6803778674896,18.75533288102629,0 105.6805357945066,18.75503561339892,0 105.6806395502635,18.75488513809898,0 105.6807972114944,18.75460095260739,0 105.6809740844923,18.75435534946887,0 105.6812099268638,18.75398191888096,0 105.6814247449512,18.75364447087033,0 105.6816470416589,18.75333518519897,0 105.681910610298,18.75299343957968,0 105.6821862380233,18.75265336195643,0 105.682356520239,18.75235847372628,0 105.6825348477465,18.75190563987345,0 105.6826232036943,18.75162126415473,0 105.6827619461795,18.75126320448839,0 105.6829860361196,18.75067036983302,0 105.6831776453878,18.75016163768048,0 105.6833374559617,18.74983087006922,0 105.6835846763831,18.74992786698124,0 105.6838864974486,18.75005603833799,0 105.6841629623173,18.75018239938976,0 105.6844482149531,18.75030663308115,0 105.6847283777792,18.7504218664219,0 105.6848694207494,18.74990205156844,0 105.6849818030791,18.74954022456711,0 105.6850971226743,18.74919685092112,0 105.6852064501409,18.7488727359823,0 105.6853039818675,18.74857640725664,0 105.6854042011221,18.74829336307215,0 105.6855422548499,18.74801074767274,0 105.6856437079953,18.74775441599054,0 105.6857720330068,18.74742255709617,0 105.6859315109636,18.74705704436674,0 105.6860727326136,18.74680589745733,0 105.686224452119,18.74657201771905,0 105.6861688226288,18.74628565743586,0 105.6862719077765,18.74595829308451,0 105.6863768999551,18.74560976831899,0 105.6865984484376,18.74571913293795,0 105.6868340161577,18.74576497453069,0 105.687050454187,18.74573330864335,0 
			</coordinates>
		</LineString>
		<atom:link rel="app" href="https://www.google.com/earth/about/versions/#earth-pro" title="Google Earth Pro 7.3.6.10441"></atom:link>
	</Placemark>
</Document>
</kml>
