<?xml version="1.0" encoding="UTF-8"?>
<kml xmlns="http://www.opengis.net/kml/2.2">
<Document>
    <name>NA_CCG_CON_CUONG-NA_CCG_PU_MAT_2.kml</name>
    <Placemark>
        <name>Tuyen_Cap_Chuan_Hoa</name>
        <LineString>
            <tessellate>1</tessellate>
            <coordinates>104.8806915199298,19.05118631401002,0
104.8807438611586,19.05150777738582,0
104.880395937192,19.05158334864878,0
104.877841895236,19.05200715250631,0
104.8762404042723,19.0522920222833,0
104.8750183821898,19.05249295497876,0
104.8743776062823,19.05254260433428,0
104.8737876539811,19.05258138118342,0
104.8731400265842,19.05275304580172,0
104.8717388862414,19.05313249906207,0
104.8707697216961,19.05336058059756,0
104.8701407538323,19.05369527030484,0
104.869537493153,19.05407765569247,0
104.869063871583,19.05441016019832,0
104.8687717865617,19.05464745686146,0
104.8683629253241,19.05492441563248,0
104.8679526246892,19.05523342243795,0
104.86768233647,19.0554801608201,0
104.867194717427,19.05589919137717,0
104.8667024457581,19.05644964392518,0
104.8661587749276,19.05699016789139,0
104.8655310445396,19.05768219038538,0
104.8649483190457,19.05836092612378,0
104.864436160644,19.05899404368045,0
104.8640479089177,19.05943142350393,0
104.8637039042251,19.05981785699426,0
104.8631507819981,19.06052145965855,0
104.8632916921134,19.06069539125106,0
104.8624023696911,19.06165722128172,0
104.8619996699563,19.06214200232449,0
104.8614289169544,19.06264505030859,0
104.8612803953158,19.06242082608668,0
104.8611538966135,19.06225731103133,0
104.8609591300424,19.06221236842572,0
104.8606987553431,19.06241476353274,0
104.8605998220017,19.06261705325574,0
104.8603424600824,19.06221860621016,0
104.8599665090523,19.0625019409206,0
104.8598689511026,19.06234639188244,0</coordinates>
        </LineString>
    </Placemark>
</Document>
</kml>