<?xml version="1.0" encoding="UTF-8"?>
<kml xmlns="http://www.opengis.net/kml/2.2">
<Document>
    <name>NA_QPG_KIM_SON-NA_QPG_QUE_PHONG.kml</name>
    <Placemark>
        <name>Tuyen_Cap_Chuan_Hoa</name>
        <LineString>
            <tessellate>1</tessellate>
            <coordinates>104.8994841157752,19.59137158450555,0
104.8996094287955,19.59147286410527,0
104.8996683071971,19.59157120978387,0
104.8995815272641,19.59185174794747,0
104.8994111898981,19.59197742699545,0
104.8997003255123,19.59244957214157,0
104.8996885227179,19.59269654291262,0
104.8988891598731,19.59285720546565,0
104.8985797803013,19.59297996207724,0
104.8981960041691,19.59320859055623,0
104.8986764882736,19.59358805218752,0
104.9005214393953,19.59417406540227,0
104.9016621773294,19.59457172716046,0
104.9033658525323,19.59515772375588,0
104.9045139822082,19.59544481010169,0
104.9065065160552,19.59655697063985,0
104.9082308587522,19.59761186129699,0
104.9095926807446,19.59841109358298,0
104.912017758492,19.59981575781923,0
104.9150729941226,19.60143976878627,0
104.916116075072,19.60213941466374,0
104.9177845926195,19.6041204147701,0
104.9188712955256,19.60471978843031,0
104.9205117800129,19.60376222257111,0
104.920711614402,19.60362400344495,0
104.9205472414522,19.60336721397216,0
104.92026707305,19.603520621813,0</coordinates>
        </LineString>
    </Placemark>
</Document>
</kml>