<?xml version="1.0" encoding="UTF-8"?>
<kml xmlns="http://www.opengis.net/kml/2.2">
<Document>
    <name>NA_YTH_DONG_THANH-NA_YTH_TANG_THANH.kml</name>
    <Placemark>
        <name>Tuyen_Cap_Chuan_Hoa</name>
        <LineString>
            <tessellate>1</tessellate>
            <coordinates>105.4149020675978,19.03180341934073,0
105.4150476748309,19.03199748632554,0
105.4151278297606,19.03191633494205,0
105.4153260787332,19.03170252552368,0
105.4154684171685,19.03151242871651,0
105.4162610826248,19.03141655950846,0
105.4185031522349,19.03078761491811,0
105.4224385151478,19.02977988578271,0
105.4245652983672,19.02923097283621,0
105.4276205876312,19.02845080847977,0
105.4283569613195,19.02808439524075,0
105.4297827445156,19.0271359069714,0
105.4306925114144,19.02722147618224,0
105.432424622742,19.02589664909691,0
105.4344255730939,19.02445920303692,0
105.435446486266,19.02402043128608,0
105.4365194052588,19.02419550955914,0
105.4372951577174,19.0236348731362,0
105.438213711723,19.02292350056541,0
105.4394014828088,19.02243721277157,0
105.4404851315426,19.02196190704976,0
105.4413515736157,19.02168426466401,0
105.4417820730048,19.02143164621325,0
105.4420265022512,19.02115262922148,0
105.442415217172,19.02031912492289,0
105.4430262956707,19.01913540458762,0
105.4430878659231,19.01878568886654,0
105.4436036827721,19.0179131202461,0
105.4434163561382,19.01749036508536,0</coordinates>
        </LineString>
    </Placemark>
</Document>
</kml>