<?xml version="1.0" encoding="UTF-8"?>
<kml xmlns="http://www.opengis.net/kml/2.2">
<Document>
    <name>NA_NDN_XUAN_LAM-NA_NDN_XUAN_LAM_2.kml</name>
    <Placemark>
        <name>Tuyen_Cap_Chuan_Hoa</name>
        <LineString>
            <tessellate>1</tessellate>
            <coordinates>105.5437153304326,18.64729981993034,0
105.5435070290997,18.64706381229238,0
105.5438243618715,18.64690234978795,0
105.5440491975205,18.6468667988636,0
105.5443290765962,18.64696804318271,0
105.5453408373238,18.64707371623744,0
105.5481488960172,18.64726259765681,0
105.5496223911504,18.64738459810568,0
105.5508892869696,18.64750932540584,0
105.5510056131435,18.64744837075001,0
105.5511830664686,18.6474438717301,0
105.5514859101433,18.64839534968294,0
105.5516537255085,18.64871463045675,0
105.5524955547553,18.64968810240959,0
105.5533264566126,18.65046432625881,0
105.5553341350562,18.65173881192491,0
105.5561521873267,18.65225420022408,0
105.5569942206454,18.65298830923528,0
105.5576005524242,18.65335112197836,0
105.557301648368,18.65416788014557,0
105.5570432722435,18.65459300645329,0
105.5566391848635,18.65508660155944,0
105.5562428572103,18.65576037045454,0
105.55598302346,18.65668144247234,0
105.5558844057322,18.65783356199418,0
105.5550123391322,18.65766834093484,0
105.5548944301092,18.65781792330107,0</coordinates>
        </LineString>
    </Placemark>
</Document>
</kml>