<?xml version="1.0" encoding="UTF-8"?>
<kml xmlns="http://www.opengis.net/kml/2.2">
<Document>
    <name>NA_NAD_NGHIA_BINH_3 - NA_NAD_TT_NGHIA_DAN.kml</name>
    <Placemark>
        <name>Tuyen_Cap_Chuan_Hoa</name>
        <LineString>
            <tessellate>1</tessellate>
            <coordinates>105.4866779869512,19.33318545329638,0
105.4868450370878,19.33350348602704,0
105.4877491464657,19.33292288073491,0
105.487387437719,19.33244183599247,0
105.4867946081597,19.33182086981908,0
105.4861802707709,19.33120763931336,0
105.4853101429397,19.33035288119612,0
105.4839232609875,19.32912494161283,0
105.4833459993087,19.32899232966191,0
105.4794054409336,19.32962375095485,0
105.4790935261178,19.32843485314231,0
105.4790317227951,19.32850075738741,0</coordinates>
        </LineString>
    </Placemark>
</Document>
</kml>