<?xml version="1.0" encoding="UTF-8"?>
<kml xmlns="http://www.opengis.net/kml/2.2">
<Document>
    <name>NA_QHP_YEN_HOP-NA_QHP_DONG_HOP_2.kml</name>
    <Placemark>
        <name>Tuyen_Cap_Chuan_Hoa</name>
        <LineString>
            <tessellate>1</tessellate>
            <coordinates>105.2729831833242,19.44807238894502,0
105.2725434180625,19.44771003258429,0
105.2739636506573,19.44696972732488,0
105.274868661816,19.44648390389267,0
105.2759490055922,19.44589554218833,0
105.2767036749537,19.4454593381168,0
105.2770894129953,19.44523929493718,0
105.2773584878815,19.44512263857805,0
105.277821778109,19.44497566402958,0
105.2784979761752,19.44476594483763,0
105.2789880082078,19.44462946062504,0
105.2794029233242,19.44451038618044,0
105.2797402291764,19.44439893584563,0
105.2800117479549,19.44426195493844,0
105.2800989328441,19.44422391209218,0
105.2800870741527,19.44398989271745,0
105.2803335973251,19.44384004433683,0
105.2806639634062,19.44357550197025,0
105.2809987070472,19.44321843163061,0
105.2812680875718,19.44298136718788,0
105.2815465929064,19.44270259945928,0
105.2818110966191,19.44238658199239,0
105.2819767240366,19.44206911134363,0
105.2821140031324,19.44183960067047,0
105.2822713457739,19.4413740798021,0
105.2824291062606,19.44083360318356,0
105.2825130414085,19.44049394334227,0
105.2826374024273,19.44012157926794,0
105.2829319880049,19.43905860849322,0
105.2831414261101,19.43825688825315,0
105.2833540921603,19.43757479951958,0
105.2834807482795,19.43702491355975,0
105.2837342422841,19.43603573039993,0
105.2839118536297,19.43513005488226,0
105.2840566410005,19.43417359299343,0
105.2842079578682,19.43316349073214,0
105.2842574044631,19.43259118823203,0
105.2843023034912,19.43221914818652,0
105.2842036858331,19.43166224529786,0
105.2841513672674,19.4312140106523,0
105.2839489854424,19.43051497043882,0
105.283578939453,19.42896021121038,0
105.2834389873481,19.42840887779672,0
105.2834046307979,19.42801508320877,0
105.2832983714123,19.42775596301318,0
105.2833042265406,19.42743586342599,0
105.2832381701691,19.42696290984325,0
105.2832155845925,19.42655181620895,0
105.2832082199673,19.42631513413933,0
105.2830659734006,19.42601821954712,0
105.2829941087916,19.42573923183797,0
105.282865652317,19.42536375868595,0
105.2827616637649,19.42501856743252,0
105.2826560060615,19.42458103471515,0
105.282503989587,19.42405682054091,0
105.2826475829712,19.42395236282697,0
105.2825835533135,19.42366562588577,0
105.2825247837474,19.42338402257577,0
105.2824984837528,19.42308390678062,0
105.282517017813,19.42282814953714,0
105.2826308761321,19.42257232991705,0
105.2827524550359,19.42216555206019,0
105.2829060739315,19.42176447984907,0
105.2829656188108,19.42153175324875,0
105.2830718944652,19.4210306707534,0
105.2832139280261,19.42065881147044,0
105.2832880234319,19.4201520098933,0
105.283378738648,19.41977773913774,0
105.2832522415804,19.41955931238751,0
105.2829017490658,19.41955241133186,0
105.2829920642384,19.41935237860932,0</coordinates>
        </LineString>
    </Placemark>
</Document>
</kml>