<?xml version="1.0" encoding="UTF-8"?>
<kml xmlns="http://www.opengis.net/kml/2.2">
<Document>
    <name>NA_VIH_BEN_THUY-NA_VIH_PHUONG_HOANG_2.kml</name>
    <Placemark>
        <name>Tuyen_Cap_Chuan_Hoa</name>
        <LineString>
            <tessellate>1</tessellate>
            <coordinates>105.70063,18.65268,0
105.70051,18.65259,0
105.69855,18.65496,0
105.69827,18.65477,0
105.69663,18.6568,0
105.69648,18.65677,0</coordinates>
        </LineString>
    </Placemark>
</Document>
</kml>