<?xml version="1.0" encoding="UTF-8"?>
<kml xmlns="http://www.opengis.net/kml/2.2">
<Document>
    <name>NA_CLO_CUA_LO_2-NA_CLO_NGHI_HUONG_2.kml</name>
    <Placemark>
        <name>Tuyen_Cap_Chuan_Hoa</name>
        <LineString>
            <tessellate>1</tessellate>
            <coordinates>105.73077,18.78162,0
105.73104,18.78126,0
105.73041,18.78068,0
105.7287,18.78412,0
105.72761,18.78624,0
105.72699,18.78734,0
105.72585,18.78887,0
105.72658,18.78926,0
105.72737,18.78896,0
105.7286,18.78977,0
105.72603,18.7932,0
105.72852,18.79503,0
105.73125,18.79155,0
105.73302,18.7928,0
105.73289,18.79297,0
105.73288,18.79298,0
105.73286,18.79298,0
105.73286,18.79296,0</coordinates>
        </LineString>
    </Placemark>
</Document>
</kml>