<?xml version="1.0" encoding="UTF-8"?>
<kml xmlns="http://www.opengis.net/kml/2.2">
<Document>
    <name>NA_DCU_DIEN_MY-NA_DCU_DIEN_HAI_2.kml</name>
    <Placemark>
        <name>Tuyen_Cap_Chuan_Hoa</name>
        <LineString>
            <tessellate>1</tessellate>
            <coordinates>105.6284084349307,19.06413204903596,0
105.6284817153146,19.064229760455,0
105.6294588888809,19.06365593037951,0
105.6287420202307,19.06235049357834,0
105.6277668533543,19.06071306047207,0
105.6271624377607,19.05963929817237,0
105.6261487933416,19.05767340618252,0
105.6259591834956,19.0571955058453,0
105.6255806891136,19.0564655807821,0
105.6247681183145,19.0550097253419,0
105.6237581432425,19.05308765964128,0
105.6232901097701,19.05206652113672,0
105.6231052772836,19.05167568356888,0
105.6235173061204,19.0515718160654,0
105.6239288936707,19.05143506981338,0
105.6246031027246,19.05128652783229,0
105.624831409855,19.0511661703933,0
105.6258923706644,19.05085954110571,0
105.6266753212675,19.05058290070953,0
105.6271437749021,19.05040282153012,0
105.6273595552598,19.05036719567385,0
105.6286110696007,19.04982610394064,0
105.6284902562633,19.04950767622985,0
105.6282331140985,19.04880249270531,0
105.6280336308136,19.0483893785146,0
105.6278604305509,19.04807971862617,0
105.6275948582282,19.04774207026999,0
105.6280430876113,19.04744621661641,0
105.6279537100854,19.04728104608305,0
105.6279692954548,19.04702348210202,0</coordinates>
        </LineString>
    </Placemark>
</Document>
</kml>