<?xml version="1.0" encoding="UTF-8"?>
<kml xmlns="http://www.opengis.net/kml/2.2">
<Document>
    <name>NA_HNN_HUNG_DONG-NA_VIH_DEN_ONG_HOANG_MUOI.kml</name>
    <Placemark>
        <name>Tuyen_Cap_Chuan_Hoa</name>
        <LineString>
            <tessellate>1</tessellate>
            <coordinates>105.639754539232,18.69710478252797,0
105.6397808589448,18.69718599379723,0
105.6397029956356,18.6974387334601,0
105.6392356469889,18.69730750450285,0
105.638669368013,18.69724064020702,0
105.6383993717793,18.69722984653477,0
105.638148470393,18.69720636992534,0
105.6379076387862,18.69710785870168,0
105.6376926064183,18.69704063859659,0
105.6374459183807,18.697043097201,0
105.6377450271234,18.69637275601583,0
105.6379445224584,18.69593195507574,0
105.6381307956066,18.69546692581514,0
105.6383656323357,18.69495153300794,0
105.6385156739752,18.6944697927542,0
105.6387890359913,18.69377745658947,0
105.6405367340014,18.68923031776836,0
105.6417046100132,18.68695116910903,0
105.6424784271667,18.68718582827642,0
105.6439522913989,18.68796588319091,0
105.6441028118025,18.6885358825256,0
105.6442731342395,18.68835517646385,0
105.6461228294207,18.68861889654153,0
105.6458163594716,18.68909143541863,0</coordinates>
        </LineString>
    </Placemark>
</Document>
</kml>