<?xml version="1.0" encoding="UTF-8"?>
<kml xmlns="http://www.opengis.net/kml/2.2">
<Document>
    <name>NA_NAD_NGHIA_HOI_2 - NA_NAD_NGHIA_BINH_3.kml</name>
    <Placemark>
        <name>Tuyen_Cap_Chuan_Hoa</name>
        <LineString>
            <tessellate>1</tessellate>
            <coordinates>105.4866626551264,19.33317805443594,0
105.4868315042017,19.33356297461248,0
105.4877855861175,19.33298648118107,0
105.4926508626549,19.33962514917158,0
105.495628742814,19.33731260358617,0
105.4969189350927,19.33631358158526,0
105.4978510529565,19.33537117835785,0
105.4991796322361,19.33467706505928,0
105.5003254035112,19.33367400942974,0
105.5009585395695,19.33281045723184,0
105.5014446433655,19.33236546652588,0
105.5018878071617,19.33226743757845,0
105.503922450866,19.33083484326617,0
105.5043998877653,19.33044072404127,0
105.5050465835874,19.32886603041907,0
105.5054322893361,19.32799149683121,0
105.5065245620863,19.32837404310322,0
105.5066532512564,19.32822189909034,0</coordinates>
        </LineString>
    </Placemark>
</Document>
</kml>