<?xml version="1.0" encoding="UTF-8"?>
<kml xmlns="http://www.opengis.net/kml/2.2">
<Document>
    <name>NA_YTH_MY_THANH-NA_YTH_YEN_THANH_2.kml</name>
    <Placemark>
        <name>Tuyen_Cap_Chuan_Hoa</name>
        <LineString>
            <tessellate>1</tessellate>
            <coordinates>105.4173190876635,18.91088432171014,0
105.4166717354804,18.91109558415892,0
105.4160793792131,18.91206639738095,0
105.4154107126795,18.91210038339394,0
105.4152580394623,18.91322070172428,0
105.4162309065584,18.91419440864574,0
105.4189400618723,18.9158316870182,0
105.4229538903943,18.91838221094816,0
105.4259762017964,18.92027582750185,0
105.4305549171602,18.92175849896697,0
105.4338073458065,18.92288501998381,0
105.4363435972035,18.92353270132435,0
105.4360647723139,18.92425769817326,0
105.4373735731277,18.92459155921983,0
105.4393447464249,18.92501869582436,0
105.4413791381149,18.92555678197346,0
105.4420358604498,18.9256891428281,0
105.4440513223151,18.92548119927098,0
105.4436076892763,18.92282640363709,0
105.4436769981508,18.92253377710334,0
105.4440648685452,18.91997007933422,0
105.4433577495367,18.91974773164059,0
105.4420681988494,18.91994155522356,0
105.4420793852482,18.92068759095564,0
105.4386959708085,18.92063742806345,0</coordinates>
        </LineString>
    </Placemark>
</Document>
</kml>