<?xml version="1.0" encoding="UTF-8"?>
<kml xmlns="http://www.opengis.net/kml/2.2">
<Document>
    <name>NA_NDN_NAM_LOC-NA_NDN_NAM_TAN.kml</name>
    <Placemark>
        <name>Tuyen_Cap_Chuan_Hoa</name>
        <LineString>
            <tessellate>1</tessellate>
            <coordinates>105.4796820031165,18.68237233040246,0
105.4804762134162,18.68286637686069,0
105.4821525074451,18.68144995828508,0
105.4839333772877,18.68008486056216,0
105.4852558716271,18.67911698756486,0
105.4866812899485,18.67794902968651,0
105.4878406555206,18.67684859955724,0
105.4882791663821,18.67662148008948,0
105.4888260423905,18.67664703938738,0
105.489147959931,18.67725283772349,0
105.4895037451372,18.67800476383156,0
105.4899303749916,18.67824103442899,0
105.4915341117064,18.67836608664611,0
105.492501345565,18.67790454630691,0
105.4938826623584,18.67650695910068,0
105.4960340626255,18.67415575831384,0
105.4968135074607,18.67320546523759,0
105.498514560611,18.66954277359962,0
105.4991560733264,18.66743217306819,0
105.4990519911526,18.66557616965855,0
105.4987225686312,18.6640965798749,0
105.4985085202481,18.66257011677349,0
105.4974821010682,18.66139398784642,0
105.4970312828527,18.66048462193111,0
105.4973356035255,18.65989679230597,0
105.49861217434,18.6589814812627,0
105.4996856197281,18.65827724064658,0
105.5010194169525,18.65769944113983,0
105.5012862629499,18.65752792600142,0
105.5012020650053,18.65726931232855,0
105.5011541694267,18.65730304168573,0</coordinates>
        </LineString>
    </Placemark>
</Document>
</kml>