<?xml version="1.0" encoding="UTF-8"?>
<kml xmlns="http://www.opengis.net/kml/2.2">
<Document>
    <name>NA_DLG_BAC_SON-NA_DLG_NAM_SON.kml</name>
    <Placemark>
        <name>Tuyen_Cap_Chuan_Hoa</name>
        <LineString>
            <tessellate>1</tessellate>
            <coordinates>105.268260867484,18.91651897625173,0
105.2681207430155,18.91676741672842,0
105.2679631090716,18.91697287166922,0
105.2672660258725,18.91642767815498,0
105.2662540979098,18.91727660715999,0
105.2659571734724,18.91690311294734,0
105.2655705761931,18.91644673868936,0
105.2653946555868,18.91601439721607,0
105.2658113623606,18.91513660522216,0
105.2660982565489,18.91443943992919,0
105.2663826631828,18.91374862251519,0
105.2673089137905,18.91345343193731,0
105.2682264283358,18.91316942971509,0
105.2689242310957,18.91239201559665,0
105.2691708986075,18.91209732824255,0
105.2692849845955,18.91211030344271,0
105.2693668654802,18.91194789402248,0
105.2692435264149,18.91182605443976,0
105.2693935468037,18.91167084926519,0
105.2695986047835,18.91143981835285,0
105.2692763851285,18.91135226556121,0
105.2694364735811,18.91115896830951,0
105.2696136500607,18.91099230388349,0
105.269745190239,18.91089373243241,0
105.2699171844324,18.9106895083974,0
105.2700357114027,18.91055157576772,0
105.2701750968826,18.91039334584951,0
105.270251386522,18.91022692910014,0
105.2703954937824,18.91003915905948,0
105.2705566612403,18.90988724446269,0
105.2704264450736,18.90967920732147,0
105.2707616475643,18.90963558351657,0
105.271289159427,18.90961690714481,0
105.2718314463673,18.90959743698096,0
105.2721383312361,18.90960942500098,0
105.2723857386103,18.909713288728,0
105.272746529218,18.90991718576474,0
105.2729549883037,18.91007982481674,0
105.2732522606452,18.91026880578713,0
105.273526476073,18.91043677026328,0
105.2738361523964,18.91061947033775,0
105.2739522352048,18.91057591636392,0
105.2739814895004,18.91012892867384,0
105.2740373575177,18.90932876114514,0
105.274233281627,18.9093229312879,0
105.274478049483,18.90930121888658,0
105.2746970994484,18.90926718050687,0
105.2749490675165,18.90921929454872,0
105.275421171765,18.90915111241123,0
105.2755455408275,18.90913603364433,0
105.2764562564478,18.90897059035968,0
105.2771482626304,18.90880534522614,0
105.2778697462735,18.90862722325237,0
105.2794426199622,18.90824833534996,0
105.2821886078816,18.90775512701406,0
105.2847035291541,18.90730739201685,0
105.286153557868,18.90689957225647,0
105.2877663433872,18.90641648644179,0
105.2888789628379,18.90597859899574,0
105.2905311086408,18.90577974872643,0
105.2922661362459,18.9057594119265,0
105.2919990979064,18.90456267659755,0
105.2919275469101,18.90362255500905,0
105.2922639307967,18.90366113099994,0
105.2927477890896,18.90358879196801,0
105.2928456964054,18.90248828034758,0
105.2930513768995,18.89945249785339,0
105.2930699061153,18.89887272609024,0
105.2930056181265,18.89900313610315,0
105.2928508182731,18.8990760202688,0
105.2925765799024,18.89910595156224,0
105.2921128308579,18.8991487457446,0
105.2917318693189,18.89917941103023,0
105.2911542070213,18.8991106136533,0
105.2905471894952,18.89906248570945,0
105.2903484110136,18.89909000190428,0
105.2902919225424,18.89896137759767,0
105.289795940657,18.89893566771523,0
105.2889625386796,18.89886091434332,0
105.2881643999321,18.89877511717653,0
105.2869464040427,18.89859662534259,0
105.2858895370995,18.89843725478424,0
105.2843276591283,18.89819825669898,0
105.2838393805888,18.89813276501277,0
105.2834443608209,18.89810902169895,0
105.2824292664055,18.89800205292946,0
105.2816625741046,18.89790869206837,0
105.2806845631926,18.89784487193137,0
105.2799299303594,18.89779693711086,0
105.2789916587049,18.89775094107796,0
105.2779348191168,18.89770540307039,0
105.2767443588368,18.89763280278953,0
105.2767394463738,18.89774358187133,0
105.2767330205976,18.89800924900335,0
105.2767414856136,18.89828393454217,0
105.2767373266563,18.89849655799208,0
105.2766938278885,18.89868863181889,0
105.2768129863498,18.89882588681006,0
105.277314616511,18.89879366993324,0
105.2773832960756,18.89951096602482,0
105.2776658970669,18.89945957439486,0</coordinates>
        </LineString>
    </Placemark>
</Document>
</kml>