<?xml version="1.0" encoding="UTF-8"?>
<kml xmlns="http://www.opengis.net/kml/2.2">
<Document>
    <name>NA_NAD_NGHIA_MINH_2-NA_NAD_NGHIA_MINH.kml</name>
    <Placemark>
        <name>Tuyen_Cap_Chuan_Hoa</name>
        <LineString>
            <tessellate>1</tessellate>
            <coordinates>105.4236737184695,19.37187842604681,0
105.4242320251527,19.37158602102172,0
105.4228402423166,19.36954129868097,0
105.4239977349254,19.36888076319925,0
105.4262801858665,19.37268833726566,0
105.4280792333997,19.37688182230243,0
105.430663346935,19.38259383151831,0
105.431103538916,19.38407468103335,0
105.4321068311402,19.38470385239298,0
105.4321030564285,19.38500244417461,0
105.4331620118452,19.38534976706734,0
105.4331730231372,19.38557230952112,0</coordinates>
        </LineString>
    </Placemark>
</Document>
</kml>