<?xml version="1.0" encoding="UTF-8"?>
<kml xmlns="http://www.opengis.net/kml/2.2" xmlns:gx="http://www.google.com/kml/ext/2.2" xmlns:kml="http://www.opengis.net/kml/2.2" xmlns:atom="http://www.w3.org/2005/Atom">
<Document>
	<name>NA_QHP_CHAU_CUONG_2-NA_QHP_CHAU_QUANG.kml</name>
	<open>1</open>
	<atom:link rel="app" href="https://www.google.com/earth/about/versions/#earth-pro" title="Google Earth Pro 7.3.6.10441"></atom:link>
	<StyleMap id="m_ylw-pushpin">
		<Pair>
			<key>normal</key>
			<styleUrl>#s_ylw-pushpin</styleUrl>
		</Pair>
		<Pair>
			<key>highlight</key>
			<styleUrl>#s_ylw-pushpin_hl</styleUrl>
		</Pair>
	</StyleMap>
	<Style id="s_ylw-pushpin">
		<IconStyle>
			<scale>1.1</scale>
			<Icon>
				<href>http://maps.google.com/mapfiles/kml/pushpin/ylw-pushpin.png</href>
			</Icon>
			<hotSpot x="20" y="2" xunits="pixels" yunits="pixels"/>
		</IconStyle>
	</Style>
	<Style id="s_ylw-pushpin_hl">
		<IconStyle>
			<scale>1.3</scale>
			<Icon>
				<href>http://maps.google.com/mapfiles/kml/pushpin/ylw-pushpin.png</href>
			</Icon>
			<hotSpot x="20" y="2" xunits="pixels" yunits="pixels"/>
		</IconStyle>
	</Style>
	<Placemark>
		<name>TuyenCapSauUngCuu</name>
		<styleUrl>#m_ylw-pushpin</styleUrl>
		<LineString>
			<tessellate>1</tessellate>
			<coordinates>
				105.099505905727,19.35024884056497,0 105.0987580049464,19.35043627865242,0 105.0984897486541,19.35030057006329,0 105.0983115503311,19.350031812293,0 105.0990035249441,19.34918436380253,0 105.0996231992279,19.34885554951308,0 105.0997841585126,19.34865943082155,0 105.0996503151495,19.34825327428753,0 105.0996929586476,19.34794049206933,0 105.1002676169628,19.34767856246335,0 105.1006747211769,19.34764986281866,0 105.1013573562692,19.34712157866405,0 105.1030301020687,19.34814617162969,0 105.102648915704,19.34901938514978,0 105.1019300044027,19.34980982294701,0 105.1038148377252,19.35017478962208,0 105.1045534410724,19.35036545629237,0 105.106133445623,19.35057164116757,0 105.1072501640057,19.35056176232155,0 105.107828460965,19.35044901693928,0 105.1083887169921,19.35057812142506,0 105.1089806049564,19.35078718855591,0 105.1094326082346,19.35085351956051,0 105.1100649858722,19.35110597370455,0 105.110990937136,19.35162683365427,0 105.1114229712587,19.35202756920722,0 105.1116341721384,19.35181773940456,0 105.1117576640532,19.35175902909088,0 105.1133575390598,19.35169582454145,0 105.1136980101528,19.35158863651657,0 105.1146663317137,19.3509636205631,0 105.1159249122851,19.35065167720605,0 105.1169364073708,19.35050250719593,0 105.1176723857026,19.35032452987318,0 105.1182684972954,19.34990315079669,0 105.1191566389684,19.34927522885758,0 105.1196477989698,19.34887609227982,0 105.119762584837,19.34873033859747,0 105.1200941273261,19.34776503018552,0 105.1202238560057,19.34738858486007,0 105.120491678478,19.3469440217,0 105.1208277361802,19.34673444646104,0 105.1211448794766,19.34660418852667,0 105.1215257649884,19.34642289740456,0 105.1219508762138,19.34625569685451,0 105.1221953782102,19.34614315167826,0 105.1222996221299,19.34600363213443,0 105.1224259817579,19.34610830853902,0 105.1225434320831,19.34592217991957,0 105.1226328591466,19.34561294380712,0 105.1227980861122,19.34520402067847,0 105.1229680071299,19.34475164242559,0 105.1230560429681,19.3443293845019,0 105.1230187075946,19.34396777098899,0 105.1227378772916,19.34300146559483,0 105.1226003995902,19.34265658298906,0 105.1224858872787,19.34244143334503,0 105.1223364984389,19.34205038865678,0 105.1223062833092,19.341692622334,0 105.1223581662544,19.34133113693491,0 105.122581774512,19.34071791038409,0 105.1228075494314,19.34014373722089,0 105.1230697452723,19.33948753050196,0 105.123014715907,19.33927380326841,0 105.1229351760917,19.33818248919837,0 105.1229884197264,19.33754497466551,0 105.1229554095525,19.33713009565131,0 105.1227649930596,19.33660747794283,0 105.1226679082693,19.33599117515288,0 105.1226865770476,19.33554036893727,0 105.1228532519534,19.33504954014695,0 105.1231418549633,19.33455638119115,0 105.1233520279334,19.33441279949767,0 105.1243726723311,19.33385277185548,0 105.1246889871221,19.33341345974701,0 105.1251322711668,19.33274718021899,0 105.1255478588593,19.33230142911351,0 105.125921194509,19.33199030305773,0 105.1261644346919,19.33175973863116,0 105.1264887057971,19.3314643614979,0 105.1266814534708,19.33133050329431,0 105.1269094606353,19.33135308152593,0 105.1271382425351,19.33124275725758,0 105.1273553839681,19.33122571732076,0 105.1276289353522,19.33114485900244,0 105.1279178962452,19.33111016010309,0 105.1285745187745,19.33102591321216,0 105.1289755362077,19.33100846832976,0 105.129825173596,19.33106964736089,0 105.1312370843277,19.33121543771511,0 105.1316724746328,19.33127319443811,0 105.1320150772746,19.33135095721151,0 105.1328529249755,19.33143969345858,0 105.1330114885883,19.33147202787103,0 105.1335281052844,19.33150017938581,0 105.1348057657248,19.33163420213814,0 105.1350418548716,19.33161783383991,0 105.1351164403894,19.33153578651913,0 105.1350693598508,19.33133325180208,0 
			</coordinates>
		</LineString>
	</Placemark>
</Document>
</kml>
