<?xml version="1.0" encoding="UTF-8"?>
<kml xmlns="http://www.opengis.net/kml/2.2">
<Document>
    <name>NA_DCU_DIEN_HOANG_2-NA_DCU_DIEN_HUNG.kml</name>
    <Placemark>
        <name>Tuyen_Cap_Chuan_Hoa</name>
        <LineString>
            <tessellate>1</tessellate>
            <coordinates>105.6392299083246,19.09715492894242,0
105.6393453602841,19.0972200772738,0
105.6389937609864,19.09780991527928,0
105.6382973809523,19.09742670612113,0
105.637415820933,19.09692601848447,0
105.637864660759,19.0959895900333,0
105.6381282883983,19.09542478707434,0
105.638346964769,19.09503571413498,0
105.6389235500591,19.09434164182115,0
105.6388506198832,19.09428826317632,0
105.6391616474387,19.09393154291685,0
105.6397747530352,19.09322064138429,0
105.6404210684845,19.09245563438962,0
105.6409249856239,19.09188027433186,0
105.641480494463,19.09120143979836,0
105.6419890112705,19.09059265248576,0
105.6422021688771,19.09047470894531,0
105.6424321359198,19.0902043219122,0
105.6433154157879,19.08937611368391,0
105.6437221856543,19.0889870562623,0
105.6441257892569,19.0885828761541,0
105.6448933961558,19.08776735539099,0
105.6454831301645,19.08715480210203,0
105.6458941482361,19.08667599805947,0
105.6461885471755,19.08631506925434,0
105.646643779375,19.08576205996612,0
105.646664259044,19.0856150731666,0
105.6474923937154,19.08464610153477,0
105.6477190515978,19.08447274094534,0
105.6486757158924,19.0833540314627,0
105.6483003638068,19.08290563741927,0
105.6485996469669,19.08264192538365,0
105.648657703224,19.08272275456757,0</coordinates>
        </LineString>
    </Placemark>
</Document>
</kml>