<?xml version="1.0" encoding="UTF-8"?>
<kml xmlns="http://www.opengis.net/kml/2.2">
<Document>
    <name>NA_DCU_DIEN_PHU_2-NA_DCU_DIEN_PHU.kml</name>
    <Placemark>
        <name>Tuyen_Cap_Chuan_Hoa</name>
        <LineString>
            <tessellate>1</tessellate>
            <coordinates>105.5591951499376,18.90054759638986,0
105.5590909595374,18.90080373677807,0
105.5593811976203,18.90098552934611,0
105.5593180695272,18.90130315584789,0
105.5597343476597,18.90164895845383,0
105.5604268783855,18.90196513383103,0
105.5608832862679,18.90225648149959,0
105.5606546841198,18.90279696039763,0
105.5620999187118,18.90330025342877,0
105.5639638348659,18.903697023,0
105.5655685500319,18.90456250696614,0
105.5691273713792,18.90197219633043,0
105.5696564616845,18.90231583131266,0
105.570309369069,18.90096324620168,0
105.5703487079992,18.89972728001646,0
105.5705193113845,18.89752246757137,0
105.5705831946386,18.8958663341066,0
105.5712085171451,18.89583025597939,0
105.5715109243552,18.89607973473876,0
105.5718010872013,18.8962541741149,0
105.5719522526589,18.89633754665908,0
105.5720718347025,18.89606698795254,0</coordinates>
        </LineString>
    </Placemark>
</Document>
</kml>