<?xml version="1.0" encoding="UTF-8"?>
<kml xmlns="http://www.opengis.net/kml/2.2">
<Document>
    <name>NA_HNN_HUNG_LAM-NA_HNN_HUNG_TIEN.kml</name>
    <Placemark>
        <name>Tuyen_Cap_Chuan_Hoa</name>
        <LineString>
            <tessellate>1</tessellate>
            <coordinates>105.6201367328619,18.59919446309885,0
105.6201995662156,18.5996336551403,0
105.620084776502,18.59990353219901,0
105.6194699126981,18.59975310611154,0
105.6192950751128,18.6001449286325,0
105.6195622274102,18.60130400811437,0
105.6198571849374,18.60250800813976,0
105.6202724939071,18.60468508362148,0
105.6209002576022,18.60760778072126,0
105.6214810851249,18.60899007511994,0
105.6223682876493,18.61036495148284,0
105.6231217831279,18.6112469217432,0
105.6244499599071,18.61264581779963,0
105.6257182628943,18.61390353196266,0
105.6273515866803,18.61558139720827,0
105.6289320316585,18.61400019128524,0
105.629727877394,18.6149208857406,0
105.6294317231256,18.61528935190572,0
105.6298930498605,18.6154001818589,0</coordinates>
        </LineString>
    </Placemark>
</Document>
</kml>