<?xml version="1.0" encoding="UTF-8"?>
<kml xmlns="http://www.opengis.net/kml/2.2">
<Document>
    <name>NA_NLC_TRAI_GAO-NA_NLC_NGHI_MY.kml</name>
    <Placemark>
        <name>Tuyen_Cap_Chuan_Hoa</name>
        <LineString>
            <tessellate>1</tessellate>
            <coordinates>105.5664508898282,18.82711967691899,0
105.5664008883335,18.82657470348411,0
105.5683739984107,18.8253520710434,0
105.5677808414011,18.82447034140631,0
105.5694966266609,18.82346391862625,0
105.5676630249261,18.82055954171084,0
105.5669412335452,18.81957197375397,0
105.5654691734159,18.81810147820751,0
105.5613834002072,18.81954963318465,0
105.5594532196252,18.82079597080613,0
105.5588582287355,18.82007571585991,0</coordinates>
        </LineString>
    </Placemark>
</Document>
</kml>