<?xml version="1.0" encoding="UTF-8"?>
<kml xmlns="http://www.opengis.net/kml/2.2">
<Document>
    <name>NA_DLG_HOA_SON-NA_DLG_THINH_SON.kml</name>
    <Placemark>
        <name>Tuyen_Cap_Chuan_Hoa</name>
        <LineString>
            <tessellate>1</tessellate>
            <coordinates>105.3399087751793,18.89383083576646,0
105.3401090832455,18.89382078678691,0
105.340307678475,18.89501689670311,0
105.34032781647,18.89634918846874,0
105.3395777283364,18.89646248947216,0
105.3401453835619,18.89929593456373,0
105.340462209755,18.89968829352744,0
105.3406670788721,18.90105291829699,0
105.3407404052314,18.90167310539153,0
105.3411583519381,18.90208084741318,0
105.3439345995825,18.9016711890974,0
105.3459593365677,18.90138019336053,0
105.3493362100306,18.90086943276728,0
105.3500877381194,18.90054865958418,0
105.3520902900817,18.90030379335278,0
105.3525984352709,18.90337955655551,0
105.353097235517,18.9033907038008,0
105.3541589472326,18.90336436336048,0
105.3548407100809,18.90325531745979,0
105.3565386959683,18.90347166776042,0
105.3574321922044,18.90341404116557,0
105.3593709982063,18.90282638383886,0
105.3657440281724,18.90130467522092,0
105.3703245923901,18.8989355233091,0</coordinates>
        </LineString>
    </Placemark>
</Document>
</kml>