<?xml version="1.0" encoding="UTF-8"?>
<kml xmlns="http://www.opengis.net/kml/2.2">
<Document>
    <name>NA_DCU_DIEN_HOANG_3-NA_DCU_DIEN_HOANG.kml</name>
    <Placemark>
        <name>Tuyen_Cap_Chuan_Hoa</name>
        <LineString>
            <tessellate>1</tessellate>
            <coordinates>105.6356450915337,19.07785934407238,0
105.6359186768532,19.07706307000841,0
105.6348739564419,19.07684253341898,0
105.6337353587151,19.07667142724218,0
105.6326074898243,19.07650665816419,0
105.6319718062878,19.07640969782246,0
105.6306974217296,19.07641983746869,0
105.6296966224909,19.07605322549012,0
105.6287615373731,19.07589035698701,0
105.6278412044048,19.07569168254565,0
105.6265708431602,19.07546448994992,0
105.6259026378393,19.07538432289268,0
105.6253615021706,19.07498063522455,0
105.6250550597906,19.07466630317237,0
105.6248280778527,19.0748684643792,0
105.6246282532811,19.07501865922268,0
105.6244643032551,19.07516061540532,0
105.6242514029145,19.07539541319935,0
105.6239788234234,19.07561975410065,0
105.6237152963877,19.07588560401274,0
105.6235848739743,19.07601678605294,0
105.6231748312712,19.07639068598411,0
105.6228583306074,19.07653327471866,0
105.6221840903163,19.07716256486789,0
105.621628202498,19.07764894811393,0
105.6210951134562,19.07818476018669,0
105.6203471124172,19.07888153509191,0
105.6195897236467,19.07959858597042,0
105.6198475509882,19.07997184410346,0
105.6199404224754,19.0800139860979,0
105.6201208010316,19.0798403483376,0
105.6201875209808,19.07989674894393,0</coordinates>
        </LineString>
    </Placemark>
</Document>
</kml>