<?xml version="1.0" encoding="UTF-8"?>
<kml xmlns="http://www.opengis.net/kml/2.2">
<Document>
    <name>NA_NAD_NGHIA_BINH_4-NA_THA_NB_DONG_HIEU.kml</name>
    <Placemark>
        <name>Tuyen_Cap_Chuan_Hoa</name>
        <LineString>
            <tessellate>1</tessellate>
            <coordinates>105.4782108291752,19.31075206932292,0
105.4778648572669,19.31049584600414,0
105.478708679774,19.30957410786543,0
105.4782376714118,19.30908048176341,0
105.477743605354,19.30859248046896,0
105.4775682521774,19.30819391398397,0
105.4772132248302,19.30761572932325,0
105.4769905682506,19.30707212794784,0
105.4773883247788,19.30706812978989,0
105.4779746504377,19.30693178149146,0
105.4790045907866,19.30689871082732,0
105.4794525770625,19.30689649448,0
105.4797214823566,19.30648017987945,0
105.47974839881,19.30642840252386,0
105.4800178547474,19.30592727835009,0
105.4796873116735,19.30536316629029,0
105.4795674307225,19.30477765560153,0
105.4793287032802,19.30382117287356,0
105.4791375995678,19.30322588178628,0
105.4791394830778,19.3031514074415,0
105.4786905179863,19.30202724086884,0
105.4782455693001,19.30102885991515,0
105.478141309647,19.30039822310053,0
105.4779640758123,19.29982057895884,0
105.4777998310442,19.2989109795778,0
105.4776548743712,19.29766425694871,0
105.4775889755522,19.29705378427954,0
105.4762643792173,19.2972269225466,0
105.4750683975452,19.2975325604357,0
105.4748842603905,19.29716164845658,0
105.4745224437678,19.2969234047411,0
105.4734711984336,19.29668609449261,0
105.4725745660355,19.29662148114165,0
105.4718663143915,19.29679336137334,0
105.471114416492,19.29707417535078,0
105.470707800781,19.29709592590777,0
105.4699245702217,19.29647226143265,0
105.4697477297338,19.29610280089272,0
105.4696244643473,19.29524752440404,0
105.4699294536876,19.29481070391907,0
105.4705788235142,19.294029640315,0
105.4704357057311,19.29375626482764,0
105.4708178030531,19.2932364456862,0
105.4716386646826,19.29194449305128,0
105.4719877328205,19.29122148121972,0
105.4729552618737,19.28972699388089,0
105.4740942103153,19.28829756043987,0
105.4749462915636,19.28730576842727,0
105.475967110331,19.28623903079245,0
105.4765160026068,19.28563032116172,0
105.476617779927,19.28535863602922,0</coordinates>
        </LineString>
    </Placemark>
</Document>
</kml>