<?xml version="1.0" encoding="UTF-8"?>
<kml xmlns="http://www.opengis.net/kml/2.2">
<Document>
    <name>NA_NDN_HONG_LONG-NA_NDN_HUNG_TIEN.kml</name>
    <Placemark>
        <name>Tuyen_Cap_Chuan_Hoa</name>
        <LineString>
            <tessellate>1</tessellate>
            <coordinates>105.5410661070678,18.68511307790282,0
105.540954784564,18.68485803210966,0
105.5406531001185,18.68352734086058,0
105.5406557437932,18.68353188047153,0
105.5403611870754,18.68237724730167,0
105.5402692268178,18.68179773921156,0
105.5402704843332,18.68180970905284,0
105.5413578492235,18.68127917866916,0
105.5413583307599,18.68127229208757,0
105.5414971454369,18.68028383776258,0
105.5420706994624,18.67870736448479,0
105.5422652863629,18.67774743013373,0
105.5422790720538,18.67772702011095,0
105.5422744501366,18.67762260739528,0
105.541465744787,18.67748261980832,0
105.5404009731883,18.67826019526515,0
105.5387496234198,18.67947814605512,0
105.5357062279609,18.67874583198104,0
105.5342095256315,18.67772901257332,0
105.534232832384,18.67770823167744,0
105.5341031332855,18.67775845699959,0
105.5341042783359,18.67775245764356,0
105.533710593595,18.67701409653971,0
105.5334806930195,18.67632171549198,0
105.533451275944,18.67597815648216,0
105.5334484302457,18.67598615435457,0
105.5333174829478,18.67492373670326,0
105.5331443660912,18.67352871453786,0
105.5331678769085,18.67280480296808,0
105.5333386349413,18.67235779683274,0
105.5333490269574,18.67222739072266,0
105.5338089583038,18.67220452972746,0
105.5338401137174,18.67220221371511,0
105.5337499723975,18.67193268206472,0
105.5338243817322,18.67191650032029,0</coordinates>
        </LineString>
    </Placemark>
</Document>
</kml>