<?xml version="1.0" encoding="UTF-8"?>
<kml xmlns="http://www.opengis.net/kml/2.2">
<Document>
    <name>NA_YTH_MA_THANH-NA_YTH_LANG_THANH.kml</name>
    <Placemark>
        <name>Tuyen_Cap_Chuan_Hoa</name>
        <LineString>
            <tessellate>1</tessellate>
            <coordinates>105.4577513069884,19.07646290258371,0
105.4576909479571,19.07623921064794,0
105.4576283233309,19.07585156917079,0
105.4576432212068,19.07572292279049,0
105.4579166253982,19.07566857732524,0
105.4583496393416,19.07561867746629,0
105.4586221816338,19.07594668119027,0
105.4587968399732,19.07644160636857,0
105.458731963437,19.07681697237325,0
105.4585933866457,19.07731149827561,0
105.4588406337069,19.0776818399912,0
105.459847081081,19.0790046755678,0
105.4618061120257,19.0814462978098,0
105.4616758028531,19.08183783604061,0
105.4616407730256,19.08272290850956,0
105.4616308625942,19.08378376190107,0
105.4618601651593,19.0844933027801,0
105.4620649073995,19.08449945731347,0
105.4639002286402,19.08466174641951,0
105.4638904389026,19.08508709030402,0
105.4647842193285,19.08514858065682,0
105.4656214084179,19.08516128992009,0
105.4662065914789,19.08516079410851,0
105.4668033263282,19.08521356328913,0
105.4676034355872,19.08516762459946,0
105.4679658805872,19.08505663929754,0
105.4680480036749,19.08545693521886,0
105.4683000137225,19.08583858618135,0
105.4686325474466,19.08600021081921,0
105.4690793219227,19.08615308135459,0
105.4702499500701,19.08630080576168,0
105.470629317849,19.08631542651598,0
105.4713958327616,19.08625853056822,0
105.4719367549693,19.08615299296063,0
105.4723095980695,19.08598890904152,0
105.4727769640502,19.08578616674063,0
105.4732983798524,19.08647805983906,0
105.473445855371,19.08673934092892,0
105.4735548527644,19.08736834149389,0
105.4735943448215,19.08821908263853,0
105.4736632962767,19.08936479078459,0
105.4737694214747,19.09035483168315,0
105.4737956431073,19.0906809480559,0
105.4735918347418,19.09115788435433,0
105.474188786238,19.09164950708448,0
105.4752355566175,19.09252354385633,0
105.4744463713416,19.09391696828606,0
105.4739122745872,19.09454160736265,0
105.4722547285504,19.09627523344678,0
105.4724103086403,19.09644892884143,0</coordinates>
        </LineString>
    </Placemark>
</Document>
</kml>