<?xml version="1.0" encoding="UTF-8"?>
<kml xmlns="http://www.opengis.net/kml/2.2">
<Document>
    <name>NA_TCG_THANH_HUNG-NA_TCG_THANH_LINH.kml</name>
    <Placemark>
        <name>Tuyen_Cap_Chuan_Hoa</name>
        <LineString>
            <tessellate>1</tessellate>
            <coordinates>105.3016031136236,18.78855207436124,0
105.3013663920519,18.78857654023275,0
105.3013908156582,18.788755653701,0
105.3014264443065,18.78889443307538,0
105.3014538901606,18.7890242738655,0
105.30193721761,18.78897777201981,0
105.3023909079909,18.78889673023991,0
105.3027071352784,18.7888980684003,0
105.3029498785651,18.78891895908604,0
105.303259013293,18.78889805640919,0
105.3033374531039,18.78901327491148,0
105.3033880840579,18.78908101561374,0
105.3041471006507,18.78903003284537,0
105.3043676545871,18.78891320487847,0
105.3044386187124,18.78860937126446,0
105.3046368977636,18.78800132428024,0
105.3047057717212,18.78771085202514,0
105.3046971825112,18.7874724287201,0
105.304725912727,18.7872306358417,0
105.3047203114637,18.78696859617255,0
105.3047627106362,18.78665917615475,0
105.304755243155,18.78641108030651,0
105.3045660998074,18.78634909459706,0
105.3045003604003,18.78569335117495,0
105.3044529670862,18.78536314281741,0
105.3043446973478,18.78508541178516,0
105.3043441933,18.78480244024351,0
105.3042869095563,18.78451474442817,0
105.3042247381511,18.78415464587545,0
105.3042210672209,18.78414402926731,0
105.3042238310984,18.78411752298386,0
105.3042185541296,18.78408701274282,0
105.3042125648304,18.78407353772761,0
105.3042029359125,18.78404955091104,0
105.3041230943374,18.783796416938,0
105.3040792073566,18.78348922854741,0
105.304007438493,18.78324458736748,0
105.3039428926184,18.7830716056855,0
105.3038513677553,18.78291928333048,0
105.3040580131157,18.78268205773935,0
105.3033027759848,18.78170926395952,0
105.3030928265485,18.78130631461194,0
105.3027386906516,18.78091406541331,0
105.3023498963702,18.78042625866214,0
105.3020710272646,18.78002429769463,0
105.3018704951607,18.77971231949976,0
105.3003990897149,18.78019123338952,0
105.2997208409979,18.78027482216635,0
105.2988909894461,18.78057369808962,0
105.2980089299066,18.78045024757342,0
105.2971683658126,18.78040959018418,0
105.295491709378,18.78002301418306,0
105.294534474439,18.77993369717309,0
105.2937869061156,18.77977313027952,0
105.2922161508557,18.77950937247963,0
105.2918045998584,18.77944850101114,0
105.2905568421331,18.77914481569663,0
105.2900295233327,18.77911824018079,0
105.2893392326781,18.77936106317034,0
105.2887532576323,18.77960454190896,0
105.2884437376134,18.77956359255118,0
105.2881143137932,18.77960645331334,0
105.2876441870541,18.77944682438959,0
105.2874599276279,18.77923220430763,0
105.2870836788279,18.77901628017744,0
105.2867827579611,18.77878781783485,0
105.2866058438017,18.77858822493894,0
105.2863515553199,18.77825262852,0
105.2861186134879,18.77796042197772,0
105.2858669089605,18.77762345426489,0
105.2855331652542,18.77734732622942,0
105.2852542948563,18.7771205799072,0
105.2850007855726,18.77686846229027,0
105.2847437998115,18.77660509501111,0
105.2844939855001,18.77631395697658,0
105.2842821338331,18.77606543093987,0
105.2840666798032,18.77573672492874,0
105.2839689287974,18.77545563187684,0
105.2838992235416,18.77518510208778,0
105.2837063860015,18.77478491843738,0
105.2834624655315,18.77446535480778,0
105.2832279446231,18.77406993255493,0
105.2830779767845,18.77388182267547,0
105.2827430209403,18.77344704586296,0
105.2824449893608,18.77307324020112,0
105.2821098377928,18.77264192413508,0
105.2817244226908,18.77212034112592,0
105.2813260885759,18.77224485696773,0
105.2802737953101,18.77262700022186,0
105.2800383106262,18.77221464061947,0
105.2802601232459,18.77207677668617,0</coordinates>
        </LineString>
    </Placemark>
</Document>
</kml>