<?xml version="1.0" encoding="UTF-8"?>
<kml xmlns="http://www.opengis.net/kml/2.2">
<Document>
    <name>NA_TCG_THANH_YEN-NA_TCG_CHO_CON.kml</name>
    <Placemark>
        <name>Tuyen_Cap_Chuan_Hoa</name>
        <LineString>
            <tessellate>1</tessellate>
            <coordinates>105.4295851729043,18.69286760436734,0
105.429379242984,18.69288623454883,0
105.4287450625373,18.69354350197832,0
105.428603701039,18.69354452000449,0
105.4285109643869,18.69334973449464,0
105.4283858666146,18.69304024377707,0
105.4280385806334,18.6933353815126,0
105.4277956361023,18.69349892682053,0
105.4273032794348,18.69364473804398,0
105.4272287906607,18.69354171494687,0
105.4269327044874,18.69252532226673,0
105.4262710915919,18.69288159969505,0
105.4260642128547,18.69293814141511,0
105.4256466402681,18.6930251326746,0
105.4253035235147,18.69315032532417,0
105.4248805979646,18.69323414666185,0
105.4246162741977,18.69328987264379,0
105.4244817124714,18.69338891752662,0
105.4242641779767,18.69364496024437,0
105.4241727637567,18.69366973950101,0
105.423826429589,18.69359453243952,0
105.4237755978224,18.69417257039449,0
105.4234859695082,18.6943992502361,0
105.4234133514346,18.69454858207471,0
105.4234075979731,18.69477405911739,0
105.4231529435373,18.69532649843775,0
105.4231009107095,18.69537858623351,0
105.4229059368445,18.69545447652773,0
105.4229810724192,18.69569326986499,0
105.4228871485752,18.69640138129174,0
105.4227875370819,18.6965273055878,0
105.4225055060318,18.69648702376782,0
105.4222671795965,18.69648188816695,0
105.4220727145858,18.69653117239248,0
105.4218780063479,18.69657436625882,0
105.4215956843841,18.69663625423083,0
105.4214657670761,18.69664204151045,0
105.4214738081913,18.69655187689791,0
105.4212402116525,18.696531395895,0
105.4210954697036,18.6965041831623,0
105.4209549787355,18.69647109679292,0
105.4208102427733,18.69650104026853,0
105.4206646966545,18.69656495757085,0
105.4203528855859,18.69670878186551,0
105.4201184182057,18.69689958640888,0
105.4199920395697,18.69702680548077,0
105.4197260940404,18.69703714891326,0
105.4194553216344,18.6971223771432,0
105.4190014184703,18.69724318433645,0
105.4184319099318,18.69924872482725,0</coordinates>
        </LineString>
    </Placemark>
</Document>
</kml>