<?xml version="1.0" encoding="UTF-8"?>
<kml xmlns="http://www.opengis.net/kml/2.2">
<Document>
    <name>NA_TCG_THANH_CHUONG_3-NA_TCG_THANH_CHUONG.kml</name>
    <Placemark>
        <name>Tuyen_Cap_Chuan_Hoa</name>
        <LineString>
            <tessellate>1</tessellate>
            <coordinates>105.3352695469843,18.79041202652079,0
105.3350641798145,18.79027030392935,0
105.3348402646843,18.7902407787733,0
105.3343658894718,18.79037662573659,0
105.3341535505024,18.79037025802179,0
105.3337276981966,18.78895248729962,0
105.3332664804669,18.78731422785714,0
105.3334188269357,18.78688680288043,0
105.3336001971866,18.78627432423385,0
105.3336951910712,18.78576749114156,0
105.3336982651824,18.78548703480167,0
105.3336930022357,18.78517278989919,0
105.3335840325689,18.784700832797,0
105.333440196692,18.78425868375079,0
105.3332673910761,18.78358986273588,0
105.3331161072307,18.7830023673064,0
105.3330376171818,18.78250557828677,0
105.3322949508033,18.78263296054566,0
105.3319542372163,18.78259815593219,0
105.3316086612447,18.78270253310164,0</coordinates>
        </LineString>
    </Placemark>
</Document>
</kml>