<?xml version="1.0" encoding="UTF-8"?>
<kml xmlns="http://www.opengis.net/kml/2.2">
<Document>
    <name>NA_YTH_LANG_THANH_3-NA_YTH_HAU_THANH_2.kml</name>
    <Placemark>
        <name>Tuyen_Cap_Chuan_Hoa</name>
        <LineString>
            <tessellate>1</tessellate>
            <coordinates>105.4816992785648,19.05593530233735,0
105.481920937813,19.05589106044116,0
105.4818006007444,19.05522700133359,0
105.4835000310726,19.05461842680879,0
105.4840568518968,19.05516638954058,0
105.4849200626123,19.05581471559869,0
105.4857651280051,19.05645377706818,0
105.4866171288436,19.05712419122967,0
105.4870004822141,19.05746768258719,0
105.4875421588485,19.05644402463316,0
105.4889900054797,19.0533072567505,0
105.4896744583984,19.05171341502346,0
105.4902489779383,19.05040537288647,0
105.4910306819607,19.05002386442394,0
105.4914042536375,19.04991002711258,0
105.4915844563887,19.04916671177133,0
105.491799780337,19.0481118081992,0
105.4927893562654,19.04688312932455,0
105.4930989022261,19.04694128036917,0
105.4944482912973,19.04727242973287,0
105.4958495891726,19.04761633464852,0
105.4969254290571,19.04791671587133,0
105.4970603950245,19.04804530026277,0
105.4967436532325,19.04845841155532,0
105.4960563639195,19.04936080882003,0
105.4956777975656,19.04955828774448,0
105.4956324463333,19.05090461609882,0
105.4955147822942,19.05078283985787,0</coordinates>
        </LineString>
    </Placemark>
</Document>
</kml>