<?xml version="1.0" encoding="UTF-8"?>
<kml xmlns="http://www.opengis.net/kml/2.2">
<Document>
    <name>NA_DLG_VINH_LOC_2-NA_DLG_GIANG_SON.kml</name>
    <Placemark>
        <name>Tuyen_Cap_Chuan_Hoa</name>
        <LineString>
            <tessellate>1</tessellate>
            <coordinates>105.2609819926003,18.9864664787445,0
105.2605023548247,18.98655988742108,0
105.2603746510635,18.98829402484504,0
105.2619773469918,18.9877399906044,0
105.2703606377115,18.99305696248698,0
105.2815379886898,19.00056410739803,0
105.2817121495868,19.00040506291864,0
105.2824747330041,19.00152773678016,0
105.282896473929,19.00121878857712,0
105.284656499637,19.00381308941192,0
105.2845232404739,19.00390226191483,0</coordinates>
        </LineString>
    </Placemark>
</Document>
</kml>