<?xml version="1.0" encoding="UTF-8"?>
<kml xmlns="http://www.opengis.net/kml/2.2">
<Document>
    <name>NA_DCU_DIEN_LAM_3-NA_QLU_QUYNH_TAM_2.kml</name>
    <Placemark>
        <name>Tuyen_Cap_Chuan_Hoa</name>
        <LineString>
            <tessellate>1</tessellate>
            <coordinates>105.5364456717662,19.19334775611647,0
105.5361008148213,19.19336194611411,0
105.5360587824464,19.19289480234369,0
105.5342939531199,19.18690246564887,0
105.5339159681121,19.17961672546094,0
105.5339056670041,19.17968181632638,0
105.5340743796846,19.17896553236285,0
105.5336644217558,19.17810658791964,0
105.53522416668,19.17388381698051,0
105.5366748482108,19.17386023208093,0
105.5369798757199,19.17419803008626,0
105.5369453453111,19.17491467084936,0</coordinates>
        </LineString>
    </Placemark>
</Document>
</kml>