<?xml version="1.0" encoding="UTF-8"?>
<kml xmlns="http://www.opengis.net/kml/2.2">
<Document>
    <name>NA_QLU_QUYNH_LAM_2-NA_QLU_QUYNH_LUU.kml</name>
    <Placemark>
        <name>Tuyen_Cap_Chuan_Hoa</name>
        <LineString>
            <tessellate>1</tessellate>
            <coordinates>105.6234081310758,19.15606134284796,0
105.6238153330949,19.15652577049391,0
105.624107191487,19.15645014341102,0
105.6244875153074,19.15634816827443,0
105.6244858057696,19.15617850993821,0
105.624416101125,19.15604145821699,0
105.6243075082981,19.15589954771117,0
105.6241999253548,19.15579064411139,0
105.6239468055727,19.15557430186172,0
105.6235339024056,19.15521741154119,0
105.6233045910724,19.15501485203508,0
105.6235388889781,19.15481774468623,0
105.6236264095381,19.15463263283308,0
105.6238796768719,19.15398683576892,0
105.6240407184955,19.15398089861685,0
105.6242336647979,19.15329524011123,0
105.6243115609715,19.15301151064048,0
105.6244271877097,19.15282499221037,0
105.6245337820783,19.15267466968288,0
105.6251011456497,19.15231070723611,0
105.6257106968743,19.15196618111514,0
105.6259232694346,19.15177837231198,0
105.6261159818923,19.15152582136815,0
105.6263420934735,19.1511647160782,0
105.6265692965885,19.15073648229563,0
105.6269418112232,19.15025924750416,0
105.6271656689852,19.15000602935534,0
105.6274911486349,19.14968300131638,0
105.6276322911935,19.14946569202099,0
105.6277565715873,19.14929415777564,0
105.6279897365229,19.14897693841823,0
105.628183376987,19.14871084672661,0
105.6289110631002,19.14803319657673,0
105.6294026100362,19.14757136104024,0
105.6298915267159,19.14710994222468,0
105.6301161622686,19.14689416572688,0
105.6302435298313,19.14675986880968,0
105.6303405408573,19.14668769518537,0
105.6307350452472,19.14710066572589,0
105.6310324521841,19.1473931699307,0
105.6312270710851,19.14765833173171,0
105.6314369305563,19.1478680437792,0
105.6315740508549,19.14803335049569,0
105.6312198916096,19.14837214911461,0</coordinates>
        </LineString>
    </Placemark>
</Document>
</kml>