<?xml version="1.0" encoding="UTF-8"?>
<kml xmlns="http://www.opengis.net/kml/2.2">
<Document>
    <name>NA_NAD_NGHIA_LAC-NA_NAD_NGHIA_LOI_2.kml</name>
    <Placemark>
        <name>Tuyen_Cap_Chuan_Hoa</name>
        <LineString>
            <tessellate>1</tessellate>
            <coordinates>105.5394209419907,19.39156200045852,0
105.5392650880286,19.39157622361945,0
105.5392936417929,19.39175716729207,0
105.5392615515656,19.39193108764008,0
105.5387483713132,19.3919474267827,0
105.5384215455126,19.39201565235747,0
105.5383179883219,19.3915483985639,0
105.5381549112538,19.39157691940886,0
105.5381636677742,19.3917003954959,0
105.5370724871471,19.3932742498667,0
105.5368267476396,19.39567145612375,0
105.5364730391566,19.39804668918878,0
105.5339843901133,19.40206578201382,0
105.5298399843314,19.40460324739897,0
105.5251577384092,19.40788606993155,0
105.5230789883898,19.40814316593737,0
105.522319001867,19.40828185396225,0
105.5223457485641,19.408567632909,0</coordinates>
        </LineString>
    </Placemark>
</Document>
</kml>