<?xml version="1.0" encoding="UTF-8"?>
<kml xmlns="http://www.opengis.net/kml/2.2">
<Document>
    <name>NA_NAD_NGHIA_LOC_2-NA_NAD_NGHIA_LOC.kml</name>
    <Placemark>
        <name>Tuyen_Cap_Chuan_Hoa</name>
        <LineString>
            <tessellate>1</tessellate>
            <coordinates>105.4134957671387,19.19489373735702,0
105.4135700373959,19.19495905412492,0
105.4138705586636,19.19452737029342,0
105.4138393758659,19.19443287928695,0
105.4135682680846,19.19428874385034,0
105.4131429648998,19.1940072804607,0
105.4125044059759,19.19350138592656,0
105.4130782269637,19.19342187148568,0
105.4138651965531,19.19349904551976,0
105.4139120281509,19.1934993030007,0
105.4139869723469,19.19349971485049,0
105.4145399630045,19.19366776118611,0
105.4157317673921,19.19462035079341,0
105.4170591023854,19.19518490977715,0
105.4176258728342,19.19570546502353,0
105.4185451662983,19.19658352016354,0
105.4189897605313,19.19694521876266,0
105.4201222984818,19.19730214027949,0
105.421323537662,19.19818026225137,0
105.4218592697402,19.19885641416277,0
105.423023127824,19.19941331099991,0
105.4237852749499,19.19899991532107,0
105.4261423449224,19.19822042440473,0
105.4273607646756,19.19802478472061,0
105.4284895164435,19.19814472601387,0
105.4292001577383,19.19895396118465,0
105.429984449636,19.1996102996218,0
105.4300917487301,19.19964630045831,0
105.4309617472261,19.20028808725905,0
105.4310687919534,19.20032933661033,0
105.4315988723946,19.2006218202629,0
105.4326838257137,19.20046310064066,0
105.4338641407087,19.19957624357096,0
105.4346275166135,19.19973637344239,0
105.4359042813139,19.20075902678537,0
105.4366212181008,19.20198062880757,0
105.4373959791191,19.20327809214077,0
105.4378112454579,19.20388535787962,0
105.4387642342784,19.20482286463691,0
105.4401770272985,19.20627207184229,0
105.4436268137799,19.21108858643499,0
105.4437502551064,19.2115220440273,0
105.4430530459148,19.21443781359641,0
105.4429712608332,19.21600546046693,0
105.4429603689598,19.21734632203884,0
105.4429413909763,19.21986499668108,0
105.4430249161184,19.22160741448691,0
105.4421248668381,19.22406081509218,0</coordinates>
        </LineString>
    </Placemark>
</Document>
</kml>