<?xml version="1.0" encoding="UTF-8"?>
<kml xmlns="http://www.opengis.net/kml/2.2">
<Document>
    <name>NA_HNN_HUNG_NGUYEN_3-NA_HNN_HUNG_NGUYEN.kml</name>
    <Placemark>
        <name>Tuyen_Cap_Chuan_Hoa</name>
        <LineString>
            <tessellate>1</tessellate>
            <coordinates>105.6294310433198,18.68318319470213,0
105.6292271342336,18.68355179408665,0
105.6285092953421,18.68347658086934,0
105.6281634042394,18.68341929782706,0
105.6270382661746,18.68322080834035,0
105.6266060541967,18.68314298860944,0
105.6254612505166,18.68297267227938,0
105.6259489364531,18.68130116287634,0
105.6263681860368,18.67943501785896,0
105.6266302702639,18.67836382713022,0
105.6270109471939,18.6770033926947,0
105.6273895623178,18.67566296667631,0
105.6284848580567,18.67164037473193,0
105.6283433804554,18.67141793856145,0
105.6283513073465,18.67110615689128,0
105.630589884947,18.67084676926808,0
105.6316167954091,18.67070311336219,0
105.6330896828809,18.67053981056905,0
105.6337841537862,18.67048351965457,0
105.6338999502846,18.67047458805068,0</coordinates>
        </LineString>
    </Placemark>
</Document>
</kml>