<?xml version="1.0" encoding="UTF-8"?>
<kml xmlns="http://www.opengis.net/kml/2.2">
<Document>
    <name>NA_NLC_NGHI_TIEN-NA_NLC_NGHI_THIET_2.kml</name>
    <Placemark>
        <name>Tuyen_Cap_Chuan_Hoa</name>
        <LineString>
            <tessellate>1</tessellate>
            <coordinates>105.6899576917153,18.87312360197305,0
105.6903291821632,18.87131233002902,0
105.6906233321776,18.86988535780168,0
105.6905818288362,18.86906337762069,0
105.6902133828173,18.86848688477427,0
105.689244341718,18.86916203490227,0
105.6889278363861,18.86840263592083,0
105.689107868481,18.86801600352037,0
105.6888125883821,18.86732863063425,0
105.6890784812275,18.86690564115852,0
105.6893628989056,18.86519945948604,0
105.6898146929454,18.86287962567032,0
105.6902800968176,18.86123591222342,0
105.6903259490692,18.85976796688526,0
105.690059434033,18.85558382246884,0
105.6887695620554,18.85541890010023,0
105.6876638239656,18.8552657445816,0
105.6885914256139,18.85374951082009,0
105.6895283038204,18.85302177072946,0
105.6900020516835,18.8523834467799,0
105.6906483180947,18.85137852388741,0
105.6906790056317,18.85127912055659,0
105.6910533694616,18.85083387764491,0
105.6907754013214,18.85036827933525,0
105.6899172382961,18.85010651909129,0
105.6897159689094,18.84940525359007,0
105.6910817477991,18.84897065681697,0
105.6923513807878,18.84860508421151,0
105.6932977995728,18.84791946587397,0
105.6939939970791,18.84772532673064,0
105.6945645366259,18.84753395636719,0
105.6958511298866,18.84736993557824,0
105.6958993989218,18.84732606318935,0
105.6969119332831,18.84721008836969,0
105.6969359769869,18.84720975665873,0
105.6973693535175,18.84726833769698,0
105.6975462138113,18.84778251489184,0
105.6971789781736,18.8488781830126,0</coordinates>
        </LineString>
    </Placemark>
</Document>
</kml>