<?xml version="1.0" encoding="UTF-8"?>
<kml xmlns="http://www.opengis.net/kml/2.2">
<Document>
    <name>NA_NLC_NGHI_PHUONG_2-NA_NLC_NGHI_PHUONG.kml</name>
    <Placemark>
        <name>Tuyen_Cap_Chuan_Hoa</name>
        <LineString>
            <tessellate>1</tessellate>
            <coordinates>105.6114565808869,18.80679419872763,0
105.6116585991529,18.80678788325718,0
105.6118373234353,18.80694410031271,0
105.6120119075877,18.80715451975657,0
105.6122320017019,18.80725320359203,0
105.6123523586288,18.80681561159518,0
105.6123310091733,18.8064606636437,0
105.6121686679828,18.80616878955384,0
105.6120771892071,18.80593653937152,0
105.6119419595389,18.80574940395278,0
105.6118966394684,18.80556818543468,0
105.6116537711715,18.80557116394855,0
105.6114280589324,18.80563216482601,0
105.6109839724719,18.8058054514337,0
105.6105657604647,18.80609331813503,0
105.6102883137745,18.80629940213451,0
105.6100090230491,18.80646548543884,0
105.6098010700323,18.80663470409372,0
105.6095679278957,18.80676652875887,0
105.6093631235676,18.80689312436683,0
105.609157984931,18.80700496902606,0
105.6088541160646,18.80709021639353,0
105.6085875730333,18.80713462984907,0
105.608042123988,18.8072327928864,0
105.6079951649915,18.80738299636323,0
105.6072804863461,18.80753143828072,0
105.6067122068427,18.80767227632746,0
105.6062532893589,18.80780339655405,0
105.6056810437323,18.80799435067653,0
105.605360134446,18.80811296999094,0
105.6051264733006,18.80818778604223,0
105.6047738947056,18.80821344175893,0
105.6044186488073,18.80824484081326,0
105.6041924300078,18.80824744527042,0
105.6039847329337,18.80837335781522,0
105.603788143163,18.80839853463019,0
105.6035957883111,18.80801559853873,0
105.6032152202854,18.80808211768712,0
105.6029288585156,18.80820814197113,0
105.6024280048531,18.80820005181594,0
105.6018215279488,18.8082580378304,0
105.6014129427604,18.80823774908876,0
105.6011399168105,18.8081417738886,0
105.6009129971092,18.80792485312783,0
105.6006409068699,18.80773211070429,0
105.6004466223758,18.80747823341876,0
105.600297452051,18.80721242411293,0
105.6002052351193,18.80687563037176,0
105.5999902171673,18.80691984597254,0
105.5997764669396,18.80653076189847,0
105.5995158140759,18.80624458081602,0
105.5993044608211,18.8061697274593,0
105.5989206575446,18.8063130144233,0
105.5986674380281,18.80642906513956,0
105.5982510896742,18.80664479872441,0
105.5979441333559,18.80677624982518,0
105.5975834380079,18.80696132345044,0
105.5972308336124,18.80712594185439,0
105.5970128418427,18.8072337415978,0
105.5965460710486,18.80742180904443,0
105.5960205945891,18.80766346602531,0
105.5956683335669,18.80783528074605,0
105.5953702003754,18.80793078071174,0
105.5950094413969,18.8080948408684,0
105.5944971367726,18.80830296300743,0
105.594164621347,18.80844685514941,0
105.5939258665183,18.80853015729351,0
105.5935498515513,18.80872844402718,0
105.5934018414542,18.80882153229465,0
105.5931234403826,18.8090385495694,0
105.59289631373,18.8092224988782,0
105.5927199784178,18.80934642397164,0
105.5925456186776,18.80950656596089,0
105.5922473871353,18.80974520995048,0
105.592037596921,18.80991515495851,0
105.5916835721502,18.8101823582173,0
105.5915311671041,18.81031172214205,0
105.5913434824666,18.81043404769943,0
105.591106602928,18.81057538637717,0
105.5908566713721,18.81066347165731,0
105.5905185565508,18.8107765806674,0
105.5902568357721,18.81087586165044,0
105.5900770545757,18.81094519038048,0
105.5898997085074,18.81084256604806,0
105.5898299344753,18.81064263151945,0
105.5897638687983,18.81039100183344,0
105.5897425130783,18.81028913735238,0
105.5900986311513,18.8101546333674,0</coordinates>
        </LineString>
    </Placemark>
</Document>
</kml>