<?xml version="1.0" encoding="UTF-8"?>
<kml xmlns="http://www.opengis.net/kml/2.2">
<Document>
    <name>NA_QLU_QUYNH_CHAU-NA_QLU_QUYNH_TAM_2.kml</name>
    <Placemark>
        <name>Tuyen_Cap_Chuan_Hoa</name>
        <LineString>
            <tessellate>1</tessellate>
            <coordinates>105.5366308869557,19.19335343429288,0
105.5366403935968,19.19341402908264,0
105.5368582641811,19.19340189059156,0
105.5371164569026,19.19339890981973,0
105.5372771280328,19.19339761572733,0
105.5374311774051,19.19339513178244,0
105.5374806800061,19.19343729997455,0
105.5375970411584,19.1934059882039,0
105.537737932774,19.19330134660104,0
105.5378129933807,19.19325714357262,0
105.5377742475,19.19321618124251,0
105.5380597140075,19.19301491468254,0
105.5382287316889,19.19290607266784,0
105.5383224165569,19.1928616878654,0
105.5383490040614,19.19283829815632,0
105.5384096838569,19.19303481755123,0
105.5386035933515,19.1936497032733,0
105.5387328182991,19.19400180109416,0
105.5389355050146,19.194454807366,0
105.5391044160287,19.19476566361874,0
105.5397447063634,19.19595518377989,0
105.5399983319512,19.196573970705,0
105.5401877258052,19.19714798077202,0
105.5402723254618,19.19773349942778,0
105.5403195920514,19.19847951483106,0
105.5403585396251,19.19965905792035,0
105.5403680000903,19.20011087785967,0
105.5404556066039,19.20066441401387,0
105.5405206003849,19.20093684056617,0
105.5407120549309,19.20165115624689,0
105.5408128253019,19.20207851049175,0
105.5409387895919,19.20213728409719,0
105.5411630331806,19.20309555112611,0
105.5413398319397,19.20386627824225,0
105.5415225358905,19.20450540641923,0
105.5418279983735,19.20523381698867,0
105.5421051800992,19.20596178173504,0
105.5422047277505,19.20648165880067,0
105.5423695529019,19.20738779804005,0
105.5425050330661,19.20832899657557,0
105.5426790206175,19.20946655215777,0
105.5427803953542,19.21032917839574,0
105.5426053917817,19.21077507507259,0
105.5422036181057,19.21146787048812,0
105.5419843595641,19.21178196931086,0
105.541739789867,19.2122058829931,0
105.5415481421464,19.21254257991913,0
105.5413811385482,19.21280473299178,0
105.5413342946389,19.21288732928179,0
105.5412804955016,19.21299629999907,0
105.5410139128184,19.21298542141234,0
105.5407719811982,19.21281449016626,0</coordinates>
        </LineString>
    </Placemark>
</Document>
</kml>