<?xml version="1.0" encoding="UTF-8"?>
<kml xmlns="http://www.opengis.net/kml/2.2">
<Document>
    <name>NA_YTH_HAU_THANH_2-NA_YTH_HAU_THANH.kml</name>
    <Placemark>
        <name>Tuyen_Cap_Chuan_Hoa</name>
        <LineString>
            <tessellate>1</tessellate>
            <coordinates>105.4756406402433,19.04026120297155,0
105.4755374991152,19.03991577513013,0
105.4758569309137,19.03983881623309,0
105.4763720320988,19.04074209632116,0
105.4772292426946,19.04221184020772,0
105.4776139984496,19.0426345237693,0
105.4785808831313,19.04344464916193,0
105.4788372061265,19.04359645427204,0
105.4830990881371,19.04508454587873,0
105.4873500960539,19.0465935962255,0
105.4917341225471,19.0479986607611,0
105.4920259271894,19.04806200643954,0
105.4929565838472,19.04694333961483,0
105.495725621146,19.0475998619007,0
105.4951317258004,19.04946183055575,0
105.4957068527105,19.04963668384997,0
105.4956636944039,19.0508935417919,0
105.4955532990276,19.05090022542356,0</coordinates>
        </LineString>
    </Placemark>
</Document>
</kml>