<?xml version="1.0" encoding="UTF-8"?>
<kml xmlns="http://www.opengis.net/kml/2.2">
<Document>
    <name>NA_VIH_HUNG_HOA_3-NA_VIH_HUNG_HOA.kml</name>
    <Placemark>
        <name>Tuyen_Cap_Chuan_Hoa</name>
        <LineString>
            <tessellate>1</tessellate>
            <coordinates>105.7538277375056,18.67350342795723,0
105.754131680789,18.67377944561839,0
105.7537964668331,18.67409957236117,0
105.752937685303,18.67340568781457,0
105.7520070899826,18.67275993422036,0
105.7515509867524,18.67229263872924,0
105.7510266780632,18.67273177971905,0
105.750448567338,18.67360295797283,0
105.7446628473897,18.67521551830946,0
105.7429616477553,18.67467426789269,0
105.7409611578535,18.67314527096182,0
105.7406365888703,18.67347669665685,0
105.7403543668166,18.6734520969033,0
105.7400776359444,18.67340711385022,0
105.7399773028378,18.67353784630449,0
105.7398517363088,18.6735419918965,0
105.7399279709902,18.67369850322717,0
105.7392585256625,18.67465117523246,0
105.7387756046807,18.67426339853495,0
105.7382067138863,18.67386924398164,0
105.736694895437,18.67490925140622,0
105.7365399138465,18.67453541571784,0
105.7353283003724,18.67514437652908,0
105.7331751399941,18.67578929965011,0
105.7314945193979,18.67627785663539,0
105.7315741041028,18.67651482498963,0
105.7311877111459,18.67683679110626,0
105.7308598516097,18.67706239541159,0
105.7307995663724,18.67756478624022,0
105.7306180351324,18.67789951152586,0
105.730234376174,18.67852480633038,0
105.7293869343582,18.67839568453553,0
105.7292412619334,18.67847292231415,0
105.728270248919,18.67811121983828,0
105.7272583292633,18.6776163033925,0
105.7260816440576,18.67705639456183,0
105.7261743332214,18.67669541613728,0
105.7260509461722,18.67666846712222,0</coordinates>
        </LineString>
    </Placemark>
</Document>
</kml>