<?xml version="1.0" encoding="UTF-8"?>
<kml xmlns="http://www.opengis.net/kml/2.2">
<Document>
    <name>NA_TKY_TAN_XUAN-NA_TKY_TAN_PHU_2.kml</name>
    <Placemark>
        <name>Tuyen_Cap_Chuan_Hoa</name>
        <LineString>
            <tessellate>1</tessellate>
            <coordinates>105.2873734341588,19.18427882188261,0
105.287652170043,19.18444401272894,0
105.2881075316407,19.18433382040168,0
105.2882934222988,19.18351347986647,0
105.2876760731114,19.183524593975,0
105.2872043966924,19.18342959983155,0
105.2872756260365,19.18267295765786,0
105.2873075739613,19.18220410148678,0
105.2873995231954,19.181316904826,0
105.2873989614445,19.18105643937447,0
105.2875031671082,19.17990230394511,0
105.2881390369214,19.18014209231321,0
105.2892745581161,19.1805005815869,0
105.2925386504906,19.18110229657763,0
105.2943859104718,19.18153916503637,0
105.2973110450596,19.18218357759323,0
105.300237914924,19.18325820264696,0
105.302599402118,19.18388934375002,0
105.3040206654614,19.18458199325811,0
105.3063535831578,19.18538996767536,0
105.3072981552442,19.1855762986199,0
105.3095166716886,19.185930108207,0
105.3116105593035,19.18631093729615,0
105.3127901421328,19.18663021769876,0
105.3155238519912,19.18717801516104,0
105.316378709907,19.18752574264833,0
105.318284380259,19.18765907859947,0
105.3192218412745,19.18768729390069,0
105.3198196658209,19.18844073524263,0
105.3202528278231,19.18778401417026,0
105.3213213685624,19.18642022667896,0
105.3223020480033,19.18576838346534,0
105.3232532802106,19.18479824777917,0
105.3241365600952,19.18328476282731,0
105.3246737251388,19.18229460735617,0
105.3251490051506,19.18247131581482,0
105.3260861911107,19.18302916147671,0
105.3266179358965,19.18329898473203,0
105.3275627683714,19.18386662547207,0
105.3283861630478,19.18438030062849,0
105.3290962864976,19.18477503853995,0
105.3297952383809,19.18523110986059,0
105.330191577372,19.18542168500347,0
105.33062662136,19.1847344472545,0</coordinates>
        </LineString>
    </Placemark>
</Document>
</kml>