<?xml version="1.0" encoding="UTF-8"?>
<kml xmlns="http://www.opengis.net/kml/2.2">
<Document>
    <name>NA_QLU_NGO-NA_QLU_QUYNH_NGOC_2.kml</name>
    <Placemark>
        <name>Tuyen_Cap_Chuan_Hoa</name>
        <LineString>
            <tessellate>1</tessellate>
            <coordinates>105.6707576695211,19.10956281094519,0
105.6706510723113,19.10932934115507,0
105.6700221544758,19.10981035792185,0
105.668806818073,19.11068481549746,0
105.6684296465324,19.11091182317742,0
105.6678849395146,19.11107408414347,0
105.6670052189836,19.11130130506238,0
105.666584282224,19.1114608825389,0
105.6662943293934,19.11172850632406,0
105.6661465396624,19.11195536600158,0
105.6658985617044,19.11248864586113,0
105.6658020759707,19.11270428439513,0
105.6656291088721,19.11267140251878,0
105.6654983326701,19.11307564603301,0
105.6652525337805,19.11343451220218,0
105.6650066454952,19.11378529859346,0
105.6647937999333,19.11424018867258,0
105.6647480129241,19.11469593713042,0
105.6647042305437,19.1154133366921,0
105.6646067154754,19.11585623670254,0
105.6648054870865,19.11590956207175,0
105.664691980576,19.11634320875105,0
105.6645565933478,19.11685554307403,0
105.6643613447267,19.11736473315107,0
105.6639622544978,19.11784252068581,0
105.66366710806,19.11815707584916,0
105.6646408215532,19.11850569871072,0</coordinates>
        </LineString>
    </Placemark>
</Document>
</kml>