<?xml version="1.0" encoding="UTF-8"?>
<kml xmlns="http://www.opengis.net/kml/2.2">
<Document>
    <name>NA_DLG_TAN_SON_2-NA_DLG_THINH_SON.kml</name>
    <Placemark>
        <name>Tuyen_Cap_Chuan_Hoa</name>
        <LineString>
            <tessellate>1</tessellate>
            <coordinates>105.3399172120823,18.89381877957877,0
105.3401173131769,18.89379984287935,0
105.3402336212491,18.89437285890547,0
105.3404158944397,18.89450220939207,0
105.3420411606218,18.89448155414495,0
105.3420779420678,18.8936302535607,0
105.3441998154347,18.89366568029434,0
105.3445691558019,18.89332674269086,0
105.3446870274861,18.89158310271743,0
105.3459824122621,18.8916039619011,0
105.3467101847121,18.89136182282936,0
105.345606739939,18.88581517660349,0
105.3500883449752,18.88605754827496,0
105.3526315672874,18.88477532411093,0
105.3536509623772,18.88476010406565,0
105.3540073498958,18.88510166033077,0
105.3546646124127,18.88447583538439,0
105.3548761974942,18.88470915523293,0</coordinates>
        </LineString>
    </Placemark>
</Document>
</kml>