<?xml version="1.0" encoding="UTF-8"?>
<kml xmlns="http://www.opengis.net/kml/2.2">
<Document>
    <name>NA_NLC_NGHI_MY-NA_NLC_NGHI_PHUONG.kml</name>
    <Placemark>
        <name>Tuyen_Cap_Chuan_Hoa</name>
        <LineString>
            <tessellate>1</tessellate>
            <coordinates>105.5587896194135,18.81990910383982,0
105.5588348915796,18.8200564173104,0
105.5589056345713,18.82030610474184,0
105.5590366897828,18.82050934413844,0
105.5592104897411,18.8207190061912,0
105.5593800601455,18.82090946339015,0
105.5597465872892,18.82070477660674,0
105.5599589015716,18.82054765244656,0
105.5601488891476,18.8203916577568,0
105.5602960228328,18.82027609977906,0
105.5603963214909,18.82020835578963,0
105.5605528565859,18.82010910817876,0
105.5607243522308,18.8199786231683,0
105.5608673015972,18.81987467647007,0
105.5610478412209,18.81974880616071,0
105.5611703558034,18.81968081201674,0
105.5612668217352,18.81963946224307,0
105.561261802425,18.81948315819062,0
105.5617569498773,18.81934044783492,0
105.5622357434362,18.81917764143374,0
105.562663776125,18.81903375509005,0
105.5630957901824,18.81887885580862,0
105.5634560054444,18.81875594099588,0
105.5638379470714,18.81860887360255,0
105.5642240987605,18.81846507177178,0
105.5646297159927,18.81831743277217,0
105.5651746020698,18.81813338821343,0
105.5656604319151,18.81796290662148,0
105.5662003242391,18.81779441779883,0
105.566494002363,18.81771753410261,0
105.5669283391044,18.81758743151638,0
105.5673182455824,18.81749183877487,0
105.5676201700126,18.81741311503774,0
105.5679495058522,18.81733802321023,0
105.568515915377,18.81717127615613,0
105.5688734695193,18.8170789260422,0
105.5692083626232,18.81699839310777,0
105.5696447201509,18.81689983353381,0
105.5700828574497,18.81684655936537,0
105.5705769262776,18.8168233802337,0
105.5709695211933,18.81677708367387,0
105.5714227209634,18.81675487503093,0
105.571781004936,18.81672901695906,0
105.5721209710864,18.81668556545595,0
105.5722929930166,18.81661607998804,0
105.5726132668328,18.81661449048097,0
105.5731028636024,18.81658511183073,0
105.5733463928212,18.81657835354732,0
105.5737888458758,18.81647544942098,0
105.5742142153231,18.81651388810123,0
105.5745315134581,18.8164938343028,0
105.5749762573979,18.8164395846049,0
105.5753204001616,18.81638749508496,0
105.5756004466807,18.81635576205908,0
105.5760639446019,18.81629476557826,0
105.5765035677225,18.81623212185322,0
105.5765029645622,18.81622770908072,0
105.5769623857886,18.81617671276944,0
105.577405151977,18.8161294285721,0
105.5778548340714,18.81608405487939,0
105.5782887031168,18.81601011857493,0
105.5786221971933,18.81596869010746,0
105.5790083687566,18.81584300925943,0
105.5793661798515,18.81567515989649,0
105.5798496549684,18.81544200235867,0
105.5803279330816,18.8152561642341,0
105.5806585826066,18.8151634481316,0
105.5810694695922,18.81504071372182,0
105.5812841118724,18.81498094552892,0
105.5814621407159,18.81492980744669,0
105.5817987922364,18.8148231983665,0
105.5821199413274,18.81473862141876,0
105.5824890639593,18.81461337448514,0
105.582783872286,18.81455598793586,0
105.5831664244964,18.81448213445517,0
105.5833887313747,18.81439167892106,0
105.5836236327455,18.81420950828338,0
105.5838252155712,18.81402836777774,0
105.5840285309517,18.81387803455475,0
105.5842315636834,18.81372669085499,0
105.5843071825664,18.81384634230873,0
105.5845299879199,18.81368417265232,0
105.5848246260384,18.81350980661236,0
105.5851406779532,18.81332451204843,0
105.5854484204972,18.81317791061163,0
105.5856876659591,18.81305215899266,0
105.5859594355466,18.81293250910975,0
105.5862897554083,18.81277298463329,0
105.5865284755621,18.81266522547413,0
105.5865327187838,18.81265949045765,0
105.5867340952551,18.8125494624413,0
105.5869322555815,18.81245673943169,0
105.5873046807557,18.8122497633584,0
105.5877132051381,18.8120150629254,0
105.588030032098,18.81185176141422,0
105.588522308144,18.8115919784362,0
105.588852573338,18.81141833317922,0
105.5891337272214,18.81126564922873,0
105.5893813564272,18.81115487856295,0
105.5893905594393,18.81103258516551,0
105.5899044783689,18.81084224587522,0
105.5897960564379,18.81051195555061,0
105.5897443697695,18.81028427534895,0
105.5900936735366,18.81015611873191,0</coordinates>
        </LineString>
    </Placemark>
</Document>
</kml>