<?xml version="1.0" encoding="UTF-8"?>
<kml xmlns="http://www.opengis.net/kml/2.2">
<Document>
    <name>NA_TCG_THANH_MY-NA_TCG_HANH_LAM.kml</name>
    <Placemark>
        <name>Tuyen_Cap_Chuan_Hoa</name>
        <LineString>
            <tessellate>1</tessellate>
            <coordinates>105.1807083352951,18.8131466961526,0
105.1804294030273,18.81385419603216,0
105.1809346909544,18.81395954551514,0
105.1815435638529,18.81400236974028,0
105.1818683049985,18.81478697816961,0
105.181940821276,18.81518920394908,0
105.1817683733961,18.81530092501417,0
105.1814563905463,18.8155889118481,0
105.1819680536188,18.81744179608522,0
105.1816379139249,18.81772943245784,0
105.1889406874064,18.82292570666379,0
105.1898372439603,18.82167480431213,0
105.1907540720671,18.82065146726175,0
105.1915649573523,18.82024735155474,0
105.1924173253178,18.81929137367493,0
105.1933410575881,18.81842420395746,0
105.1941625185737,18.81835899449996,0
105.1949380971436,18.8187229767065,0
105.1952381899187,18.8195621447192,0
105.1962111635304,18.82019431983354,0
105.1969043128396,18.82058299054754,0
105.197341672683,18.8219970001737,0
105.1985581540622,18.82294262331349,0
105.2037301735439,18.82105939004807,0
105.2057710893704,18.82038197953221,0
105.2078159666075,18.81975918746415,0
105.2092317703665,18.81974353738449,0
105.2103356545355,18.81936749976821,0
105.211291759826,18.81943819486319,0
105.2116661030086,18.81943550204249,0
105.2122060552465,18.81905461161166,0
105.2132252975587,18.8189835588054,0
105.214484227313,18.81964594126273,0
105.2145070740629,18.81963962831515,0
105.2148895945717,18.8196267435114,0
105.2149127399948,18.81962670323509,0
105.2154045031144,18.81956887082767,0
105.2162008850257,18.81993594965337,0
105.2168676095,18.82058081818307,0
105.2166850961239,18.82082542691943,0</coordinates>
        </LineString>
    </Placemark>
</Document>
</kml>