<?xml version="1.0" encoding="UTF-8"?>
<kml xmlns="http://www.opengis.net/kml/2.2">
<Document>
    <name>NA_ASN_CAO_SON-NA_ASN_KHAI_SON_2.kml</name>
    <Placemark>
        <name>Tuyen_Cap_Chuan_Hoa</name>
        <LineString>
            <tessellate>1</tessellate>
            <coordinates>105.1645320870319,18.89883474954552,0
105.1644318547889,18.898789945211,0
105.1640585551649,18.89876007399512,0
105.1637185552744,18.89957592757245,0
105.1634992213924,18.90033907889724,0
105.1633065066288,18.90101089453859,0
105.1631465368611,18.9015850651798,0
105.1630955642666,18.90176118037638,0
105.1634180675055,18.9018526989962,0
105.1641468122352,18.90179316729679,0
105.1641553846136,18.90178806721455,0
105.1645291405601,18.90183330466544,0
105.1647505131283,18.90198508015827,0
105.1649271871889,18.90223397883534,0
105.1650249235969,18.90241854271407,0
105.165028504355,18.90245001909753,0
105.1650392810661,18.90279057156814,0
105.1649728492008,18.90312202272101,0
105.1648261597794,18.90340455872762,0
105.1645428508398,18.90356167265309,0
105.1642808216346,18.9035871808881,0
105.1639864761605,18.90359746105737,0
105.1638260138263,18.90364793252879,0
105.1638056474355,18.90365986986683,0
105.1637352002941,18.90388593549752,0
105.163630659005,18.90383099088618,0
105.16346365926,18.90371268004042,0
105.1632964213225,18.9035722724355,0
105.16314104293,18.90342749394782,0
105.1629210552627,18.90332237834853,0
105.162750965744,18.90328507728206,0
105.1626175267926,18.90326328923125,0
105.1626014836364,18.90328659715152,0
105.1624952372114,18.90395452349836,0
105.1624124843787,18.9045599285065,0
105.1622448516082,18.90501381491543,0
105.1620093043624,18.90528793710608,0
105.1616848034638,18.90555104622906,0
105.1613629206013,18.90577917894484,0
105.1610960836315,18.90604397129633,0
105.1609207498032,18.90639297762684,0
105.1607839788952,18.90692041611845,0
105.1606540356768,18.90737629593857,0
105.1604858901759,18.9077191206714,0
105.1603043005124,18.90805852112244,0
105.1601596537759,18.90827530519266,0
105.1601643514059,18.90828779918839,0
105.1601346055521,18.9085642753818,0
105.1601235389391,18.90892406949658,0
105.1601281023909,18.90893270849329,0
105.1602286463721,18.90917819144747,0
105.1602284415836,18.90918396519257,0
105.1605258611703,18.90958950329579,0
105.1610962049207,18.91023960011972,0
105.1613695955586,18.91054980002428,0
105.1615641001016,18.91093563046484,0
105.1616113861126,18.91139853940513,0
105.1616218870362,18.91149409628116,0
105.1611428094927,18.91229612740219,0
105.160731954276,18.91291670241717,0
105.1604530538553,18.91358990795986,0
105.1602600519748,18.91450768410637,0
105.1598739561153,18.91560119684711,0
105.1598026271705,18.91654818813319,0
105.1598176449858,18.91763331542999,0
105.1599646495143,18.91808368440358,0
105.1603400918988,18.91878332870656,0
105.1606849475014,18.91936978384699,0
105.1611415758822,18.91997222488803,0
105.1615500009605,18.92047396875159,0
105.1624099975503,18.92154237720914,0
105.1625424993607,18.92184040119958,0
105.1624928634766,18.92237856329351,0
105.1617944888103,18.92357424451838,0
105.1611975563955,18.92437082375024,0
105.1609027421033,18.92512078803096,0
105.1609397066782,18.92532943720597,0
105.1613497273085,18.92640994408792,0
105.1616239967748,18.92651488521876,0
105.1619462115858,18.92720516872578,0
105.1623070487112,18.92794417723938,0
105.1626384462188,18.92882189627435,0
105.1628336804623,18.92960278642145,0
105.1629876991265,18.93030478200522,0
105.1630776076134,18.93104015855527,0
105.1630086839414,18.93148981943432,0
105.1633195300927,18.93194495349142,0
105.1636419648526,18.93231437128413,0
105.163815981777,18.93293224817654,0
105.1639298901112,18.93338522158346,0
105.163993920278,18.93386533696783,0
105.1639611051308,18.93460133659406,0</coordinates>
        </LineString>
    </Placemark>
</Document>
</kml>