<?xml version="1.0" encoding="UTF-8"?>
<kml xmlns="http://www.opengis.net/kml/2.2">
<Document>
    <name>NA_DCU_DIEN_BICH-NA_DCU_DIEN_KIM.kml</name>
    <Placemark>
        <name>Tuyen_Cap_Chuan_Hoa</name>
        <LineString>
            <tessellate>1</tessellate>
            <coordinates>105.6065772320526,19.01620953621253,0
105.6065640387442,19.01666740802942,0
105.6052151536453,19.01750920060949,0
105.6055838439561,19.01769704094741,0
105.605988012155,19.01777216158588,0
105.6061614312922,19.01812385790526,0
105.6066462103292,19.01909064559498,0
105.6070355195228,19.01954358051039,0
105.6078193461998,19.02022946693381,0
105.6094817734237,19.02034882368591,0
105.6101267133055,19.02010359640459,0
105.6108956971637,19.02148984898422,0
105.6110412393973,19.02162862570912,0
105.6135793801621,19.02295386373637,0
105.6165012149841,19.02450191717544,0
105.6174039468049,19.02507161691382,0
105.6180594696095,19.02566930276557,0
105.6189948128326,19.02689184491872,0
105.618820829656,19.02687971916227,0
105.6183737823458,19.02720418607398,0
105.6182573200465,19.02707446908096,0</coordinates>
        </LineString>
    </Placemark>
</Document>
</kml>