<?xml version="1.0" encoding="UTF-8"?>
<kml xmlns="http://www.opengis.net/kml/2.2">
<Document>
    <name>NA_TCG_THANH_MAI-NA_TCG_THANH_MAI_2.kml</name>
    <Placemark>
        <name>Tuyen_Cap_Chuan_Hoa</name>
        <LineString>
            <tessellate>1</tessellate>
            <coordinates>105.3782546019056,18.63302730258701,0
105.3782714147851,18.63296123028783,0
105.3782290081787,18.63253895009222,0
105.3779486554002,18.63246644813887,0
105.377798773835,18.63240670762788,0
105.3777190795847,18.63234933478205,0
105.3779344329008,18.63188505069416,0
105.3781853815375,18.63192531394466,0
105.3788932083724,18.6320349110409,0
105.3795248273702,18.63213374326797,0
105.3798702014917,18.63218642522872,0
105.3803611131199,18.63231488793791,0
105.3805981036139,18.63237568834113,0
105.3810282987983,18.63282535692758,0
105.3813107256246,18.63312607165879,0
105.3814304880119,18.63324763694586,0
105.3815594352841,18.63343525104903,0
105.3819199553261,18.6339418767928,0
105.3821846463642,18.63431494381498,0
105.3823865370924,18.63460352648271,0
105.3825819230782,18.63487805379767,0
105.3827946238253,18.63518067777066,0
105.3830123166541,18.63548628602693,0
105.3831860785915,18.63573454046941,0
105.3833161799713,18.63592198269366,0
105.3838070127599,18.6362462576256,0
105.3848405993189,18.63691613320124,0
105.3854353345503,18.63731850643711,0
105.3864264956298,18.63910578919974,0
105.3872441049685,18.64084621127631,0
105.3882257678329,18.6416434235755,0
105.3894119262799,18.6424100263766,0
105.3905571357462,18.64289936721811,0
105.3908426072043,18.64313360051691,0
105.3920338645586,18.64456783461041,0
105.3928539421974,18.64564179306606,0
105.3942058490047,18.64763811071908,0
105.3952818108734,18.64812210056211,0
105.3963185062733,18.64868074273973,0
105.3968576431068,18.64898528047174,0
105.398161696275,18.6494606176159,0
105.3986777597943,18.65016812590893,0
105.4002779432337,18.65251509020127,0
105.4014609415934,18.65439736396942,0
105.401673947299,18.6547834326335,0
105.4008900916778,18.65510083207311,0
105.4002279691669,18.65537418203546,0
105.3995618974933,18.65577627264764,0
105.3997998436869,18.65600308772331,0
105.3996321915541,18.6563480327733,0
105.3994685090531,18.65651199303736,0</coordinates>
        </LineString>
    </Placemark>
</Document>
</kml>