<?xml version="1.0" encoding="UTF-8"?>
<kml xmlns="http://www.opengis.net/kml/2.2">
<Document>
    <name>NA_YTH_YEN_THANH_5-NA_YTH_HOA_THANH.kml</name>
    <Placemark>
        <name>Tuyen_Cap_Chuan_Hoa</name>
        <LineString>
            <tessellate>1</tessellate>
            <coordinates>105.4854882526609,19.00043525132997,0
105.485122163049,19.00040090243563,0
105.4851585873865,19.00008008139763,0
105.486072790139,19.00016709829431,0
105.4874327373264,19.00033910802987,0
105.4889897870743,19.00053619908498,0
105.4901812427086,19.00062546492777,0
105.4910534202332,19.00064217783142,0
105.4927055149782,19.00078697987017,0
105.4942415771052,19.00089161775567,0
105.4956721798565,19.00112944260542,0
105.4969457370882,19.0014138667347,0
105.4970128566536,19.00125633625144,0
105.4974966162674,19.00048490128735,0
105.4978017871066,18.99998781247319,0
105.4979589864718,18.99973677602888,0
105.4969973949007,18.99923172006307,0
105.496928236234,18.99934735938171,0
105.4969932873604,18.99942523725371,0</coordinates>
        </LineString>
    </Placemark>
</Document>
</kml>