<?xml version="1.0" encoding="UTF-8"?>
<kml xmlns="http://www.opengis.net/kml/2.2">
<Document>
    <name>NA_DLG_MY_SON-NA_DLG_MY_SON_2.kml</name>
    <Placemark>
        <name>Tuyen_Cap_Chuan_Hoa</name>
        <LineString>
            <tessellate>1</tessellate>
            <coordinates>105.4071537445038,18.79643071251526,0
105.4076005642498,18.79669097349895,0
105.408012169351,18.79609102134104,0
105.4080594104962,18.79633867448002,0
105.407201192579,18.79734839617208,0
105.4060368925442,18.79855923486627,0
105.4051021689032,18.79992157441153,0
105.4033646600659,18.80142049757221,0
105.4009245191496,18.80501015349569,0
105.3993693723205,18.80806291316096,0
105.397656701487,18.80986687494553,0
105.3977818021686,18.81032886915577,0
105.3968657973393,18.8110295303869,0
105.396339457419,18.81080554661283,0
105.3957592874666,18.81121100154198,0
105.3962698557181,18.81151745173607,0
105.4009252625641,18.82171373489269,0
105.4020508332208,18.82332444325609,0
105.4024336440707,18.82449908855153,0
105.4028653498406,18.82598531653614,0
105.403732318526,18.82716362586262,0
105.4050276343133,18.82814687745704,0
105.4059098307834,18.82675781823242,0</coordinates>
        </LineString>
    </Placemark>
</Document>
</kml>