<?xml version="1.0" encoding="UTF-8"?>
<kml xmlns="http://www.opengis.net/kml/2.2">
<Document>
    <name>NA_QLU_QUYNH_TAN_3-NA_QLU_QUYNH_TAN_2.kml</name>
    <Placemark>
        <name>Tuyen_Cap_Chuan_Hoa</name>
        <LineString>
            <tessellate>1</tessellate>
            <coordinates>105.6431599959152,19.22267428311266,0
105.6421735431922,19.22197474883412,0
105.64061649034,19.2240680775334,0
105.6415573827614,19.22452995731731,0
105.6423632193217,19.22559313053022,0
105.6436045169811,19.22644288515629,0
105.6448964437876,19.2292171993378,0
105.6448690122187,19.22916356729044,0
105.6486023323873,19.2281245224835,0
105.6523601786645,19.22661854055639,0
105.6522838256194,19.22665810726424,0
105.6532794857317,19.22624590222993,0
105.6543444662985,19.22580047300067,0
105.6581045489825,19.22468474108322,0
105.6648941658513,19.22255429125046,0
105.6674326330555,19.22167808399355,0
105.6673002135096,19.22109063077713,0</coordinates>
        </LineString>
    </Placemark>
</Document>
</kml>