<?xml version="1.0" encoding="UTF-8"?>
<kml xmlns="http://www.opengis.net/kml/2.2">
<Document>
    <name>NA_ASN_TUONG_SON-NA_ASN_HOA_SON.kml</name>
    <Placemark>
        <name>Tuyen_Cap_Chuan_Hoa</name>
        <LineString>
            <tessellate>1</tessellate>
            <coordinates>105.0245917158988,18.97025229603247,0
105.0247415143854,18.97037995304351,0
105.0249004741874,18.97059841097402,0
105.0251996071548,18.97039841697558,0
105.025467596898,18.97018416136868,0
105.0256547871369,18.97000806389143,0
105.0259022754498,18.96969405506613,0
105.0261147760394,18.9695426541259,0
105.026214161203,18.96931680183902,0
105.0263554342609,18.96904413382468,0
105.0264506051519,18.96883959064503,0
105.0266042629771,18.96856126520421,0
105.0268293133774,18.96804429162622,0
105.0269475313101,18.96770402016222,0
105.0270479751782,18.9674472130887,0
105.0271776166462,18.96706090975589,0
105.0273126236148,18.96661350823207,0
105.0276331198665,18.96572886280347,0
105.0278079534449,18.96522801803779,0
105.027900198826,18.96498137397835,0
105.0280470333937,18.96453868545699,0
105.0282005324591,18.9642910863159,0
105.0284344670057,18.96401887244611,0
105.0289168023599,18.96358613613194,0
105.0317955936233,18.96108731519445,0
105.0326454771939,18.96029655482409,0
105.0333077901964,18.95970364172732,0
105.0344071165498,18.95887888121856,0
105.0355899723828,18.95800786495166,0
105.0392168636341,18.95550183034376,0
105.0395416968834,18.95530450257078,0
105.0401896118736,18.95620456274371,0
105.0405865714748,18.95585108379681,0
105.0407628525472,18.95606404330078,0
105.0412165386254,18.95607224170106,0</coordinates>
        </LineString>
    </Placemark>
</Document>
</kml>