<?xml version="1.0" encoding="UTF-8"?>
<kml xmlns="http://www.opengis.net/kml/2.2">
<Document>
    <name>NA_NDN_NAM_THAI-NA_NDN_VAN_DIEN.kml</name>
    <Placemark>
        <name>Tuyen_Cap_Chuan_Hoa</name>
        <LineString>
            <tessellate>1</tessellate>
            <coordinates>105.4652997021189,18.71230516467313,0
105.465439201599,18.71230249859193,0
105.4664245391489,18.71127235365163,0
105.4670027065629,18.7115883662791,0
105.467687784408,18.71176709946578,0
105.4681434332975,18.71181709876197,0
105.4687325622209,18.71181694012511,0
105.469524868953,18.71191043629522,0
105.4718567885895,18.71261195206854,0
105.4735840183889,18.71318805513884,0
105.4741139103088,18.71332858969316,0
105.4744709095953,18.71339630773726,0
105.4750679295844,18.71344093635669,0
105.4756851227339,18.713302702898,0
105.4771179671779,18.71277151496248,0
105.4794602196051,18.71189629549008,0
105.4806769061497,18.71136993723165,0
105.4811478595458,18.71300705792616,0
105.4810698010164,18.71310993416217,0
105.4811721349918,18.71363029836159,0
105.4813237589768,18.71378920059853,0
105.4815920467566,18.71466054773186,0
105.4816920760984,18.71480956210072,0
105.4826245725262,18.7161347034979,0
105.4829239212686,18.71669176659583,0
105.4832314077365,18.7191125938693,0
105.4834370713613,18.72110369130165,0
105.4836570068659,18.72270707239204,0
105.4838455918475,18.72312371854805,0
105.4847649234281,18.72556148962969,0
105.4846144255742,18.72579811041597,0
105.4844659900404,18.72623890650359,0
105.4843409368113,18.72716959833554,0
105.4842559885094,18.72817725497936,0
105.484643746577,18.72908820726546,0
105.4846173039372,18.72916845665425,0
105.484432975358,18.72937568375422,0
105.4844289418825,18.72950697117763,0
105.4847820975078,18.72959780782911,0
105.4851274719962,18.72982305802833,0
105.4852788687242,18.72985533490641,0
105.4857940118986,18.72980087818477,0
105.4855333271838,18.728862547682,0</coordinates>
        </LineString>
    </Placemark>
</Document>
</kml>