<?xml version="1.0" encoding="UTF-8"?>
<kml xmlns="http://www.opengis.net/kml/2.2">
<Document>
    <name>NA_HNN_HUNG_DAO_2-NA_HNN_HUNG_DAO.kml</name>
    <Placemark>
        <name>Tuyen_Cap_Chuan_Hoa</name>
        <LineString>
            <tessellate>1</tessellate>
            <coordinates>105.6071049738404,18.67738218664432,0
105.6068840274648,18.67750764162811,0
105.6066740450219,18.67736437275713,0
105.6064696524672,18.67716199829616,0
105.6060243612413,18.67700376212059,0
105.6061218884597,18.67544445225354,0
105.6063269397806,18.6744832271476,0
105.6062351586043,18.674466963261,0
105.6065775769738,18.67301838738018,0
105.6061427941227,18.67287949649858,0
105.6068468172257,18.66978078617074,0
105.6071816979636,18.66946558430699,0
105.6077274898124,18.66913655227015,0
105.6085560311674,18.66882109021927,0
105.6086547694793,18.66877910494811,0
105.6084431880476,18.66776969601947,0
105.6082928685595,18.66652334488417,0
105.6094525911274,18.66641342993719,0
105.6095897121374,18.66649291983781,0
105.6124171379834,18.66600260847985,0
105.6124653594716,18.6663955834238,0
105.6127224171781,18.6664374152316,0
105.6129406786953,18.66649312680096,0
105.6129491457519,18.66691478130622,0</coordinates>
        </LineString>
    </Placemark>
</Document>
</kml>