<?xml version="1.0" encoding="UTF-8"?>
<kml xmlns="http://www.opengis.net/kml/2.2">
<Document>
    <name>NA_QLU_LAM_THO-NA_DCU_DIEN_HUNG.kml</name>
    <Placemark>
        <name>Tuyen_Cap_Chuan_Hoa</name>
        <LineString>
            <tessellate>1</tessellate>
            <coordinates>105.6486677743476,19.08273288951889,0
105.6489062223617,19.08298633342065,0
105.6481248361598,19.08386544767563,0
105.6473838504873,19.0847271801049,0
105.6466449320219,19.0856021115784,0
105.6472890179841,19.08607011270717,0
105.6528070323569,19.08986678541425,0
105.6609174545261,19.0948501364099,0
105.6602526569376,19.09627031940677,0
105.6634357843595,19.0987979815922,0
105.6629620540399,19.09965811794346,0
105.6629066093966,19.10061769099346,0
105.6636823326774,19.10169984165191,0</coordinates>
        </LineString>
    </Placemark>
</Document>
</kml>