<?xml version="1.0" encoding="UTF-8"?>
<kml xmlns="http://www.opengis.net/kml/2.2">
<Document>
    <name>NA_DCU_DIEN_HOANG-NA_DCU_DIEN_YEN.kml</name>
    <Placemark>
        <name>Tuyen_Cap_Chuan_Hoa</name>
        <LineString>
            <tessellate>1</tessellate>
            <coordinates>105.6201510942465,19.07993377037231,0
105.6199246044086,19.08007834359379,0
105.6195814008145,19.07959889058747,0
105.6189061207668,19.08022123995052,0
105.6176846622379,19.0795817612765,0
105.6161666322838,19.07874878902853,0
105.6151567907735,19.07807761155955,0
105.6062670042841,19.07402168826407,0
105.6054445654218,19.07439257536321,0
105.6053112567809,19.07458107372958,0
105.6042629607309,19.0750091301411,0
105.6004054921345,19.07649423274428,0
105.5989189089546,19.07672377156054,0
105.5982718474725,19.07691277106228,0
105.5973751949207,19.07723254684198,0
105.5969771874992,19.07739135931196,0
105.5967997138767,19.07697572574128,0
105.5964710762435,19.07625140754408,0
105.5961842006036,19.07542042749095,0
105.5956626240369,19.07393498285192,0
105.5957910286265,19.07384766750725,0
105.5958975237113,19.0737634458604,0
105.5960427502795,19.07372740279272,0
105.5959742931782,19.07335577826469,0
105.5960841925975,19.07332849880613,0</coordinates>
        </LineString>
    </Placemark>
</Document>
</kml>