<?xml version="1.0" encoding="UTF-8"?>
<kml xmlns="http://www.opengis.net/kml/2.2">
<Document>
    <name>NA_VIH_HAI_THUONG_LAN_ONG-NA_VIH_HUNG_LOC_4.kml</name>
    <Placemark>
        <name>Tuyen_Cap_Chuan_Hoa</name>
        <LineString>
            <tessellate>1</tessellate>
            <coordinates>105.6967811182069,18.69925885439833,0
105.6966515162007,18.69917035877302,0
105.6969540631933,18.69879082684021,0
105.6972453292397,18.69893512150504,0
105.6980668635633,18.69781984299255,0
105.6982601098042,18.69792049671372,0
105.6986998473248,18.69738953726241,0
105.6990470578949,18.69660979149791,0
105.7001871301489,18.69516738273648,0
105.702059305654,18.69276580057385,0
105.7030064320499,18.69117521829855,0
105.7040337139114,18.69234536042512,0
105.7053322057868,18.69726056762295,0
105.7051398991854,18.69742619758663,0
105.70504554231,18.6973353871469,0
105.7048229326188,18.6972742841759,0</coordinates>
        </LineString>
    </Placemark>
</Document>
</kml>