<?xml version="1.0" encoding="UTF-8"?>
<kml xmlns="http://www.opengis.net/kml/2.2">
<Document>
    <name>NA_QLU_NGOC_SON-NA_QLU_QUYNH_LAM.kml</name>
    <Placemark>
        <name>Tuyen_Cap_Chuan_Hoa</name>
        <LineString>
            <tessellate>1</tessellate>
            <coordinates>105.5872446782764,19.18841078062341,0
105.5892178964752,19.1900694979445,0
105.5895773941258,19.18936702155022,0
105.5903478533435,19.18834459125615,0
105.59122762581,19.18729087780959,0
105.5918546384647,19.18625848786182,0
105.5921353770157,19.18579240905707,0
105.5923160082113,19.18522286167713,0
105.5922863112887,19.18435826468441,0
105.5921982615056,19.18374144131354,0
105.5923876666051,19.18329514814427,0
105.5925572412941,19.18313542472124,0
105.5928568127151,19.18260662821833,0
105.5930697135417,19.18209782685999,0
105.5932253422424,19.1816999032165,0
105.5932950935396,19.18138267403862,0
105.593478236073,19.180357378573,0
105.5936440003239,19.17945064138551,0
105.5938057485717,19.17909119057501,0
105.5940092850697,19.17872227325012,0
105.5943714970289,19.17811575281083,0
105.594676842663,19.17770594334295,0
105.5948403140912,19.17742009445711,0
105.5959268679531,19.17735589788471,0
105.5972895372331,19.17790109968696,0
105.5979483116143,19.17809292972541,0
105.5984763338214,19.17813581626417,0
105.599252870352,19.17821409376879,0
105.599899880425,19.17842736386035,0
105.6004475809661,19.17860920258993,0
105.6007582772661,19.17862880008192,0
105.6008949517426,19.17885646402092,0
105.6015391939883,19.17872923857371,0
105.6021028276755,19.17849394611493,0
105.6024161208132,19.17831596254326,0
105.6027936550564,19.17806620494061,0
105.6030783922502,19.17817067294994,0
105.6034520971717,19.17841916016256,0
105.6036405380708,19.17855309624073,0
105.6039261765834,19.17863191147641,0
105.6040878216667,19.17874881431523,0
105.6042357476084,19.17883718189324,0
105.6041226895469,19.17900636008616,0
105.6041255229794,19.17900286423311,0
105.6039270464023,19.17935027118985,0</coordinates>
        </LineString>
    </Placemark>
</Document>
</kml>