<?xml version="1.0" encoding="UTF-8"?>
<kml xmlns="http://www.opengis.net/kml/2.2">
<Document>
    <name>NA_TCG_THANH_MY_2-NA_TCG_HANH_LAM.kml</name>
    <Placemark>
        <name>Tuyen_Cap_Chuan_Hoa</name>
        <LineString>
            <tessellate>1</tessellate>
            <coordinates>105.2104015741815,18.79984424438666,0
105.2094210737924,18.79956117870507,0
105.2085189578693,18.79919695520581,0
105.2076718378519,18.80001377413031,0
105.2069874495048,18.80065832033137,0
105.2073501474844,18.80145623255858,0
105.207570053392,18.80218162275948,0
105.2075671144601,18.80288251048998,0
105.2074359341912,18.80317558675587,0
105.2071400736327,18.80339513597286,0
105.2067701521483,18.80374976821463,0
105.2065053517847,18.80403998136978,0
105.2063246562673,18.80418963439188,0
105.206229831795,18.8043567477478,0
105.206079249457,18.80452060729567,0
105.2057789142101,18.80478517221074,0
105.2055755976547,18.80501211121088,0
105.2058788757121,18.80544164655781,0
105.2061332994344,18.80576580910017,0
105.2062416491948,18.80589645205708,0
105.2061264925563,18.80612212372923,0
105.2060258892465,18.80650631914754,0
105.2059390799688,18.80684204604333,0
105.20591378032,18.80693205697767,0
105.2057991066923,18.80709142498615,0
105.2056457346503,18.80705870568656,0
105.2056440949341,18.80725710392049,0
105.205499209979,18.80740088974458,0
105.2052707861752,18.8076286079692,0
105.2049906643542,18.80783039210856,0
105.2048778491509,18.8077904865622,0
105.204605627445,18.80785654438107,0
105.204300877757,18.80790914699016,0
105.2042892033899,18.80801831786886,0
105.2040180223104,18.80809350629996,0
105.2037548115365,18.80815734094941,0
105.2036099527509,18.8081814888817,0
105.2034060893999,18.80812039641545,0
105.2030872574192,18.80822924297026,0
105.2025757485221,18.80848033661646,0
105.2021127421266,18.80861124439969,0
105.2017485063086,18.80873233211622,0
105.2014030494713,18.80887952671429,0
105.2013071703871,18.80862710002757,0
105.2011899324356,18.8084591793086,0
105.201066146888,18.80823052144971,0
105.2009079206694,18.80792654347236,0
105.2007162068708,18.80767932093474,0
105.2006570518324,18.80756456977017,0
105.2006415713314,18.80719612314091,0
105.2006247427442,18.80704053498067,0
105.2005101759956,18.80689453421178,0
105.2002288355541,18.8066293757955,0
105.2000327173193,18.80683216082396,0
105.199764385513,18.80721015491152,0
105.1994939724318,18.80763380912414,0
105.1990662492048,18.80807612237288,0
105.1985456432453,18.80872621863517,0
105.1979659008534,18.80938520722109,0
105.1975526664809,18.809850107898,0
105.1975751568607,18.81005654827288,0
105.1972723976625,18.8103717334702,0
105.1969174198911,18.81057768114436,0
105.1964555119469,18.81073144051027,0
105.1958749351911,18.81087622302427,0
105.1952240330243,18.8110883280552,0
105.1948040422234,18.81139179800605,0
105.1941997976269,18.81193941325362,0
105.1934497287043,18.81266918784249,0
105.1931375483802,18.81288620312995,0
105.1928412734079,18.81301678537653,0
105.1921665172706,18.81322149199599,0
105.1914474415739,18.81340596749763,0
105.1904998847534,18.81368813812843,0
105.1895956055786,18.81394390743901,0
105.1889926264671,18.81418799080782,0
105.1882249711355,18.81433469812308,0
105.187829644655,18.8144508210375,0
105.1871997932797,18.81452035438128,0
105.1870159562549,18.81452988862568,0
105.1867400078147,18.81449657386931,0
105.1865482622369,18.8144375112565,0
105.1865968523498,18.81434472420543,0
105.186270735134,18.81424477600548,0
105.1860601022017,18.81413056617013,0
105.1856592966485,18.81397183063097,0
105.1852730895471,18.81384202607453,0
105.1848628058763,18.81366475915239,0
105.1842641357793,18.81351578557338,0
105.1836543417304,18.81355280182414,0
105.183015374088,18.81369618825288,0
105.182269260716,18.81385143430782,0
105.1818248645714,18.81391317657941,0
105.1814258605655,18.8139896075335,0
105.1810402328962,18.81401094776286,0
105.1807408665215,18.81396152373442,0
105.1803488959887,18.81389180187416,0
105.1804435951104,18.81368292178689,0
105.1806991805169,18.81336649045539,0</coordinates>
        </LineString>
    </Placemark>
</Document>
</kml>