<?xml version="1.0" encoding="UTF-8"?>
<kml xmlns="http://www.opengis.net/kml/2.2">
<Document>
    <name>NA_NLC_NGHI_HUNG-NA_NLC_NGHI_HUNG_2.kml</name>
    <Placemark>
        <name>Tuyen_Cap_Chuan_Hoa</name>
        <LineString>
            <tessellate>1</tessellate>
            <coordinates>105.6050063097111,18.8385778108772,0
105.6051222020828,18.83853285850424,0
105.6053199060746,18.8385423860205,0
105.605501635258,18.83858033781203,0
105.6058048149747,18.83850533078968,0
105.6061050428446,18.83841559428854,0
105.606513135154,18.83836231572418,0
105.6065704560924,18.83856496149394,0
105.606816547846,18.83843587511623,0
105.607025784732,18.83831194736839,0
105.6073137788728,18.83815319353912,0
105.6076140444847,18.83797406853926,0
105.6074075897014,18.83755630254956,0
105.6071329110604,18.83717267410919,0
105.6067985691625,18.83671691308489,0
105.6064740761627,18.83630519676576,0
105.606114340673,18.83581458265973,0
105.6058689857375,18.8354780374835,0
105.6056352925409,18.83514544023734,0
105.6053994471019,18.8348177048722,0
105.6051868372653,18.83452132570711,0
105.6050608589595,18.83424653983061,0
105.6049630651283,18.83399682344348,0
105.6048730734074,18.83366537405579,0
105.6048723513369,18.83337042113389,0
105.6048666004623,18.83314906706917,0
105.6048399303011,18.83298009086426,0
105.6047453497794,18.83261011245496,0
105.6046213683425,18.83234513526914,0
105.6044169970468,18.831992207003,0
105.6042887565023,18.83173123015064,0
105.6041126687383,18.83136983557796,0
105.6038857842018,18.83092180628227,0
105.6036603944294,18.83048442876895,0
105.6035035430351,18.83020297256499,0
105.6033498005904,18.82986008838465,0
105.6032514986601,18.82971358797773,0
105.603069230381,18.82987995364726,0
105.6028849219125,18.82999753493078,0
105.602808976526,18.83033396317921,0
105.602574583362,18.83053363439235,0
105.6023187049583,18.83050269903414,0
105.602067909123,18.83061691881478,0
105.6017688431476,18.83072577070691,0
105.6014641972532,18.83083798961715,0
105.6011932576135,18.83090516116466,0
105.6009833530553,18.83092616961036,0
105.6006817036171,18.83096598673893,0
105.6004851439722,18.83096538568807,0
105.6001553909468,18.83099914309737,0
105.5999045210845,18.83101915848328,0
105.5996497905151,18.83104307902981,0
105.599284616712,18.83111250219729,0
105.599110787872,18.83115671762337,0
105.5989603730231,18.83111387028977,0
105.5990434609197,18.83082387257388,0
105.5991824625384,18.83054496729287,0
105.5993076819106,18.83029696737087,0
105.5994289477465,18.82999448576321,0
105.5997118637123,18.82981172544702,0
105.5998278061742,18.82954469691657,0
105.5998948384917,18.82923458448378,0
105.5998929363581,18.8287430776703,0
105.5996088382019,18.82872815255344,0
105.5991728503135,18.82865931159102,0
105.5987400723272,18.82861894990524,0
105.5987029694202,18.82845129700118,0
105.5983170339645,18.82848260313921,0
105.5978950333147,18.82845418012786,0
105.597461021339,18.82842364008652,0
105.5970926948993,18.82840589027817,0
105.5965590017251,18.82833608706676,0
105.5960551588306,18.82828365414713,0
105.5956533192699,18.82824462938674,0
105.5951385248952,18.82815465523215,0
105.5948695080454,18.82834173452123,0
105.5946529110523,18.82845595984253,0
105.594378521036,18.82849438713757,0
105.5939413302954,18.82852427240016,0
105.5935670810063,18.82851075059206,0
105.5931692582372,18.82855451341982,0
105.5928309592154,18.82857857946723,0
105.5923809903518,18.82859977741526,0
105.5920098385205,18.82861744546622,0
105.5917222680927,18.82862265243813,0
105.591429174245,18.82863444010652,0
105.5911524934354,18.82862482663828,0
105.5908773796221,18.82859560341502,0
105.5903619794463,18.82869745688421,0
105.5898048087205,18.82866730651892,0
105.5890198204223,18.82861720226107,0
105.5888402040403,18.82876988939914,0
105.5887609121354,18.82899014386655,0</coordinates>
        </LineString>
    </Placemark>
</Document>
</kml>