<?xml version="1.0" encoding="UTF-8"?>
<kml xmlns="http://www.opengis.net/kml/2.2">
<Document>
    <name>NA_HMA_QUYNH_LOC_3- NA_HMA_QUYNH_LOC.kml</name>
    <Placemark>
        <name>Tuyen_Cap_Chuan_Hoa</name>
        <LineString>
            <tessellate>1</tessellate>
            <coordinates>105.738089870141,19.27425328604795,0
105.7392425451336,19.27405235153906,0
105.7392215868995,19.27404662861307,0
105.7395272157367,19.27257803476726,0
105.7396877930534,19.27154223800953,0
105.7397527056173,19.2715287686932,0
105.7405642723163,19.26808453179208,0
105.7420697401353,19.26408948598012,0
105.7420721681301,19.26410320554148,0
105.7426269948924,19.26278810730813,0
105.74260560515,19.26279421096047,0
105.7424899050652,19.26274878072695,0
105.7426045631291,19.26228876738726,0
105.7424048349972,19.26122810799164,0
105.7422609315234,19.26026319296708,0
105.7422628803153,19.26027163770857,0
105.7422086539775,19.26034118577111,0
105.7406787985307,19.26038309501453,0
105.7406791353647,19.2603839023633,0
105.7399122129258,19.260575138405,0
105.7398541406464,19.2608806170276,0
105.7406323501737,19.26131899149179,0
105.7405893473799,19.26146058573054,0</coordinates>
        </LineString>
    </Placemark>
</Document>
</kml>