<?xml version="1.0" encoding="UTF-8"?>
<kml xmlns="http://www.opengis.net/kml/2.2">
<Document>
    <name>NA_NDN_DONG_DAI-NA_NDN_NAM_PHUC.kml</name>
    <Placemark>
        <name>Tuyen_Cap_Chuan_Hoa</name>
        <LineString>
            <tessellate>1</tessellate>
            <coordinates>105.5532363464184,18.57490033560007,0
105.5531460674168,18.57462156874935,0
105.5534727257289,18.57438249175373,0
105.5532605824991,18.57408521864613,0
105.5536518748755,18.57351968271796,0
105.5548538186446,18.57226519684514,0
105.555121745089,18.57119924530041,0
105.5551226124068,18.57117645987886,0
105.5553477792288,18.570479291366,0
105.5556872542453,18.57005358232253,0
105.5573494731544,18.56932509261354,0
105.5588685532828,18.56740127683535,0
105.5598243633606,18.56501600234824,0
105.5597437933802,18.56387929629134,0
105.5595557224491,18.56274155370586,0
105.5592006180787,18.56141010346211,0
105.559046317902,18.56014198323118,0
105.5590547932737,18.56006194106991,0
105.5589220999117,18.55901334932143,0
105.5580651003995,18.55848549176661,0
105.5569783175344,18.55816866007686,0
105.5566613652192,18.55811280351213,0
105.5565657992062,18.55879912920862,0
105.5569121787998,18.55902493356852,0</coordinates>
        </LineString>
    </Placemark>
</Document>
</kml>