<?xml version="1.0" encoding="UTF-8"?>
<kml xmlns="http://www.opengis.net/kml/2.2">
<Document>
    <name>NA_NLC_NGHI_MY_3-NA_NLC_NGHI_MY.kml</name>
    <Placemark>
        <name>Tuyen_Cap_Chuan_Hoa</name>
        <LineString>
            <tessellate>1</tessellate>
            <coordinates>105.5588910052848,18.82002765607551,0
105.5592661049654,18.8207993309363,0
105.5556819466432,18.82140604153959,0
105.5550941950085,18.82121704345071,0
105.5508571557065,18.82297387863043,0
105.5499089542572,18.82130353913466,0
105.5498524973787,18.8208244337931,0
105.5488527247534,18.81799595731784,0
105.5485686812922,18.81710886800723,0
105.5482639985982,18.8172516321842,0
105.5471960390231,18.81694994986156,0</coordinates>
        </LineString>
    </Placemark>
</Document>
</kml>