<?xml version="1.0" encoding="UTF-8"?>
<kml xmlns="http://www.opengis.net/kml/2.2">
<Document>
    <name>NA_CCG_PHU_MAT-NA_CCG_PU_MAT_2.kml</name>
    <Placemark>
        <name>Tuyen_Cap_Chuan_Hoa</name>
        <LineString>
            <tessellate>1</tessellate>
            <coordinates>104.8456018356365,19.06684061758491,0
104.8455818429583,19.06689757021137,0
104.8456140760672,19.06702099303496,0
104.8456086877617,19.06722041068257,0
104.8454555051091,19.06751006975259,0
104.8458340640954,19.06772986064227,0
104.8469022551238,19.06811248823627,0
104.8473934173898,19.06826314929918,0
104.8487187461595,19.06899912670829,0
104.8495570507059,19.06958418676439,0
104.8499917467219,19.06975382601398,0
104.8504541520574,19.06976173738851,0
104.8510669693702,19.06971545449724,0
104.8514551704431,19.06951838245438,0
104.8521422184756,19.0690696284393,0
104.852757620538,19.06861105463394,0
104.853943778779,19.06779650610321,0
104.8559275457882,19.0663461280414,0
104.8561632075612,19.06619763196885,0
104.8562692437875,19.06633044710731,0
104.8566712479103,19.0660170303625,0
104.8580438216493,19.0650488395966,0
104.8591018202276,19.06428259155809,0
104.8602017734013,19.06351586665734,0
104.8614223684447,19.0626257056886,0
104.8611436158319,19.06226476765871,0
104.8609724002637,19.06220518207889,0
104.8607105193455,19.06240469275478,0
104.8606140959645,19.06261876393369,0
104.8603536153722,19.06221761898759,0
104.8599772355727,19.0625111841933,0
104.8598605495984,19.06233013636745,0</coordinates>
        </LineString>
    </Placemark>
</Document>
</kml>