<?xml version="1.0" encoding="UTF-8"?>
<kml xmlns="http://www.opengis.net/kml/2.2">
<Document>
    <name>NA_TKY_TAN_KY_4-NA_TKY_TAN_KY_3.kml</name>
    <Placemark>
        <name>Tuyen_Cap_Chuan_Hoa</name>
        <LineString>
            <tessellate>1</tessellate>
            <coordinates>105.26378,19.0258,0
105.26448,19.02496,0
105.26472,19.02516,0
105.26496,19.02539,0
105.26532,19.02577,0
105.26557,19.026,0
105.26571,19.02607,0
105.26569,19.02618,0
105.26613,19.02636,0
105.26589,19.02668,0
105.26562,19.02762,0
105.26513,19.0286,0
105.26515,19.02877,0
105.26524,19.02898,0
105.26536,19.0292,0
105.26575,19.02985,0
105.26588,19.02978,0
105.26615,19.03023,0
105.26623,19.03046,0
105.26636,19.03099,0
105.26655,19.03138,0
105.26683,19.03179,0
105.26717,19.03227,0
105.26727,19.03245,0
105.26742,19.03293,0
105.26762,19.03368,0
105.26783,19.03428,0
105.26818,19.03486,0
105.26841,19.0355,0
105.26864,19.03632,0
105.26881,19.03689,0
105.26918,19.0375,0
105.26923,19.0377,0
105.26928,19.03813,0
105.269,19.03961,0
105.26848,19.04112,0
105.26822,19.04181,0
105.26819,19.04261,0
105.26817,19.04326,0
105.26845,19.04367,0
105.26881,19.04354,0
105.2692,19.04241,0</coordinates>
        </LineString>
    </Placemark>
</Document>
</kml>