<?xml version="1.0" encoding="UTF-8"?>
<kml xmlns="http://www.opengis.net/kml/2.2">
<Document>
    <name>NA_YTH_YEN_THANH-NA_YTH_XUAN_THANH.kml</name>
    <Placemark>
        <name>Tuyen_Cap_Chuan_Hoa</name>
        <LineString>
            <tessellate>1</tessellate>
            <coordinates>105.4561247890303,18.98406596855955,0
105.4558572876278,18.98357430821024,0
105.4559073515684,18.98335854421619,0
105.4556879565269,18.98287797760687,0
105.4549767587409,18.98317755777514,0
105.4545406548879,18.98341863354896,0
105.4540519062277,18.98370339799675,0
105.4538411304274,18.98377673720173,0
105.4550438799296,18.98624957218679,0
105.4560463908408,18.98827717127344,0
105.4570003401465,18.98988782415418,0
105.4571556723686,18.98985438935954,0
105.45795900628,18.99127532336936,0
105.4581735900205,18.99155089051303,0
105.4584296040147,18.99181683625371,0
105.4592219140818,18.99236181900869,0
105.45950954208,18.99271157235695,0
105.4606088156675,18.99376604319384,0
105.4608166941512,18.99396885005345,0
105.4610780333692,18.9941150234206,0
105.4612938893107,18.99429542633186,0
105.4620385363701,18.99501932885236,0
105.4618484336706,18.99518768858922,0
105.4627828459238,18.99580919658591,0
105.4626605888763,18.99602287614512,0
105.4627521835675,18.99606095192667,0</coordinates>
        </LineString>
    </Placemark>
</Document>
</kml>