<?xml version="1.0" encoding="UTF-8"?>
<kml xmlns="http://www.opengis.net/kml/2.2">
<Document>
    <name>NA_DLG_THINH_SON-NA_DLG_DO_LUONG.kml</name>
    <Placemark>
        <name>Tuyen_Cap_Chuan_Hoa</name>
        <LineString>
            <tessellate>1</tessellate>
            <coordinates>105.3081620723366,18.9001772309726,0
105.308198822212,18.89990669498905,0
105.3080129491465,18.89974074178523,0
105.3078909221689,18.89968327493077,0
105.3084274210341,18.89792509056506,0
105.3145442177206,18.89925889415384,0
105.3153742805238,18.89849730699247,0
105.3184875118305,18.89751313247552,0
105.3204687147122,18.89692364189551,0
105.3249059586446,18.89552498450127,0
105.3379496872801,18.89138635445956,0
105.3446166997361,18.89159602417047,0
105.3445504255844,18.89329676064843,0
105.344210368921,18.89360316092919,0
105.3420475681637,18.89363223911151,0
105.3420121648756,18.89442774728116,0
105.3404096224416,18.89444623151211,0
105.3402617096369,18.89434918338014,0
105.3401443049634,18.89378589573985,0
105.3399207897063,18.89379404587698,0</coordinates>
        </LineString>
    </Placemark>
</Document>
</kml>