<?xml version="1.0" encoding="UTF-8"?>
<kml xmlns="http://www.opengis.net/kml/2.2">
<Document>
    <name>NA_TKY_NGHIA_BINH-NA_TKY_NGHIA_BINH_2.kml</name>
    <Placemark>
        <name>Tuyen_Cap_Chuan_Hoa</name>
        <LineString>
            <tessellate>1</tessellate>
            <coordinates>105.3590804671596,19.14577853172888,0
105.3594845206377,19.14525679013922,0
105.3624226889846,19.14685608523991,0
105.364829701785,19.14835245412956,0
105.3670272818262,19.14965157977756,0
105.3681740788579,19.1507278547976,0
105.3694493822736,19.15237983383681,0
105.3699071999642,19.15252359524505,0
105.3715935585686,19.15494173442885,0
105.3735492735019,19.15757567505539,0
105.374821540348,19.15952130212178,0
105.3764826745598,19.16173311602173,0
105.377644432316,19.16356743107053,0
105.3781733654082,19.16450987625057,0
105.3787841976151,19.16512674641627,0
105.3791910280805,19.16570409675124,0
105.3793766203792,19.16628759497824,0
105.3795909231574,19.16719944779281,0
105.3795802932567,19.16739356867915,0
105.3804366406578,19.16965750659175,0
105.3816913206253,19.17248260039226,0
105.3820432533422,19.17334330902103,0
105.3827699453123,19.17345403616703,0
105.382691988376,19.17371614883291,0</coordinates>
        </LineString>
    </Placemark>
</Document>
</kml>