<?xml version="1.0" encoding="UTF-8"?>
<kml xmlns="http://www.opengis.net/kml/2.2">
<Document>
    <name>NA_QCU_CHAU_HANH-NA_QCU_QUY_CHAU.kml</name>
    <Placemark>
        <name>Tuyen_Cap_Chuan_Hoa</name>
        <LineString>
            <tessellate>1</tessellate>
            <coordinates>105.1256249743142,19.55680324632133,0
105.1256522490867,19.55661749319028,0
105.1253751490359,19.55562355008368,0
105.125262686823,19.5544005577828,0
105.1238398419983,19.5543715118664,0
105.123828740815,19.5545718659533,0
105.1217335827333,19.554766521992,0
105.1207920113544,19.55503891950845,0
105.1190303439622,19.5549891665063,0
105.1182722827274,19.55487456101795,0
105.1165852130878,19.55441792084629,0
105.1144381238257,19.55285860998012,0
105.1127154972357,19.55091771473485,0
105.1130900417164,19.55085035519709,0
105.1120226232612,19.54966536159859,0
105.1113245706813,19.54906705178817,0
105.1109686242196,19.54903740188707,0
105.1103140269324,19.54916837289863,0
105.1096956386568,19.54920584789034,0
105.1095785889692,19.54897325944022,0
105.1078734562152,19.54826085553018,0
105.1035691578645,19.54641580874533,0
105.103186724696,19.54514980144921,0
105.1003880175773,19.54663791876902,0
105.0988478824954,19.54740744905857,0
105.097900048647,19.54796006326718,0
105.0963096313252,19.5486720471841,0
105.0951971293585,19.54844766853873,0
105.0946220713465,19.54826096358,0
105.0940609819857,19.5482004705693,0
105.0941823288772,19.54852081558361,0
105.0944413436241,19.54874830153626,0
105.0947016254652,19.54893528659716,0
105.0947190965725,19.54906783641941,0
105.0957934750426,19.54950547751012,0
105.0958924154914,19.54977351153561,0
105.0957691930508,19.55013274750224,0
105.0960977109351,19.55041550813352,0
105.0959915855951,19.55065770367496,0</coordinates>
        </LineString>
    </Placemark>
</Document>
</kml>