<?xml version="1.0" encoding="UTF-8"?>
<kml xmlns="http://www.opengis.net/kml/2.2">
<Document>
    <name>NA_HNN_HUNG_MY-NA_HNN_HUNG_THINH_2.kml</name>
    <Placemark>
        <name>Tuyen_Cap_Chuan_Hoa</name>
        <LineString>
            <tessellate>1</tessellate>
            <coordinates>105.6483822090788,18.64661685675092,0
105.648368463416,18.64653022129723,0
105.6489698137186,18.64694698491704,0
105.6509021355707,18.64478219436873,0
105.6512190070749,18.64502813374059,0
105.6522158441475,18.64510625754993,0
105.6526347786736,18.64534575050822,0
105.6530078446347,18.64536560036004,0
105.6537588131464,18.64536231533938,0
105.6538088730898,18.64546790463506,0
105.6545738458244,18.64540130826686,0
105.655085201671,18.64537500148416,0
105.6555636792118,18.64528082865835,0
105.6563927626639,18.64507053355733,0
105.6577671301051,18.6467315450925,0
105.6585309049581,18.64784677938671,0
105.6592161202217,18.64871101915247,0
105.659650877692,18.64912956464581,0
105.6602858053627,18.64973802142954,0
105.660717891255,18.65017443766022,0
105.6608901312858,18.65009508649374,0
105.6620137626918,18.65126637868612,0
105.6619889452536,18.65151885096215,0
105.6630930683852,18.65255779829514,0
105.6635105323657,18.65214427469956,0
105.6639135546859,18.65192939071544,0
105.6642602888252,18.6518143569682,0
105.6649521300486,18.65162385256806,0
105.6651909303868,18.65168906608145,0
105.6650611661125,18.65103949525241,0
105.6650613257466,18.6510418437982,0</coordinates>
        </LineString>
    </Placemark>
</Document>
</kml>