<?xml version="1.0" encoding="UTF-8"?>
<kml xmlns="http://www.opengis.net/kml/2.2">
<Document>
    <name>NA_NAD_NGHIA_AN-NA_NAD_NGHIA_KHANH_2.kml</name>
    <Placemark>
        <name>Tuyen_Cap_Chuan_Hoa</name>
        <LineString>
            <tessellate>1</tessellate>
            <coordinates>105.392285875582,19.25638009508655,0
105.3921929142614,19.25628590404705,0
105.3923143707009,19.25604158763194,0
105.393049007664,19.25594664020425,0
105.3935497518294,19.25350921399638,0
105.3937659237025,19.25201633842533,0
105.393903616207,19.25199587483036,0
105.3940177256055,19.25135246707399,0
105.3941493638197,19.25086221734927,0
105.3945674199061,19.24970525859407,0
105.3949594555702,19.24870397868663,0
105.3954938344686,19.24787416405045,0
105.3953502359647,19.24779828868094,0
105.3957348262682,19.2472079500137,0
105.39647323918,19.24517854534649,0
105.3971846073411,19.24395579186903,0
105.3975606048222,19.24311763697332,0
105.3977011353922,19.24149847224043,0
105.3975173340735,19.24051490707932,0
105.3972519100369,19.23887988642053,0
105.3993990515494,19.23979591906918,0
105.402640520194,19.22967950353381,0
105.4035073067964,19.22420489701005,0
105.4033445203367,19.22280646019209,0
105.4028407093619,19.22262033998283,0
105.4022726722046,19.22151060379506,0
105.4027985201535,19.22090037319687,0</coordinates>
        </LineString>
    </Placemark>
</Document>
</kml>