<?xml version="1.0" encoding="UTF-8"?>
<kml xmlns="http://www.opengis.net/kml/2.2">
<Document>
    <name>NA_CCG_YEN_KHE-NA_CCG_CON_CUONG_4.kml</name>
    <Placemark>
        <name>Tuyen_Cap_Chuan_Hoa</name>
        <LineString>
            <tessellate>1</tessellate>
            <coordinates>104.8601027129101,19.02277588990838,0
104.8597428060705,19.02261089356315,0
104.8599247994337,19.02216688869642,0
104.8606185133612,19.02243364163978,0
104.8608209397323,19.02253699920269,0
104.8609952889564,19.02268526274732,0
104.8617263670604,19.02229771935259,0
104.8622996461667,19.02204620165359,0
104.8626342790942,19.02199242663622,0
104.8635032196254,19.02222284292097,0
104.8641590234861,19.02245579959693,0
104.8655936893762,19.02214048067986,0
104.8653697199292,19.0210893699566,0
104.8654410544811,19.02056703612554,0
104.8656515433182,19.01951101400261,0
104.8695953920396,19.01824128386097,0
104.872024242969,19.01730752672688,0
104.8758307463508,19.01489751231222,0
104.8787015758303,19.01332155843548,0
104.8821566699698,19.01228077853929,0
104.8823679936963,19.01196960083193,0
104.8882726818244,19.00985328468859,0
104.8891453716599,19.00976766215973,0
104.8910987357339,19.00898126444038,0
104.8915105209247,19.00897931902222,0
104.8913253598,19.01024134634076,0
104.8912562512991,19.01063237001281,0
104.8911424297402,19.01093786830353,0
104.8913822481928,19.01113884794858,0
104.8909230864395,19.01220676453912,0
104.8906544540395,19.01217838120327,0
104.8904982434978,19.01237506831022,0
104.8896320273018,19.01312739954212,0
104.8888989601104,19.01376727393638,0
104.8880724569233,19.01462461364762,0
104.8875881571156,19.01515805713061,0
104.8873531841502,19.01539419334032,0
104.8871627746276,19.01596195647957,0
104.8869741179893,19.01662369035896,0
104.886983009425,19.01724244199613,0
104.8866025429066,19.01726262479422,0
104.8862772631709,19.01727705188788,0
104.885913979452,19.0173116438919,0
104.8857066400089,19.01724048386402,0
104.8855737231152,19.01712637928602,0
104.8855454509181,19.01698573513579,0
104.8857030832224,19.01691142359243,0
104.885912556981,19.01658785797739,0
104.8858685646333,19.0164242400351,0
104.8855915576644,19.01630682019122,0
104.8853249679397,19.01614907535086,0
104.8852539951941,19.01608561418766,0</coordinates>
        </LineString>
    </Placemark>
</Document>
</kml>