<?xml version="1.0" encoding="UTF-8"?>
<kml xmlns="http://www.opengis.net/kml/2.2">
<Document>
    <name>NA_TKY_KY_SON-NA_TKY_TAN_KY_3.kml</name>
    <Placemark>
        <name>Tuyen_Cap_Chuan_Hoa</name>
        <LineString>
            <tessellate>1</tessellate>
            <coordinates>105.23742,19.03816,0
105.23739,19.03775,0
105.23966,19.0378,0
105.24218,19.03854,0
105.24564,19.03983,0
105.24818,19.04058,0
105.24887,19.04086,0
105.25061,19.0434,0
105.25272,19.04368,0
105.2552,19.04316,0
105.25737,19.04337,0
105.25828,19.04363,0
105.2592,19.04438,0
105.26041,19.04601,0
105.26196,19.04673,0
105.26352,19.04637,0
105.2676319764637,19.04518533370447,0
105.2675705033041,19.04475979790098,0
105.26784,19.04436,0
105.2680963616227,19.04393699102596,0
105.2685521524882,19.04391241943627,0
105.2684273436975,19.04370430555391,0
105.26883,19.04353,0
105.26916,19.04242,0
105.26924,19.04244,0</coordinates>
        </LineString>
    </Placemark>
</Document>
</kml>