<?xml version="1.0" encoding="UTF-8"?>
<kml xmlns="http://www.opengis.net/kml/2.2">
<Document>
    <name>NA_TKY_GIAI_XUAN-NA_TKY_TAN_PHU.kml</name>
    <Placemark>
        <name>Tuyen_Cap_Chuan_Hoa</name>
        <LineString>
            <tessellate>1</tessellate>
            <coordinates>105.2755265384153,19.14242429884396,0
105.2753071059432,19.14272237813221,0
105.2752402945458,19.14286612131186,0
105.275593403402,19.14319405880099,0
105.2748885410219,19.14374998390653,0
105.274263670403,19.14452353559208,0
105.2729754635692,19.14578336398423,0
105.2718718619393,19.14677504379068,0
105.2706850751329,19.14808676214815,0
105.2702023142993,19.14845538016845,0
105.269285188814,19.14840545272056,0
105.2679995409445,19.14803033196981,0
105.263885831635,19.14782123639389,0
105.260210512744,19.14735797719183,0
105.2581550904549,19.14651815659473,0
105.2564328561643,19.14593911181473,0
105.2550412133472,19.14529725546345,0
105.2541347917063,19.14529824657938,0
105.2524563858847,19.14556726944779,0
105.2505029849556,19.14628696293603,0
105.2495304581611,19.14655156320845,0
105.2487955023521,19.14731083434359,0
105.2481179369568,19.14812546883827,0
105.2472520945764,19.14814600571177,0
105.2460541777562,19.1480798285961,0
105.2456488984325,19.14800703395338,0
105.2446153617443,19.14889868547392,0
105.2438060616477,19.14948461353112,0
105.2436197630629,19.14926698691393,0
105.2422763910832,19.14809572723226,0
105.2418740488094,19.14764404476633,0
105.2415494369954,19.14806956146313,0</coordinates>
        </LineString>
    </Placemark>
</Document>
</kml>