<?xml version="1.0" encoding="UTF-8"?>
<kml xmlns="http://www.opengis.net/kml/2.2">
<Document>
    <name>NA_NLC_NGHI_CONG_NAM_2-NA_NLC_NGHI_DONG.kml</name>
    <Placemark>
        <name>Tuyen_Cap_Chuan_Hoa</name>
        <LineString>
            <tessellate>1</tessellate>
            <coordinates>105.5727626465196,18.78849805340294,0
105.5719266208249,18.78774592414127,0
105.5716205888629,18.78767129474386,0
105.5713725271957,18.78741411061025,0
105.5713907482922,18.78720387027777,0
105.5712679909141,18.7870219017332,0
105.5711066769303,18.78664340064044,0
105.5715733277162,18.78638319958025,0
105.5719172289663,18.78617379150847,0
105.572934346261,18.78583910729045,0
105.5732859009798,18.78575897083404,0
105.5735457975091,18.78565843515869,0
105.5745608643013,18.78545077976342,0
105.5749140399012,18.78539818118823,0
105.5752026935449,18.78536452718594,0
105.575476128376,18.78531655115395,0
105.5757844144453,18.7852827951354,0
105.5757780420968,18.78559552873839,0
105.5763307693166,18.78557290704926,0
105.5777709780238,18.78758267001727,0
105.5788358454232,18.78902640420793,0
105.5794906087818,18.79000586694825,0
105.5801390733527,18.79088515221816,0
105.5806636715884,18.79171030659753,0
105.5826953968812,18.79216774024885,0
105.5835826164478,18.792547117468,0
105.5842748152391,18.79292502421534,0
105.5854133686663,18.79038125326163,0
105.586526706258,18.78771995869818,0
105.5865681115373,18.78674580233488,0
105.5891923662352,18.78683601807311,0
105.5896620155951,18.78672797388813,0
105.5905076317616,18.78669878687485,0
105.5904714666223,18.78605395884482,0
105.5904132514456,18.78561675461991,0
105.590789913021,18.78557830473306,0
105.5910923102505,18.78553977409918,0
105.591206469497,18.78559573876931,0</coordinates>
        </LineString>
    </Placemark>
</Document>
</kml>