<?xml version="1.0" encoding="UTF-8"?>
<kml xmlns="http://www.opengis.net/kml/2.2">
<Document>
    <name>NA_QLU_QUYNH_GIANG_2-NA_QLU_QUYNH_GIANG.kml</name>
    <Placemark>
        <name>Tuyen_Cap_Chuan_Hoa</name>
        <LineString>
            <tessellate>1</tessellate>
            <coordinates>105.605784528848,19.12971722688041,0
105.6060162454775,19.12963165055833,0
105.6061745627133,19.12972348860261,0
105.6063861057374,19.12986199802089,0
105.606760058575,19.13015401006693,0
105.6070191001479,19.13035784849877,0
105.607346343303,19.13056760455731,0
105.6076826096601,19.13073873055367,0
105.6079849330661,19.13083342842819,0
105.6083947335829,19.13069004837023,0
105.6088217736224,19.13057137871337,0
105.6095183781505,19.13051316609299,0
105.6100226719461,19.13048508927298,0
105.6105281137411,19.13046765381588,0
105.6115416773691,19.13062307449504,0
105.6128366643767,19.1307897928998,0
105.6133950630709,19.13084721169584,0
105.6141477199722,19.13094165627878,0
105.614769007044,19.13103075050504,0
105.6150996442423,19.13108423014305,0
105.6155295827587,19.13095193701586,0
105.6160068815659,19.13063227812283,0
105.6162489239444,19.13090290837144,0
105.6166665162646,19.13136296492036,0
105.6169136422283,19.13129468063454,0
105.617318704925,19.13079387962963,0
105.6175802603477,19.13032036739311,0
105.6178686899771,19.12984636321294,0
105.6183247875062,19.13010042189937,0
105.6184546633701,19.13000392059397,0</coordinates>
        </LineString>
    </Placemark>
</Document>
</kml>