<?xml version="1.0" encoding="UTF-8"?>
<kml xmlns="http://www.opengis.net/kml/2.2">
<Document>
    <name>NA_HMA_QUYNH_LAP_4-NA_HMA_QUYNH_LOC_2.kml</name>
    <Placemark>
        <name>Tuyen_Cap_Chuan_Hoa</name>
        <LineString>
            <tessellate>1</tessellate>
            <coordinates>105.7636630579437,19.25899121929887,0
105.7637906307439,19.25896089204706,0
105.7642007495052,19.25940936275381,0
105.7646298332574,19.25957213078766,0
105.7649197230715,19.25933491250874,0
105.7654135852571,19.25958003003719,0
105.7657934644927,19.25971011962215,0
105.7655474817998,19.26056086744555,0
105.7651466935883,19.26067165614441,0
105.7646991230864,19.26110196129932,0
105.7632512782949,19.26145964858773,0
105.7618726459942,19.261659467193,0
105.7605560093288,19.2610632193382,0
105.7591550228898,19.26011706017437,0
105.7586625875418,19.25928106039668,0
105.7577888109424,19.25919433695843,0
105.7562869312531,19.25846675921789,0
105.754629398588,19.25758611305323,0
105.7545457297466,19.25731058254792,0
105.7543509293294,19.25696277661864,0
105.7543018821261,19.25673037445728,0
105.7540939591517,19.25660433954936,0
105.7539310918378,19.25638165304662,0
105.7540544535553,19.25632798071619,0
105.7541072796372,19.25628042667245,0
105.7536750978543,19.25604734456841,0
105.7526210827437,19.25544738551662,0
105.7513377408413,19.25499366268826,0
105.750538772875,19.25469432090984,0
105.750333997707,19.25489183210159,0
105.7501661592195,19.25505920642456,0
105.7499970474386,19.25522136412716,0
105.7499180281032,19.2551779536734,0</coordinates>
        </LineString>
    </Placemark>
</Document>
</kml>