<?xml version="1.0" encoding="UTF-8"?>
<kml xmlns="http://www.opengis.net/kml/2.2">
<Document>
    <name>NA_TCG_NGOC_LAM-NA_TCG_THANH_THUY_2.kml</name>
    <Placemark>
        <name>Tuyen_Cap_Chuan_Hoa</name>
        <LineString>
            <tessellate>1</tessellate>
            <coordinates>105.3034495897093,18.69443754072473,0
105.3034118504552,18.695122995793,0
105.3030379073442,18.69502464374223,0
105.3025949211898,18.69730124065099,0
105.3033181130376,18.69801886834267,0
105.3042682554382,18.698780793224,0
105.3055083284082,18.69949185635089,0
105.3038001444534,18.69969525975439,0
105.3031963123769,18.69961219488095,0
105.3025581216033,18.69991010707364,0
105.3011894028311,18.69997449045676,0
105.3007169361114,18.69990957112733,0
105.3000590341136,18.69965572142495,0
105.2979691625286,18.70042766119184,0
105.296245235629,18.7012808367514,0
105.2939982984455,18.70288838470559,0
105.2936582561029,18.702629866599,0
105.2928582398832,18.70321728301053,0
105.2913617745237,18.70464820820069,0
105.2902409260265,18.70544635097383,0
105.290308048847,18.70580341562543,0
105.2894064573884,18.70561306831565,0
105.2880652152946,18.70555637856517,0
105.2862912830787,18.70599175742356,0
105.2853445084681,18.70674758591023,0
105.2854983213329,18.70704919419777,0
105.2861562752796,18.70801606147115,0</coordinates>
        </LineString>
    </Placemark>
</Document>
</kml>