<?xml version="1.0" encoding="UTF-8"?>
<kml xmlns="http://www.opengis.net/kml/2.2">
<Document>
    <name>NA_NLC_NGHI_MY_2-NA_NLC_NGHI_MY.kml</name>
    <Placemark>
        <name>Tuyen_Cap_Chuan_Hoa</name>
        <LineString>
            <tessellate>1</tessellate>
            <coordinates>105.569423735931,18.80960696707018,0
105.5693664012541,18.80953231742765,0
105.5693493050134,18.80950304721011,0
105.5693268896006,18.80948286015696,0
105.5693045769419,18.80946344970412,0
105.5692879079648,18.80945075221287,0
105.569265738281,18.80943225335369,0
105.5692326079806,18.80941464599365,0
105.5692105709342,18.80940293430891,0
105.5691886097781,18.80938458293311,0
105.5691777202309,18.80936547198639,0
105.5691614194441,18.80934083601964,0
105.5691616359992,18.80931449860751,0
105.5691619053015,18.80928177905867,0
105.5691621532932,18.80925012047483,0
105.5691786328682,18.80922303220272,0
105.5691950053308,18.80919655997471,0
105.5692005086515,18.80917115935248,0
105.5692113370619,18.8091516281505,0
105.5692274874993,18.80912538125349,0
105.5692542210655,18.80909884149997,0
105.5692701767899,18.80907998458287,0
105.569286043955,18.80905540123404,0
105.5693071684289,18.80903675960901,0
105.5693334444422,18.80901221045349,0
105.5693490631015,18.80898868223823,0
105.5693647490024,18.80897686605402,0
105.5693959250656,18.80894757956068,0
105.5694010081736,18.80893615175043,0
105.5694319468006,18.80890697457905,0
105.5694624853927,18.80886695881752,0
105.5694881241952,18.80884967709295,0
105.5695084906318,18.80883260471489,0
105.5695185900725,18.80882147264705,0
105.5695596641909,18.80880528366635,0
105.5695641598272,18.80878310182958,0
105.5695737987258,18.80876101752988,0
105.5695679817724,18.80873935397539,0
105.5695623496723,18.80872317426057,0
105.5695615434273,18.80869624156997,0
105.5695609012976,18.80867479239525,0
105.569560261793,18.80865342918315,0
105.5695545293568,18.80863218440279,0
105.5695540402273,18.80861610039309,0
105.5695477732645,18.80857826371335,0
105.5694010344011,18.80859241089387,0
105.5691253683037,18.80866610889781,0
105.5687972444762,18.80870822738426,0
105.568663123347,18.80866844249721,0
105.5684867212958,18.80857478517809,0
105.5682735296168,18.80846951184192,0
105.5680299691013,18.80829577392923,0
105.5677352098382,18.8082242885293,0
105.567544864224,18.80819991992526,0
105.5673256854381,18.80817559281621,0
105.5670737065253,18.80817099311227,0
105.5668708086332,18.80818710703585,0
105.5667487293047,18.80863025630566,0
105.5666816652775,18.80891614671466,0
105.566611744485,18.80934859618024,0
105.566457930165,18.81012656431548,0
105.5663985510977,18.81049303341403,0
105.566456893078,18.81078127689798,0
105.5666650246015,18.81115711681049,0
105.5668897550009,18.81156736773456,0
105.5671097023639,18.81187058063589,0
105.5673154999949,18.81218147583973,0
105.5675372832759,18.81252525169275,0
105.5677859291439,18.81287256130827,0
105.5679982187717,18.81324580238691,0
105.5682998826485,18.81368614752103,0
105.5685855387109,18.81409805681729,0
105.5689282073721,18.81462841348977,0
105.569250506536,18.81514159208749,0
105.5695977465525,18.8157802430927,0
105.5700123186445,18.81655216722035,0
105.5702497190898,18.8169506603372,0
105.5698164356304,18.81694260519379,0
105.5696549049553,18.81695307076616,0
105.5693930654388,18.81700979103338,0
105.5692099498806,18.81706300175209,0
105.5689035224379,18.81713372455061,0
105.5686486207033,18.81718728636623,0
105.5684360536778,18.81725530145852,0
105.5681963099141,18.81731653729657,0
105.567925736015,18.81738154376963,0
105.5676441253559,18.81745066810085,0
105.5673193966506,18.81755173889877,0
105.5670952853525,18.8176104449602,0
105.566819014883,18.81768614363377,0
105.5665194044507,18.81776430764885,0
105.5662425449861,18.81784318346842,0
105.5660362492973,18.81790857680287,0
105.565809081086,18.81797461001135,0
105.5655448539125,18.81805283771418,0
105.5653053474167,18.81812626696401,0
105.5649378972946,18.81824766556239,0
105.5643811065318,18.81843623479801,0
105.5642587619512,18.81848559228133,0
105.56411671985,18.81853791015698,0
105.5639976576588,18.81857785491601,0
105.563874202226,18.81862463207506,0
105.5637563026062,18.8186690491898,0
105.5635839862349,18.8187430875557,0
105.5634226452708,18.81879493485649,0
105.5632366341163,18.81887652179906,0
105.563121610637,18.8189219396193,0
105.5632191489326,18.81911940133526,0
105.5633171573268,18.81934873735202,0
105.5633732895685,18.819494946974,0
105.563400641573,18.81956405039937,0
105.5631169063191,18.81968224039248,0
105.5628117471843,18.8197716662042,0
105.5625626094203,18.8198292192282,0
105.5624980618843,18.81968386573718,0
105.5624529675804,18.81959142024173,0
105.562343440784,18.81942226277354,0</coordinates>
        </LineString>
    </Placemark>
</Document>
</kml>