<?xml version="1.0" encoding="UTF-8"?>
<kml xmlns="http://www.opengis.net/kml/2.2">
<Document>
    <name>NA_QCU_QUY_CHAU_2-NA_QCU_QUY_CHAU.kml</name>
    <Placemark>
        <name>Tuyen_Cap_Chuan_Hoa</name>
        <LineString>
            <tessellate>1</tessellate>
            <coordinates>105.077517676492,19.56197946820241,0
105.0775534900068,19.56184921349766,0
105.0776756680566,19.56182387683564,0
105.0777809277768,19.56153508176486,0
105.0778402601411,19.56110603029677,0
105.0779127884704,19.56077068798265,0
105.0778691478263,19.5606401439001,0
105.077762952895,19.56050986491665,0
105.07757531377,19.56035306561583,0
105.0773807458881,19.56005955495416,0
105.0771805559323,19.55960021227602,0
105.0773598461126,19.55951863960689,0
105.0795752996541,19.55866666374058,0
105.0805825341138,19.55827954535119,0
105.081418134735,19.5580038788891,0
105.0820674774042,19.55774959036719,0
105.0826212499397,19.55754425515298,0
105.0829792110424,19.55751229909746,0
105.0835213251722,19.55749388261019,0
105.0840071024602,19.55753599246837,0
105.0848290856903,19.55749818905625,0
105.0853760300508,19.55736010785792,0
105.0863102881414,19.55718222320205,0
105.0866641627585,19.55713465238536,0
105.087062046336,19.5570371229285,0
105.0881259468547,19.55592542422599,0
105.0892476962082,19.55487622730063,0
105.0890952673062,19.55451160331606,0
105.0898928928165,19.55366201788355,0
105.0902212579765,19.55343912325845,0
105.0905315228561,19.55336033735386,0
105.0911270251802,19.55327533485708,0
105.091754795781,19.55322969906194,0
105.0921990573735,19.5531330348475,0
105.0929471046648,19.55287262659498,0
105.0931553417223,19.55298265706788,0
105.093726557161,19.55287454584323,0
105.0942998444167,19.55270689139128,0
105.094581567485,19.55247544756459,0
105.0950078056732,19.55209833550484,0
105.0957316711725,19.55147101649374,0
105.0962469210554,19.55109203743065,0
105.0966127328478,19.55083406043804,0
105.0964557070398,19.55064344562318,0
105.0961514440689,19.55041547699657,0
105.0960151261173,19.55062841809182,0</coordinates>
        </LineString>
    </Placemark>
</Document>
</kml>