<?xml version="1.0" encoding="UTF-8"?>
<kml xmlns="http://www.opengis.net/kml/2.2">
<Document>
    <name>NA_DCU_DIEN_MINH-NA_DCU_DIEN_THANG.kml</name>
    <Placemark>
        <name>Tuyen_Cap_Chuan_Hoa</name>
        <LineString>
            <tessellate>1</tessellate>
            <coordinates>105.5230661241287,18.96112577115332,0
105.5230490296464,18.96103087471994,0
105.5236453895363,18.96090028417418,0
105.5234540026611,18.96003795925736,0
105.5239842358899,18.95975257878622,0
105.5245604433235,18.95936915709217,0
105.5251968310967,18.95895751882975,0
105.5258965640203,18.95860074425053,0
105.5266775463561,18.95830937890734,0
105.5265977978083,18.95766078588229,0
105.5265286862175,18.95759325319738,0
105.5265049726915,18.9571030288513,0
105.5265330013944,18.95685382108748,0
105.526455475533,18.95575903724275,0
105.5263682393885,18.95479345113506,0
105.5263662108185,18.9537035701112,0
105.5270379151139,18.95372490650809,0
105.528404081944,18.9537692973947,0
105.5287570530679,18.95365870938867,0
105.5290915964037,18.9537777743475,0
105.5293344317506,18.95380465357546,0
105.5305042302503,18.95376674204062,0
105.5330744987663,18.95368771696679,0
105.5352801387769,18.95361937124286,0
105.5359138153025,18.95457529458574,0
105.5362177045504,18.95437858797554,0</coordinates>
        </LineString>
    </Placemark>
</Document>
</kml>