<?xml version="1.0" encoding="UTF-8"?>
<kml xmlns="http://www.opengis.net/kml/2.2">
<Document>
    <name>NA_HNN_HUNG_THINH_3-NA_HNN_HUNG_THINH.kml</name>
    <Placemark>
        <name>Tuyen_Cap_Chuan_Hoa</name>
        <LineString>
            <tessellate>1</tessellate>
            <coordinates>105.6711421437207,18.6416336910318,0
105.6710463549538,18.64167158065423,0
105.6710150935479,18.64216848307239,0
105.6709717712617,18.64309399531185,0
105.6709425899032,18.6432520733375,0
105.6713493617169,18.64355415250877,0
105.6716269432252,18.64365241103769,0
105.6724685808648,18.64308093467117,0
105.6732201016931,18.64258199253721,0
105.6738577624666,18.64214788372026,0
105.6750937787742,18.64138880063677,0
105.6768689846463,18.64048205847472,0
105.677593157653,18.63987772035346,0
105.6787635553746,18.63907909141716,0
105.679242503833,18.6387644946352,0
105.6793090443718,18.6388136599913,0
105.6800986809364,18.63825264576321,0
105.6804582331774,18.63800722871632,0
105.6808504324302,18.63753512486107,0
105.6811834374992,18.6371902008508,0
105.6816144492369,18.63686635966017,0
105.682033540739,18.63724935266645,0
105.6825020896583,18.63757617357451,0
105.6828853350498,18.63768800424181,0
105.6831009420176,18.63793743267537,0
105.6828051834669,18.63813245387556,0
105.6831002905671,18.63844013200717,0
105.6833167483909,18.63875041835058,0
105.6832366311151,18.63886753058792,0
105.6833886298002,18.63903487156654,0
105.6831219149805,18.63922065081689,0
105.6827136255107,18.63952793223142,0
105.6827832823556,18.63965504855141,0</coordinates>
        </LineString>
    </Placemark>
</Document>
</kml>