<?xml version="1.0" encoding="UTF-8"?>
<kml xmlns="http://www.opengis.net/kml/2.2">
<Document>
    <name>NA_TCG_THANH_DUC-NA_TCG_HANH_LAM.kml</name>
    <Placemark>
        <name>Tuyen_Cap_Chuan_Hoa</name>
        <LineString>
            <tessellate>1</tessellate>
            <coordinates>105.1623756597023,18.83305155225328,0
105.1627097358513,18.8323355322525,0
105.1629012660506,18.83193221449416,0
105.1632512994944,18.83151357202408,0
105.1626095348102,18.83109707695833,0
105.1629030945218,18.83073461071541,0
105.1634495668232,18.83034425264316,0
105.1639536247376,18.83002573800215,0
105.1642388514681,18.82984343835638,0
105.164475669625,18.8295899388622,0
105.1646685902503,18.82920475197322,0
105.1647725797724,18.82864914134416,0
105.1649175601838,18.82769056498332,0
105.1649779017176,18.82741297626404,0
105.1651434519175,18.82700527731658,0
105.1653192998147,18.82672902829959,0
105.1659213549263,18.8259532812224,0
105.1664768231491,18.82530780278038,0
105.1662907029545,18.82520628421025,0
105.1664728780705,18.82496680784945,0
105.1669418420699,18.82439006354118,0
105.1672509181294,18.82398309754479,0
105.1675030521095,18.82312548260341,0
105.167706491388,18.82225219247614,0
105.1680463088843,18.82112387146645,0
105.1682196622098,18.82064739453611,0
105.1684197013608,18.82071262862054,0
105.1686367425862,18.82029078425324,0
105.1688525994346,18.81998321593511,0
105.1701901496183,18.81755750723195,0
105.1715289008995,18.81509417170164,0
105.1721987077657,18.81390870617771,0
105.1725869590274,18.81341598457586,0
105.1729873189653,18.81309440363599,0
105.1735004081944,18.81284214424286,0
105.1739519720524,18.8126772362244,0
105.1744961044789,18.8126281511075,0
105.1750361312142,18.81271060438163,0
105.176299245875,18.81298912870676,0
105.1771842023407,18.81322668056404,0
105.1772157740246,18.81308051489693,0
105.1782751360254,18.81330233273556,0
105.179027801985,18.81350065707203,0
105.1801191419095,18.81376159158637,0
105.1803771146871,18.81387348699529,0
105.1804741984274,18.81364130552277,0
105.1805853417523,18.81339255799082,0
105.1807285475349,18.8131535924054,0</coordinates>
        </LineString>
    </Placemark>
</Document>
</kml>