<?xml version="1.0" encoding="UTF-8"?>
<kml xmlns="http://www.opengis.net/kml/2.2">
<Document>
    <name>NA_YTH_BAO_THANH-NA_YTH_YEN_THANH_2.kml</name>
    <Placemark>
        <name>Tuyen_Cap_Chuan_Hoa</name>
        <LineString>
            <tessellate>1</tessellate>
            <coordinates>105.4548352054502,18.90167747072354,0
105.4548891512801,18.90204073820922,0
105.454530724326,18.90223853904391,0
105.4540587889061,18.9017595808023,0
105.4530211895858,18.90189115484538,0
105.4521881958183,18.90194896254437,0
105.4508507663457,18.90189868772669,0
105.450465418756,18.90185192651296,0
105.4502173537766,18.90151424955184,0
105.4496511103322,18.9013483848847,0
105.4482420194096,18.90137541081955,0
105.4479577726102,18.90114049493172,0
105.4476161584077,18.90098777684844,0
105.4471019018014,18.90142473716184,0
105.4466728020401,18.90159171852601,0
105.4461371721264,18.90194801169808,0
105.4460895237189,18.90288504984569,0
105.4461711628766,18.90338929628542,0
105.447363565116,18.90464760646318,0
105.4468662420491,18.90706041150249,0
105.4466327135185,18.907949964965,0
105.4464398116154,18.9084812821241,0
105.4459800350332,18.91014334884203,0
105.4457089294795,18.911189598331,0
105.4448892144654,18.91396405907357,0
105.4446413094753,18.91476884080408,0
105.443836857001,18.91457014336251,0
105.4439813823087,18.91486017380989,0
105.4439740343205,18.91660879631147,0
105.4439282932464,18.91824007091484,0
105.4441991343271,18.91844605707555,0
105.4440756294123,18.91982871490695,0
105.444065891798,18.91997991882987,0
105.4433748665445,18.91973802966715,0
105.4420500451576,18.91993105153789,0
105.4420842370913,18.92069545932826,0
105.4385561491305,18.92058986015225,0
105.4386444924597,18.92067685282998,0</coordinates>
        </LineString>
    </Placemark>
</Document>
</kml>