<?xml version="1.0" encoding="UTF-8"?>
<kml xmlns="http://www.opengis.net/kml/2.2">
<Document>
    <name>NA_CLO_CUA_LO_3-NA_NLC_NGHI_HOP.kml</name>
    <Placemark>
        <name>Tuyen_Cap_Chuan_Hoa</name>
        <LineString>
            <tessellate>1</tessellate>
            <coordinates>105.712,18.82313,0
105.7116,18.82307,0
105.71146,18.82359,0
105.71087,18.82331,0
105.71015,18.82319,0
105.70975,18.82311,0
105.70952,18.82315,0
105.70952,18.82287,0
105.70956,18.82225,0
105.70971,18.82137,0
105.70959,18.82065,0
105.70973,18.82048,0
105.70897,18.81811,0
105.70878,18.81811,0
105.70884,18.81584,0
105.7041,18.81514,0
105.70403,18.81454,0
105.70416,18.81451,0</coordinates>
        </LineString>
    </Placemark>
</Document>
</kml>