<?xml version="1.0" encoding="UTF-8"?>
<kml xmlns="http://www.opengis.net/kml/2.2">
<Document>
    <name>NA_DCU_DIEN_NGOC-NA_DCU_DIEN_CHAU.kml</name>
    <Placemark>
        <name>Tuyen_Cap_Chuan_Hoa</name>
        <LineString>
            <tessellate>1</tessellate>
            <coordinates>105.6013942222048,19.00023818562521,0
105.6013999800176,18.99992782384722,0
105.6008955434807,18.99986127871971,0
105.6000331531244,18.99965106223751,0
105.5990042947453,18.99921276956928,0
105.5977791516394,18.99865978925166,0
105.5956072110601,18.99767550028993,0
105.5958058415632,18.99694199136804,0
105.5969590751898,18.99346293910062,0
105.5979580915146,18.99045457410942,0
105.5990812010913,18.98679954808513,0
105.5997183354395,18.98484391061141,0
105.5994922639686,18.98478489306194,0
105.599829328832,18.98360555406203,0
105.6003844880015,18.98180336852462,0
105.6005312788526,18.98083741626512,0
105.6005781221138,18.97918724252384,0
105.6005796096023,18.97687131776147,0
105.6002736526575,18.97691533270375,0</coordinates>
        </LineString>
    </Placemark>
</Document>
</kml>