<?xml version="1.0" encoding="UTF-8"?>
<kml xmlns="http://www.opengis.net/kml/2.2">
<Document>
    <name>NA_YTH_MA_THANH_3-NA_YTH_HAU_THANH_2.kml</name>
    <Placemark>
        <name>Tuyen_Cap_Chuan_Hoa</name>
        <LineString>
            <tessellate>1</tessellate>
            <coordinates>105.5144656770344,19.05541993620867,0
105.5145459894184,19.05555020319058,0
105.5146420307909,19.0556054232766,0
105.5145251127287,19.05599236974769,0
105.514363759234,19.05611078722653,0
105.5137214745561,19.05556389772897,0
105.5132385671065,19.05529965913836,0
105.5121779511761,19.05509801962603,0
105.5111563219983,19.05478189431169,0
105.5104767246873,19.05463999946218,0
105.5088893304211,19.05444605065707,0
105.5078856702125,19.05442561868954,0
105.5066739863083,19.05450119464716,0
105.5064051199421,19.05437440312451,0
105.5059186204487,19.05388322774911,0
105.5043216294196,19.05296256301723,0
105.5041110533996,19.05301023755585,0
105.503422771181,19.05256127801831,0
105.5017021955761,19.05131962377007,0
105.5017187492868,19.05119598151837,0
105.5012339968748,19.05077937490716,0
105.5005855356677,19.05032423841657,0
105.5004065926683,19.05022567402069,0
105.5001368220948,19.05016227505772,0
105.4999719553238,19.05010230292968,0
105.4992883425545,19.04950722904033,0
105.4978839930894,19.04831495562036,0
105.4973626197046,19.04795557889106,0
105.4972420321478,19.04802562037118,0
105.4971991070295,19.04812074464381,0
105.496987735688,19.04817625003444,0
105.4968077733718,19.04854942282111,0
105.4964928195566,19.04878641370226,0
105.4958178241976,19.04960686252207,0
105.4957478032419,19.05099310785456,0
105.4955921452475,19.05090099508424,0</coordinates>
        </LineString>
    </Placemark>
</Document>
</kml>