<?xml version="1.0" encoding="UTF-8"?>
<kml xmlns="http://www.opengis.net/kml/2.2">
<Document>
    <name>NA_QLU_QUYNH_NGOC_3-NA_QLU_QUYNH_NGOC_2.kml</name>
    <Placemark>
        <name>Tuyen_Cap_Chuan_Hoa</name>
        <LineString>
            <tessellate>1</tessellate>
            <coordinates>105.6645923146351,19.11843707509879,0
105.6647792374094,19.11828432014301,0
105.6649063288965,19.11853202643393,0
105.664574102183,19.11882137191311,0
105.6636688079551,19.1180593904231,0
105.6633442595222,19.11845770982267,0
105.6642080850249,19.11918987948518,0
105.6639375846951,19.12131434016502,0
105.664364855408,19.12254872403394,0
105.6653905523105,19.12535509229938,0
105.6658397986357,19.12642943683513,0
105.6637770812269,19.12733006368385,0
105.6634393514461,19.1265505604314,0</coordinates>
        </LineString>
    </Placemark>
</Document>
</kml>