<?xml version="1.0" encoding="UTF-8"?>
<kml xmlns="http://www.opengis.net/kml/2.2">
<Document>
    <name>NA_QLU_QUYNH_VAN_5-NA_QLU_QUYNH_VAN.kml</name>
    <Placemark>
        <name>Tuyen_Cap_Chuan_Hoa</name>
        <LineString>
            <tessellate>1</tessellate>
            <coordinates>105.665624125544,19.18477201715331,0
105.6655136156777,19.18485299565354,0
105.6657891043616,19.18515264008078,0
105.6659450640101,19.18531835313593,0
105.6660941139567,19.18548149468264,0
105.6664158471394,19.18582391087398,0
105.6667026709335,19.18613265409646,0
105.6676486081115,19.18717452608355,0
105.6677511879952,19.18730686223035,0
105.6675018248236,19.18748617527012,0
105.6668336285094,19.18803212606131,0
105.6662658424702,19.18849488412746,0
105.6650582598055,19.18952012608051,0
105.6638799057669,19.19052359001038,0
105.6629559087023,19.1912511802219,0
105.6614701631369,19.19252287826179,0
105.6597645111035,19.19395037388601,0
105.658666497026,19.194783238886,0
105.6575705866189,19.19552259910957,0
105.6564618053102,19.19628069273985,0
105.6546114214482,19.1975469006247,0
105.652529002765,19.19902675706152,0
105.6507294430229,19.20028126228598,0
105.6496526971789,19.20089715257026,0
105.6494797477276,19.20079250762617,0
105.6465526487318,19.20079605979717,0
105.6450985203037,19.2009412289608,0
105.6445844366174,19.20096852928078,0
105.6445049330872,19.20047166246375,0</coordinates>
        </LineString>
    </Placemark>
</Document>
</kml>