<?xml version="1.0" encoding="UTF-8"?>
<kml xmlns="http://www.opengis.net/kml/2.2">
<Document>
    <name>NA_NAD_NGHIA_SON-NA_NAD_NGHIA_LAM.kml</name>
    <Placemark>
        <name>Tuyen_Cap_Chuan_Hoa</name>
        <LineString>
            <tessellate>1</tessellate>
            <coordinates>105.4443419100115,19.41222357683346,0
105.4441540865082,19.4123708844159,0
105.4444168277517,19.41501632824849,0
105.4479736744981,19.41694816135028,0
105.4490976175098,19.41767254634142,0
105.4503021187317,19.41868729336657,0
105.4499040130498,19.42023270299197,0
105.4492972294174,19.4223457721537,0
105.4498013137066,19.42395058586748,0
105.4500715072527,19.42553479177243,0
105.4498183376402,19.42611451157464,0
105.4492339538053,19.42674573744707,0
105.4493503084644,19.42873394863405,0
105.448260159821,19.42923456112185,0
105.4479034801051,19.43000204282878,0
105.447673157445,19.43069568532025,0</coordinates>
        </LineString>
    </Placemark>
</Document>
</kml>