<?xml version="1.0" encoding="UTF-8"?>
<kml xmlns="http://www.opengis.net/kml/2.2">
<Document>
    <name>NA_NDN_HUNG_TIEN-NA_NDN_XUAN_HOA.kml</name>
    <Placemark>
        <name>Tuyen_Cap_Chuan_Hoa</name>
        <LineString>
            <tessellate>1</tessellate>
            <coordinates>105.5410721346705,18.68511416697748,0
105.5409110214623,18.68532994696278,0
105.5409163507654,18.68532804708414,0
105.5408934294241,18.68722971103508,0
105.5408270305549,18.68856978775984,0
105.54082158793,18.68856179404164,0
105.5407516187476,18.69067736831107,0
105.5408163505831,18.69242054623052,0
105.5408198071576,18.69240782821102,0
105.5410911776211,18.69412373799216,0
105.5410992237191,18.6949197435629,0
105.5410808452812,18.69588188507202,0
105.5409791685924,18.69742035195583,0
105.5409790558592,18.6974118348529,0
105.5409176911585,18.69802324199213,0
105.5410302595535,18.69810801462387,0
105.5410237701318,18.69812028619181,0
105.539908774901,18.69905584375463,0
105.5390181059528,18.6997724836878,0
105.5386012636965,18.70009858546837,0
105.5386083858283,18.70006114088397,0
105.5386822534875,18.69993008004485,0
105.5370391525768,18.69862041852425,0
105.5370318677403,18.69862308770538,0
105.5371338644866,18.6982609382102,0
105.5371367922363,18.69826043103757,0
105.5372094039154,18.69814155872373,0
105.5365255609937,18.69760237570556,0
105.5360141441022,18.69704033480224,0
105.5353933511914,18.6967446666718,0
105.5348280301053,18.69666504860935,0
105.5343890343007,18.69682855297014,0
105.5344031764185,18.69682478809333,0
105.5337830432554,18.69633489888054,0</coordinates>
        </LineString>
    </Placemark>
</Document>
</kml>