<?xml version="1.0" encoding="UTF-8"?>
<kml xmlns="http://www.opengis.net/kml/2.2">
<Document>
    <name>NA_HNN_HUNG_CHAU-NA_HNN_HUNG_PHUC.kml</name>
    <Placemark>
        <name>Tuyen_Cap_Chuan_Hoa</name>
        <LineString>
            <tessellate>1</tessellate>
            <coordinates>105.6655048342393,18.60120793256124,0
105.6655920172475,18.60100317853853,0
105.665427478157,18.60077372999804,0
105.6652316946656,18.60060220782026,0
105.66505430178,18.60045792306916,0
105.6649224829555,18.60034487953871,0
105.6646272394976,18.60007653587334,0
105.6642942674218,18.59979537658223,0
105.6641244552243,18.59976785674197,0
105.6642776763869,18.60009561787451,0
105.6645310354675,18.60050960679302,0
105.6646281227917,18.60082261268367,0
105.6647334658258,18.60118596629334,0
105.6644843444236,18.60129064821301,0
105.664418252589,18.60144373244895,0
105.6643600115318,18.60168909098529,0
105.6643815985907,18.60193973724704,0
105.6643950238234,18.60212270568113,0
105.6643976995745,18.60232378163142,0
105.6643509672428,18.60243560639262,0
105.6646648423716,18.60256764506486,0
105.6645964613541,18.6029797147283,0
105.6644601178028,18.60385658525295,0
105.6643650816106,18.60456694047382,0
105.6642397332472,18.60525812064316,0
105.6640512551272,18.60655561558472,0
105.6639870386334,18.60767731554812,0
105.664239412901,18.60932354494445,0
105.6642380564199,18.61134571778601,0
105.664241445186,18.61368704268159,0
105.6646435070044,18.61644847960013,0
105.6651236618631,18.61640335282295,0
105.6652098977416,18.6169447715741,0
105.6649095007145,18.61694256339052,0</coordinates>
        </LineString>
    </Placemark>
</Document>
</kml>