<?xml version="1.0" encoding="UTF-8"?>
<kml xmlns="http://www.opengis.net/kml/2.2">
<Document>
    <name>NA_NLC_NGHI_HOA_2-NA_NLC_NGHI_HOA.kml</name>
    <Placemark>
        <name>Tuyen_Cap_Chuan_Hoa</name>
        <LineString>
            <tessellate>1</tessellate>
            <coordinates>105.6349627208865,18.79840476431331,0
105.6337492462034,18.79838640814596,0
105.6333736854554,18.79705395790087,0
105.630762259692,18.79794794556552,0
105.6296702376936,18.79834976436789,0
105.6273484536453,18.79880006686429,0
105.6236348030204,18.80049482369762,0
105.6225680495799,18.79850253746775,0
105.6219659403026,18.79727411147751,0
105.6214882747327,18.79747631695573,0
105.6215904837875,18.79786959508557,0
105.6212323225116,18.79810168746194,0</coordinates>
        </LineString>
    </Placemark>
</Document>
</kml>