<?xml version="1.0" encoding="UTF-8"?>
<kml xmlns="http://www.opengis.net/kml/2.2">
<Document>
    <name>NA_QLU_QUYNH_HAU_2-NA_QLU_QUYNH_HAU.kml</name>
    <Placemark>
        <name>Tuyen_Cap_Chuan_Hoa</name>
        <LineString>
            <tessellate>1</tessellate>
            <coordinates>105.6462619938432,19.16171771646968,0
105.6470156796554,19.16264026263608,0
105.6489617499322,19.1614080363888,0
105.6508909647543,19.16020982305876,0
105.6510110395725,19.15990296467617,0
105.6537068067717,19.15851321002739,0
105.6540098782345,19.15839188324137,0
105.6545320602398,19.15820369084924,0
105.6548871515306,19.15809011862219,0
105.6551703911204,19.15803361398481,0
105.6553301738115,19.15802964708087,0
105.6554963143216,19.15881451740294,0
105.65617097763,19.15871930936114,0</coordinates>
        </LineString>
    </Placemark>
</Document>
</kml>