<?xml version="1.0" encoding="UTF-8"?>
<kml xmlns="http://www.opengis.net/kml/2.2">
<Document>
    <name>NA_DCU_DIEN_HAI-NA_DCU_DIEN_HAI_2.kml</name>
    <Placemark>
        <name>Tuyen_Cap_Chuan_Hoa</name>
        <LineString>
            <tessellate>1</tessellate>
            <coordinates>105.627985960574,19.04704392185087,0
105.6279598481939,19.04727372886567,0
105.6280332961628,19.04743865529503,0
105.6275973873145,19.04774108125266,0
105.6268951077669,19.047036872075,0
105.6267578147628,19.04682245837605,0
105.6265915716593,19.04669269936904,0
105.6265265457929,19.04652573767059,0
105.6259096290922,19.04572692949688,0
105.6249855043654,19.04426532746784,0
105.6247974964798,19.04409924927864,0
105.6246161504741,19.04377325767228,0
105.6245862008033,19.04356244772915,0
105.6234816062776,19.044256690102,0
105.6231502253844,19.04454293213882,0
105.6229540813654,19.04458101757442,0
105.6225458249676,19.04514426777834,0
105.6220459028903,19.04591980244153,0
105.6213157945355,19.04674117875406,0
105.6211834508692,19.0468568571326,0
105.6210245517254,19.04699391227858,0
105.6209914492939,19.04714498001234,0
105.6207644335885,19.04733622261615,0
105.6204963385074,19.0473837045123,0
105.6202499365395,19.04737293744281,0
105.6197435700808,19.04704119806731,0
105.6188283515307,19.04645467464049,0
105.6186410845689,19.04683577451168,0
105.618516435676,19.04723450032936,0
105.6181526280156,19.04786013496445,0
105.617858963758,19.04822167279037,0
105.6162888732747,19.05043346811788,0
105.6161522414656,19.0507254257626,0
105.6155047374298,19.05119017351319,0
105.6148168167404,19.05164306585362,0
105.6143642405832,19.0517964732297,0
105.6142567265671,19.05193560342483,0
105.6140741397085,19.05201159052137,0
105.6138776268002,19.05197319196679,0
105.613035490933,19.05208716443266,0
105.6125434433662,19.0521533449679,0
105.6123489034014,19.05140918427402,0
105.6124805610219,19.05132441751594,0</coordinates>
        </LineString>
    </Placemark>
</Document>
</kml>