<?xml version="1.0" encoding="UTF-8"?>
<kml xmlns="http://www.opengis.net/kml/2.2">
<Document>
    <name>NA_QHP_HA_SON_2-NA_QHP_HA_SON_1.kml</name>
    <Placemark>
        <name>Tuyen_Cap_Chuan_Hoa</name>
        <LineString>
            <tessellate>1</tessellate>
            <coordinates>105.280544322058,19.22189372810472,0
105.2807185636404,19.22188635305958,0
105.2808553602945,19.22243547643987,0
105.2802901958932,19.22257452440967,0
105.2782484633808,19.2217214659933,0
105.2755163100062,19.22087925892279,0
105.2731795715154,19.22369783393347,0
105.2712321826424,19.22602412442392,0
105.2695009572555,19.22815344639859,0
105.2695687816327,19.23042586292002,0
105.2697938588772,19.23238216423481,0
105.2669240709851,19.23364364663528,0
105.2655236228171,19.2343395192392,0
105.2667962115828,19.2350977210369,0
105.2682860926441,19.23597238641695,0
105.2698989250545,19.23682840351744,0
105.2711821295029,19.23729971320492,0
105.273230457664,19.23863580391214,0
105.2761946665868,19.23832850244759,0
105.2782186292026,19.23964976297128,0
105.2785817330991,19.24016350995082,0
105.2790572588351,19.24123336460458,0
105.2799919786707,19.24291826348734,0
105.2804177314801,19.24366813058414,0
105.2813783603966,19.24422084634844,0
105.2825125364548,19.2448601954601,0
105.283338743875,19.24537841224564,0
105.2856220032989,19.24597979873594,0
105.2861502480261,19.24524807323824,0
105.2871390999474,19.2437535629286,0
105.288017048338,19.24359269498619,0
105.2898018635475,19.24450073465559,0
105.2917584627039,19.24511708673148,0
105.2929676676855,19.24537415543912,0
105.2940039427003,19.24648511964535,0
105.2947183701604,19.24724336746898,0
105.2948940562591,19.24750458175425,0
105.2946416850972,19.24763076271988,0
105.2944250946528,19.24780350898218,0
105.294220926587,19.24811284092197,0
105.2941298572838,19.24803018476937,0</coordinates>
        </LineString>
    </Placemark>
</Document>
</kml>