<?xml version="1.0" encoding="UTF-8"?>
<kml xmlns="http://www.opengis.net/kml/2.2">
<Document>
    <name>NA_HMA_HOANG_MAI-NA_HMA_CN_HOANG_MAI.kml</name>
    <Placemark>
        <name>Tuyen_Cap_Chuan_Hoa</name>
        <LineString>
            <tessellate>1</tessellate>
            <coordinates>105.717649608902,19.27931282960369,0
105.7177865546165,19.27850908778305,0
105.717944938363,19.27795817347554,0
105.7181438745986,19.27751769563047,0
105.7182688924438,19.27746734661476,0
105.7182690509115,19.27746798128547,0
105.7182161447261,19.27729688687287,0
105.7185861410203,19.27694873992834,0
105.7188121855776,19.27659014618092,0
105.7190924358224,19.27641246837506,0
105.7195051887672,19.27609719913031,0
105.7195030597064,19.2760976375361,0
105.7196952255758,19.27595905154129,0
105.720131252142,19.27573134805057,0
105.7201303769673,19.27573471178673,0
105.7192228022217,19.27438947910471,0
105.7194481065054,19.27420107894679,0
105.7196457633396,19.27418890851208,0
105.7202200669382,19.27386138221074,0
105.7205132995575,19.27370308340612,0
105.7205117953652,19.27370887904342,0
105.7213436523044,19.27502800315451,0
105.7223995665512,19.27456967322588,0
105.723398029743,19.27386378846153,0
105.7240696411818,19.27415198271927,0
105.7240699381162,19.27414523213647,0
105.7248494876871,19.27607671354628,0
105.7256642309979,19.27818747753664,0
105.7257101182584,19.27828162454506,0
105.7272325596916,19.28440781425044,0
105.7268227831223,19.28592618474687,0
105.7264551662814,19.28682101219188,0
105.7264706594569,19.28731614736251,0
105.7263579823879,19.28774621064241,0
105.7260260425236,19.28854064064921,0
105.7259331427409,19.28896399043296,0
105.7260029799037,19.28900325304517,0</coordinates>
        </LineString>
    </Placemark>
</Document>
</kml>