<?xml version="1.0" encoding="UTF-8"?>
<kml xmlns="http://www.opengis.net/kml/2.2">
<Document>
    <name>NA_TCG_NGOC_SON_2-NA_TCG_NGOC_SON_3.kml</name>
    <Placemark>
        <name>Tuyen_Cap_Chuan_Hoa</name>
        <LineString>
            <tessellate>1</tessellate>
            <coordinates>105.398732064908,18.75724247729505,0
105.3984228629474,18.75700824796848,0
105.3987951385295,18.75664501749036,0
105.3976355123727,18.75629465658261,0
105.3966784461958,18.75595232610372,0
105.3958568443708,18.75557230493434,0
105.3956421763472,18.75536663055462,0
105.3952321336602,18.75462328505897,0
105.3949652637936,18.75412643405011,0
105.3945350467352,18.75369046205185,0
105.3941198042163,18.75330285904501,0
105.3930754906409,18.75246772307607,0
105.3919668041566,18.75164760209869,0
105.3910534306901,18.75093451375287,0
105.3906285438602,18.75075025546431,0
105.3901703932515,18.7507579477072,0
105.3893260403638,18.75111415179768,0
105.3877148642938,18.75177873240699,0
105.3869428394042,18.75197300198299,0
105.3862276838751,18.7520595637029,0
105.3856212261866,18.75188719265322,0
105.3828162820107,18.75054133236366,0
105.3818397650023,18.7499671893238,0
105.3815870575164,18.75013963153693,0
105.3813022938635,18.75018162175753,0
105.3804925516879,18.75042757492264,0
105.3803432929486,18.75047647061515,0
105.3792065429825,18.74994892252411,0
105.3791464919453,18.74980358880973,0
105.3789074964988,18.74966605432371,0
105.3787687778688,18.74951186153629,0
105.3786053917504,18.74953162102502,0
105.3786524712621,18.74936727182556,0
105.3784694591276,18.74898263172778,0
105.3783156857545,18.74843969187911,0
105.378138073486,18.74823517092141,0
105.3769904403651,18.7479947627572,0
105.3767705060187,18.74813442497741,0
105.3759149293088,18.74820817320201,0
105.3753578770669,18.74811655632483,0
105.3749047429481,18.74805576693891,0
105.3745194822874,18.74796979107638,0
105.3741254622308,18.74771140650147,0
105.3734115085146,18.74741884639266,0
105.3730860233856,18.7472727108887,0
105.37218290433,18.74621772202666,0
105.3716939599421,18.74511461734896,0
105.3715433248353,18.74470856445579,0
105.3713637126165,18.74448302609018,0
105.3713132698968,18.74423132201363,0
105.3713139268356,18.74368132685801,0
105.3712349867299,18.74318767326614,0
105.3710312712708,18.74273769705428,0
105.3703832306274,18.74278906733404,0
105.3701051953512,18.74277109248835,0
105.3693976687009,18.74251080818371,0
105.3695527484753,18.74219653269474,0
105.3691199158897,18.74203273808785,0
105.3693548131386,18.74149959474836,0
105.3695057796064,18.74155765860886,0
105.3695497005361,18.74141289245204,0</coordinates>
        </LineString>
    </Placemark>
</Document>
</kml>