<?xml version="1.0" encoding="UTF-8"?>
<kml xmlns="http://www.opengis.net/kml/2.2">
<Document>
    <name>NA_NAD_NGHIA_LOI_2-NA_NAD_NGHIA_LOI.kml</name>
    <Placemark>
        <name>Tuyen_Cap_Chuan_Hoa</name>
        <LineString>
            <tessellate>1</tessellate>
            <coordinates>105.514310741845,19.37429321770014,0
105.5142216380892,19.37444418207707,0
105.5140756765013,19.37467697079686,0
105.5141915937394,19.37491066671061,0
105.5139608006708,19.37503386167097,0
105.5134009983131,19.37520277492346,0
105.5131994758216,19.37526563535508,0
105.5126470153547,19.3752768058996,0
105.5125404022837,19.37531675006117,0
105.5126288798395,19.3754075341744,0
105.5128217613654,19.37554106998753,0
105.5137848124364,19.37646744482124,0
105.5143314268526,19.37700695757698,0
105.5149342395513,19.3778700318807,0
105.5153150283146,19.37824948720941,0
105.5153910501185,19.37827997258599,0
105.5164263516452,19.37878577202565,0
105.516440039888,19.37878568234952,0
105.517259700153,19.37911965605119,0
105.5173953959851,19.37917495222481,0
105.5179752721749,19.3790613022269,0
105.5186447687719,19.37884643257809,0
105.5187841343246,19.37876683419427,0
105.5199134468134,19.37983915121766,0
105.5207975844027,19.3807247398055,0
105.5211992134906,19.38131126994038,0
105.5214640292043,19.3819429862714,0
105.5220457136293,19.38380307620312,0
105.5236837094771,19.38418478862852,0
105.524245410048,19.38436838849954,0
105.5254063533954,19.38509373861856,0
105.5262261490939,19.38573446973119,0
105.5270594014524,19.38665183422052,0
105.5273700085538,19.38733363446003,0
105.5279920706524,19.38783802108827,0
105.5285028571184,19.3889452350285,0
105.5293597154267,19.39031530781423,0
105.5302866354586,19.3908348430157,0
105.5309420495798,19.39099842937415,0
105.531625593618,19.39119189989464,0
105.5324202240946,19.39142130816152,0
105.5326340904025,19.39170974047461,0
105.533078022673,19.39176357985335,0
105.5336078220845,19.39174754708425,0
105.5340829355446,19.39155778634693,0
105.534555000419,19.39142152621002,0
105.5350519703888,19.39144757508824,0
105.535928063438,19.39168462089257,0
105.5361053594182,19.39206326906892,0
105.5366338792101,19.39240048227779,0
105.536702379521,19.39244669255128,0
105.5367299011935,19.39246206028118,0
105.5370630258399,19.39266485654435,0
105.5371925749252,19.39228233093965,0
105.5377233150225,19.39219382550418,0
105.5384423475397,19.39205956922218,0
105.5389235875564,19.39203759017515,0
105.5389534534443,19.3920371755933,0
105.5393413583524,19.39192998870358,0
105.5393062802719,19.39153896210568,0
105.5394740045001,19.39150267514901,0</coordinates>
        </LineString>
    </Placemark>
</Document>
</kml>