<?xml version="1.0" encoding="UTF-8"?>
<kml xmlns="http://www.opengis.net/kml/2.2">
<Document>
    <name>NA_DCU_DIEN_BINH_3-NA_DCU_DIEN_THANG.kml</name>
    <Placemark>
        <name>Tuyen_Cap_Chuan_Hoa</name>
        <LineString>
            <tessellate>1</tessellate>
            <coordinates>105.5422807487362,18.96468959231052,0
105.5427921879004,18.96434996831888,0
105.5431340501478,18.96412313195861,0
105.5425656650533,18.96257611615347,0
105.5418274207864,18.96086952351673,0
105.5409111381169,18.96044864080971,0
105.5398413234767,18.95950761369505,0
105.5393386900003,18.95888462952115,0
105.5381888264812,18.95765246490397,0
105.5376039222158,18.95684677852945,0
105.5362975425871,18.95516232219331,0
105.5359252307934,18.95466778581807,0
105.5359945175961,18.95456286635201,0</coordinates>
        </LineString>
    </Placemark>
</Document>
</kml>