<?xml version="1.0" encoding="UTF-8"?>
<kml xmlns="http://www.opengis.net/kml/2.2">
<Document>
    <name>NA_NLC_NGHI_VAN_2-NA_NLC_NGHI_VANJ.kml</name>
    <Placemark>
        <name>Tuyen_Cap_Chuan_Hoa</name>
        <LineString>
            <tessellate>1</tessellate>
            <coordinates>105.6262087504091,18.72874009663404,0
105.6263308684271,18.72838054379654,0
105.6264379422198,18.72826246807801,0
105.6270969339887,18.72835033909357,0
105.6270505832076,18.72872585535039,0
105.6269175337355,18.72943693063808,0
105.6267620288518,18.72999662397118,0
105.6266238862377,18.7300772915343,0
105.6262420709965,18.73247863954254,0
105.6257472826042,18.73582132269959,0
105.625121621492,18.73927748754763,0
105.6244296660521,18.74377914772843,0
105.6255292197059,18.74353773186304,0
105.625654003188,18.74516319166586,0
105.6258698200586,18.74640135318893,0
105.6264267246433,18.74728621839795,0
105.6275591690456,18.74658409964592,0
105.6275872590694,18.74678083312019,0
105.6268236537427,18.74828636077628,0
105.6261686241207,18.74971668845462,0
105.6275172184351,18.75008208152515,0
105.6273535314275,18.75096444900236,0
105.6277901160617,18.75110919976363,0
105.6287106136407,18.75126466710444,0</coordinates>
        </LineString>
    </Placemark>
</Document>
</kml>