<?xml version="1.0" encoding="UTF-8"?>
<kml xmlns="http://www.opengis.net/kml/2.2">
<Document>
    <name>NA_ASN_KHAI_SON-NA_ASN_KHAI_SON_2.kml</name>
    <Placemark>
        <name>Tuyen_Cap_Chuan_Hoa</name>
        <LineString>
            <tessellate>1</tessellate>
            <coordinates>105.1546362339087,18.93948381971452,0
105.1548757890573,18.9396089713558,0
105.1548617689611,18.93938873748921,0
105.1547793849913,18.93917509456116,0
105.1546308238998,18.93903850752681,0
105.154858934375,18.9388746846931,0
105.1549646660115,18.93875674743901,0
105.155079717812,18.93859758202983,0
105.1552160189088,18.9383900863533,0
105.1553138864984,18.93817004299096,0
105.1553742772568,18.93797545716545,0
105.1553792703805,18.93769319025705,0
105.1553212794728,18.93755404360737,0
105.1552652814368,18.93740275299243,0
105.1553934427719,18.93708823322273,0
105.1555910716452,18.93685463778985,0
105.1557163424464,18.93651916541157,0
105.1559328660924,18.93605569547392,0
105.1561629042271,18.93572378822331,0
105.1563591612181,18.93548136039567,0
105.1566542556428,18.93518824402053,0
105.1575176602221,18.93450194762645,0
105.1580821041492,18.93408309524683,0
105.1584361819116,18.93386436306924,0
105.1589044461078,18.93366252859885,0
105.1592716889735,18.93355582745031,0
105.1598342358492,18.93345324794838,0
105.1602590805735,18.93342516164905,0
105.1605903940268,18.93342571662632,0
105.1612795329744,18.9335448071016,0
105.1617564184679,18.93360535112685,0
105.1620406889132,18.93358523491924,0
105.1624679906726,18.93358701575382,0
105.1629092806348,18.93374188217652,0
105.1633279360617,18.93379409220171,0
105.1637209178811,18.93373600949486,0
105.1639434658547,18.9336700890938,0
105.1638980128929,18.93461402289508,0</coordinates>
        </LineString>
    </Placemark>
</Document>
</kml>