<?xml version="1.0" encoding="UTF-8"?>
<kml xmlns="http://www.opengis.net/kml/2.2">
<Document>
    <name>NA_TCG_THANH_DONG-NA_TCG_THANH_CHUONG_3.kml</name>
    <Placemark>
        <name>Tuyen_Cap_Chuan_Hoa</name>
        <LineString>
            <tessellate>1</tessellate>
            <coordinates>105.3352505556543,18.79041018283,0
105.3350615797952,18.79028190230968,0
105.3348455505328,18.79025140322995,0
105.334362651858,18.79038356068495,0
105.334174454859,18.79039109257998,0
105.3349111742523,18.79258006497331,0
105.3350091817252,18.79289274339648,0
105.3351810849652,18.79294271277314,0
105.3351715113801,18.7934793019682,0
105.3350844625051,18.79386489980701,0
105.3349356910016,18.79452215740291,0
105.3348070777549,18.79518614184217,0
105.3362470267673,18.79648286847516,0
105.3360890180635,18.79738841156075,0
105.3369807038496,18.79792079021025,0
105.337155404612,18.79872574741757,0
105.3365544317402,18.79882006037229,0
105.3364613390886,18.7990142993752,0</coordinates>
        </LineString>
    </Placemark>
</Document>
</kml>