<?xml version="1.0" encoding="UTF-8"?>
<kml xmlns="http://www.opengis.net/kml/2.2">
<Document>
    <name>NA_TKY_NGHIA_DONG-NA_TKY_NGHIA_DONG_2.kml</name>
    <Placemark>
        <name>Tuyen_Cap_Chuan_Hoa</name>
        <LineString>
            <tessellate>1</tessellate>
            <coordinates>105.34561,19.16983,0
105.34569,19.16974,0
105.3461,19.16986,0
105.34573,19.17015,0
105.34596,19.17101,0
105.34632,19.1719,0
105.34637,19.17248,0
105.34635,19.17371,0
105.34632,19.17486,0
105.34628,19.17507,0
105.34609,19.17527,0
105.34583,19.17551,0
105.3457,19.17672,0
105.34587,19.17672,0
105.34693,19.17671,0
105.34714,19.1768,0
105.34791,19.17739,0
105.34866,19.17794,0
105.34776,19.17932,0
105.34725,19.18012,0
105.3467,19.17946,0</coordinates>
        </LineString>
    </Placemark>
</Document>
</kml>