<?xml version="1.0" encoding="UTF-8"?>
<kml xmlns="http://www.opengis.net/kml/2.2">
<Document>
    <name>NA_DLG_NHAN_SON-NA_DLG_MINH_SON.kml</name>
    <Placemark>
        <name>Tuyen_Cap_Chuan_Hoa</name>
        <LineString>
            <tessellate>1</tessellate>
            <coordinates>105.3657758386887,18.8603909320798,0
105.3661997285941,18.8602460287456,0
105.3654975258702,18.85923428392348,0
105.3651999899023,18.85926208797888,0
105.364750110516,18.85977624954603,0
105.3638365614282,18.85906526993788,0
105.363664457195,18.85781453879336,0
105.3611892189726,18.85479444722122,0
105.3600063056162,18.85335991784251,0
105.359712917221,18.85229145580566,0
105.3677716159604,18.84899188233976,0
105.3715988704395,18.84284486690826,0
105.3711813972134,18.84254675799704,0
105.3712831896745,18.84225234985777,0
105.3716281609834,18.84231366537227,0</coordinates>
        </LineString>
    </Placemark>
</Document>
</kml>