<?xml version="1.0" encoding="UTF-8"?>
<kml xmlns="http://www.opengis.net/kml/2.2">
<Document>
    <name>NA_YTH_TANG_THANH-NA_YTH_YEN_THANH.kml</name>
    <Placemark>
        <name>Tuyen_Cap_Chuan_Hoa</name>
        <LineString>
            <tessellate>1</tessellate>
            <coordinates>105.4433897184952,19.01748104699745,0
105.4434786691482,19.01766825659898,0
105.4435966263026,19.01794107124157,0
105.4430696678495,19.01880557211062,0
105.4430097157851,19.01918991495521,0
105.4424090741376,19.02033169005339,0
105.4438916734642,19.0203739176267,0
105.4445393340936,19.01964400649133,0
105.4451115421651,19.0194163652715,0
105.4461010676847,19.01603400787137,0
105.4467859992256,19.01423167313472,0
105.4468994885756,19.01319417043958,0
105.4471495299277,19.01219549263122,0
105.4473910106146,19.0112487807737,0
105.4476896593403,19.01026801003325,0
105.448414842844,19.0095435622722,0
105.4516068559167,19.00616646852972,0
105.4565391303503,19.00107669332452,0
105.4586903936872,18.99881308153268,0
105.4590416635058,18.99873300995871,0
105.4601910674753,18.9974761572719,0
105.4619487544097,18.99541752415859,0
105.4621353675713,18.9953741122509,0
105.4628482007023,18.99578672350983,0
105.4628389389572,18.99597183573677,0</coordinates>
        </LineString>
    </Placemark>
</Document>
</kml>