<?xml version="1.0" encoding="UTF-8"?>
<kml xmlns="http://www.opengis.net/kml/2.2">
<Document>
    <name>NA_NDN_NAM_TAN-NA_NDN_NAM_DAN_2.kml</name>
    <Placemark>
        <name>Tuyen_Cap_Chuan_Hoa</name>
        <LineString>
            <tessellate>1</tessellate>
            <coordinates>105.4796415625517,18.68225959076798,0
105.4804685817838,18.68281491248025,0
105.4819962048784,18.68175451552555,0
105.4833425955854,18.6826820623823,0
105.4845253476921,18.68196893394532,0
105.4847717127622,18.68185271285446,0
105.4859926842636,18.68043874656244,0
105.4878213322952,18.68111224056184,0
105.4883601061214,18.6814686114512,0
105.4883860689756,18.68207711449337,0
105.4878157665588,18.68294168301833,0
105.4860916659201,18.68494572027383,0
105.4851169743117,18.68584216044182,0
105.4832292912267,18.68695945106583,0
105.4815563849199,18.68918225334211,0
105.4838581488417,18.6904843766177,0
105.4863516478595,18.69183007134053,0
105.4891224326307,18.69285699050679,0
105.4913599592325,18.6933537479011,0
105.4928816075995,18.69376980150738,0
105.4935302740617,18.69395629866336,0
105.4941292430662,18.69439332897278,0
105.4948263387366,18.69533801454427,0
105.4960970766002,18.69673014318467,0
105.4963400503659,18.69696803396021,0
105.4963014371483,18.69728902772695,0
105.496707105482,18.69753179138044,0
105.4969223773557,18.69753160467912,0
105.4973463867597,18.69756281045125,0
105.4986095484692,18.69759795897211,0
105.4983849302247,18.69806662166221,0
105.4980323441188,18.69960997682121,0
105.4977571186567,18.69999592837562,0
105.4961472989653,18.70106855751111,0
105.4956972904385,18.70139437961141,0
105.4936137147261,18.70367294286849,0
105.4917735811294,18.70586649678328,0
105.4922037979665,18.70666815564579,0
105.4922976764409,18.70682115509327,0
105.4919187234696,18.70697783708197,0
105.4916593399325,18.70715786626219,0
105.4917670063969,18.70743923616765,0
105.4918651999595,18.70766235313328,0
105.4918281044671,18.70789459723794,0
105.4918393610837,18.70814960302172,0
105.4918542641599,18.70830417285998,0
105.4920281408374,18.70862011504022,0
105.4920976942893,18.70855135116612,0</coordinates>
        </LineString>
    </Placemark>
</Document>
</kml>