<?xml version="1.0" encoding="UTF-8"?>
<kml xmlns="http://www.opengis.net/kml/2.2">
<Document>
    <name>NA_QLU_QUYNH_NGHIA-NA_QLU_KHANH_THANH.kml</name>
    <Placemark>
        <name>Tuyen_Cap_Chuan_Hoa</name>
        <LineString>
            <tessellate>1</tessellate>
            <coordinates>105.7165950872903,19.12983117267009,0
105.7168030238532,19.13005675788067,0
105.7168378066839,19.13027174976378,0
105.7165848952491,19.13049359932611,0
105.7162044071211,19.13040888140743,0
105.7144592674895,19.13042366355802,0
105.7144682713954,19.12732620323603,0
105.7125910354435,19.12746035181621,0
105.710559842459,19.12743650326676,0
105.7086826289983,19.12747619963452,0
105.707076913519,19.12753647931479,0
105.7055495649633,19.12761718546355,0
105.7050958683439,19.12782864375879,0
105.704771940498,19.12805950768985,0
105.7045278248869,19.12811394475133,0
105.7037765994848,19.12796201086333,0
105.7029330309403,19.12754989307519,0
105.7021880509745,19.1272182245345,0
105.7019102615457,19.12706635983621,0
105.701442897129,19.12726066050728,0
105.7009557583074,19.12731821554139,0
105.7006346992449,19.12746828596574,0
105.6998411434942,19.12772685408136,0
105.6992445349607,19.12774196723861,0
105.6986400039701,19.12760831946037,0
105.6977903265808,19.12772419372872,0
105.6973448391942,19.12782110616619,0
105.696816453597,19.12785902136478,0
105.6963020655503,19.12767829605974,0
105.6958649524695,19.12721268500179,0
105.6955662831367,19.12590965825221,0
105.6950007252236,19.12386493240257,0
105.6946551995981,19.12264409767374,0
105.6944984907406,19.12215272355035,0
105.694164830873,19.12140106964216,0
105.6940715427011,19.12101064032385,0
105.6938812598797,19.12061712179375,0</coordinates>
        </LineString>
    </Placemark>
</Document>
</kml>