<?xml version="1.0" encoding="UTF-8"?>
<kml xmlns="http://www.opengis.net/kml/2.2">
<Document>
    <name>NA_DCU_DIEN_HAI_2-NA_DCU_DIEN_KIM.kml</name>
    <Placemark>
        <name>Tuyen_Cap_Chuan_Hoa</name>
        <LineString>
            <tessellate>1</tessellate>
            <coordinates>105.6182497674993,19.02707865002755,0
105.6183646262122,19.02722159242273,0
105.6185923046812,19.0270292702849,0
105.6188279758647,19.02688824747723,0
105.6189888029421,19.02689421346606,0
105.6196421771251,19.0278372552767,0
105.6196451343826,19.02810111836445,0
105.6202209344488,19.02916266672255,0
105.6202775262696,19.02930731912258,0
105.6206605676586,19.03051791833727,0
105.6212396721063,19.03260573053699,0
105.6214944390105,19.03351561744281,0
105.6207428362389,19.03407020179476,0
105.6200961859689,19.03456649345151,0
105.6196381867527,19.03497241553113,0
105.618974682289,19.03567346555487,0
105.6187989812217,19.03590927116348,0
105.6181473673915,19.03656375404904,0
105.6177266872477,19.03703760483357,0
105.617572421388,19.03716196876885,0
105.6166770887327,19.03830015874598,0
105.6174346423081,19.03941333010463,0
105.6199772938476,19.04308232341514,0
105.6203206513985,19.04361393481467,0
105.6204930884405,19.0439011185249,0
105.6207031078393,19.04433445293005,0
105.6207717266357,19.04473756172074,0
105.6207491857904,19.04519145315592,0
105.6207309157177,19.04551902693752,0
105.6207829006386,19.04589494876817,0
105.6212471426199,19.0469411827137,0
105.6212796921643,19.04675388335648,0
105.6214711925224,19.04656977535495,0
105.621722617009,19.04627610716845,0
105.6220533393865,19.04590336157635,0
105.6222807211594,19.04557275072864,0
105.6226075218408,19.04504857300456,0
105.6229696655384,19.04458720370332,0
105.6231354821963,19.0445260522155,0
105.6234778876994,19.04424590458481,0
105.6239546109215,19.04395312629215,0
105.6245739957166,19.04355681047703,0
105.6245950156165,19.04377293680049,0
105.6247928571783,19.04409266982926,0
105.6249856959906,19.04427255736815,0
105.6254341505138,19.04495334515306,0
105.6259100304633,19.0457414206466,0
105.626509635454,19.04650753322728,0
105.6265986870449,19.04668939602244,0
105.6267611823926,19.04683011903436,0
105.6269193855181,19.04704191985295,0
105.6271494016207,19.04728849612045,0
105.627593788697,19.04774093077418,0
105.6280430816123,19.04743832378922,0
105.6279577130501,19.04727311295543,0
105.6279789924349,19.04706777222193,0</coordinates>
        </LineString>
    </Placemark>
</Document>
</kml>