<?xml version="1.0" encoding="UTF-8"?>
<kml xmlns="http://www.opengis.net/kml/2.2">
<Document>
    <name>NA_DCU_DIEN_DONG_01R-NA_DCU_DIEN_DONG.kml</name>
    <Placemark>
        <name>Tuyen_Cap_Chuan_Hoa</name>
        <LineString>
            <tessellate>1</tessellate>
            <coordinates>105.5520039302214,19.00931005377311,0
105.5519295718467,19.00931088224619,0
105.5518365983409,19.00931191755213,0
105.55181625758,19.00925483431588,0
105.5518139406836,19.00917864285135,0
105.5518116118111,19.0091025975393,0
105.5518085247213,19.00900709916154,0
105.5517685049769,19.00891220162887,0
105.5517131413212,19.00891278774893,0
105.5516197469991,19.00887574171335,0
105.5515448732,19.00883837503552,0
105.551471038564,19.00883875818776,0
105.5514156571705,19.0088390454074,0
105.5513418070138,19.00883942846004,0
105.5512125468694,19.00884009879099,0
105.5511386783929,19.00884052818665,0
105.551083304454,19.00884110474963,0
105.550954059998,19.00884245105836,0
105.5508247243324,19.00884342240111,0
105.5506953255694,19.00884409045252,0
105.5505660201491,19.00886356111224,0
105.5504180830608,19.00888314606739,0
105.5503070688266,19.00892140548477,0
105.5501959000391,19.00892198609443,0
105.5501217756428,19.00892237314233,0
105.54997350041,19.00892314731083,0
105.5498622705116,19.00892372812184,0
105.5497137935859,19.00894273835749,0
105.5496211319571,19.00894224664924,0
105.54950995784,19.00894165736961,0
105.549417028557,19.00896004306724,0
105.5493243797628,19.00895955004935,0
105.5492317445724,19.00895905716063,0
105.5491020547566,19.00895850724693,0
105.549027495067,19.00897719294655,0
105.548841418733,19.0089965901651,0
105.5486733402186,19.00903423038537,0
105.548524805034,19.00903422564927,0
105.5484876708277,19.00903422451682,0
105.5484127652456,19.00905306445764,0
105.5483377777706,19.00907201765999,0
105.5480941972328,19.00911140625059,0
105.5479247972019,19.00915034433659,0
105.5478119969647,19.00916999090892,0
105.5476234442128,19.00920913410417,0
105.5475290415176,19.00922873189379,0
105.5474345548839,19.00924834707792,0
105.5473025646433,19.00926818562872,0
105.5471341468807,19.00926911320397,0
105.5470967145811,19.00926931946408,0
105.546928782179,19.00926915047887,0
105.5466868118555,19.00926780366821,0
105.5465193508654,19.00926687127005,0
105.546426337023,19.00926635341484,0
105.5463333375945,19.00926583569855,0
105.5462589480948,19.00926542142485,0
105.5461101966215,19.00926459281641,0
105.5460745396363,19.00924529128328,0
105.5458903215262,19.00922518198247,0
105.5456877386245,19.00920499202524,0
105.5454525749068,19.00914548286369,0
105.545362090562,19.00912549170553,0
105.5451832354809,19.00906663558794,0
105.5450213109166,19.0090270999287,0
105.5449104118766,19.00902663209377,0
105.5446858726085,19.009045497396,0
105.5444591012766,19.00908327428225,0
105.5441557941931,19.00913973310864,0
105.5440240034748,19.00915811414197,0
105.5438945578305,19.00915739967589,0
105.5437281674175,19.00915648162596,0
105.5436332256437,19.00917508015679,0
105.5434818516964,19.00919425886756,0
105.5432559355739,19.00921345037929,0
105.5432159757983,19.00923266115887,0
105.5429927764342,19.00923250874574,0
105.5429556629278,19.00923240412487,0
105.5428898115027,19.00917483889394,0
105.542809758521,19.0092131091968,0
105.5426737220636,19.00925143610723,0
105.5426335661219,19.00927062237146,0
105.5425776860534,19.00927062105262,0
105.5423667496627,19.00930903466232,0
105.5422329197916,19.00932848522693,0
105.5421142475908,19.00936743866256,0
105.5420984075429,19.00946414132307,0
105.5421169595764,19.00958055354089,0
105.5421199134778,19.00967802172744,0
105.5421417740914,19.00977580314267,0
105.5421479699786,19.00985434345431,0
105.5421288464184,19.00997272090947,0
105.5421350460411,19.01005187877148,0
105.5421190286011,19.0101512670669,0
105.5421220208391,19.01025097613782,0
105.5421185794236,19.01039126073995,0
105.5421024214603,19.01049199535605,0
105.5420926949666,19.01055262905588,0
105.5420956575868,19.01065393102189,0
105.5421051401366,19.01071487430725,0
105.5421086426115,19.01081631005518,0
105.5421124664189,19.01091782215649,0
105.5421224750762,19.01097891447893,0
105.5421363921636,19.01114250971217,0
105.5421372019762,19.01126586131383,0
105.5421085209,19.01132774954129,0
105.5420703980651,19.01145195248152,0
105.5420352484872,19.01155589216023,0
105.542022628329,19.01163933465892,0
105.5419809014554,19.01178597465237,0
105.5419487698033,19.01186989605663,0
105.5419138362519,19.01197463234492,0
105.5418622139574,19.01205870041205,0
105.5417907616139,19.01214301751401,0
105.5417419567754,19.01220641912456,0
105.5416733197437,19.0122699625481,0
105.5416178656513,19.01237618313492,0
105.541565435826,19.0124614447773,0
105.5414927276484,19.01254729699207,0
105.5413662199445,19.01272015869878,0
105.5413095674513,19.01282828861063,0
105.541249982832,19.01295777136509,0
105.5412301488093,19.01308782495403,0
105.541200169472,19.013153066922,0
105.5411384061589,19.01328587660855,0
105.5411028260806,19.01337588380937,0
105.5410632186973,19.01348882371579,0
105.541011119384,19.0135568192059,0
105.5409347097394,19.01364775209188,0
105.5408985360079,19.01373899498311,0
105.5408419543232,19.01383055060881,0
105.5407776090239,19.01396782677178,0
105.5406968860568,19.01408236020207,0
105.5405863140625,19.01424479334802,0
105.5405092483655,19.01433680404342,0
105.5404696904093,19.01445134499931,0
105.5404338988099,19.01454322678521,0
105.5403979880094,19.01463541179263,0
105.5403619687679,19.01472787112423,0
105.5403134823863,19.01477359429409,0
105.5402002011866,19.01495883029138,0
105.5401430006092,19.01505222789444,0
105.5400683678597,19.01512309716115,0
105.5400143219586,19.01519413898343,0
105.5399559236351,19.01528913285964,0
105.5400099425661,19.01533674455685,0
105.5400890624081,19.01536057785527,0
105.5401474085987,19.01538443180527,0</coordinates>
        </LineString>
    </Placemark>
</Document>
</kml>