<?xml version="1.0" encoding="UTF-8"?>
<kml xmlns="http://www.opengis.net/kml/2.2">
<Document>
    <name>NA_YTH_VINH_THANH_2-NA_YTH_VIEN_THANH.kml</name>
    <Placemark>
        <name>Tuyen_Cap_Chuan_Hoa</name>
        <LineString>
            <tessellate>1</tessellate>
            <coordinates>105.48912,18.93034,0
105.4892,18.93027,0
105.48957,18.9303,0
105.48969,18.93033,0
105.48951,18.93095,0
105.49038,18.93089,0
105.49176,18.93111,0
105.49318,18.93176,0
105.49485,18.93274,0
105.49682,18.93391,0
105.4981,18.93464,0
105.50042,18.9359,0
105.50118,18.9363,0
105.50204,18.93658,0
105.50678,18.93813,0
105.50675,18.93697,0
105.5078573776999,18.93692138944665,0
105.5078303097546,18.93643948902865,0
105.5078323020973,18.93645048355938,0
105.5077919555812,18.93620780065051,0
105.5077909627404,18.93619249082156,0</coordinates>
        </LineString>
    </Placemark>
</Document>
</kml>