<?xml version="1.0" encoding="UTF-8"?>
<kml xmlns="http://www.opengis.net/kml/2.2">
<Document>
    <name>NA_NDN_NAM_THAN_3-NA_NDN_NAM_THANH.kml</name>
    <Placemark>
        <name>Tuyen_Cap_Chuan_Hoa</name>
        <LineString>
            <tessellate>1</tessellate>
            <coordinates>105.5043110460947,18.72886373344542,0
105.504145032957,18.72889965438962,0
105.5042333848579,18.72922585904654,0
105.5042270136526,18.72922067593142,0
105.5045399528619,18.73009128644268,0
105.505327460774,18.73278174708982,0
105.5053150007238,18.73277626819149,0
105.5072925524001,18.73920603478739,0
105.5072993158417,18.7392017546134,0
105.5074544609028,18.73973615964673,0
105.5073718798384,18.73984558116832,0
105.5075640372802,18.74043543089766,0
105.5075647210612,18.74099930198802,0
105.5075124256465,18.74150907492569,0
105.5075134701549,18.74150171743669,0
105.5074945971384,18.74199874546262,0
105.5074667603611,18.74256123315329,0
105.5075004718389,18.74308824730522,0
105.5074992032489,18.74308897764625,0
105.5075115551479,18.74329680912954,0
105.5075127068069,18.7432993344461,0
105.507478327483,18.74420008092466,0
105.5074756859779,18.74420110260208,0
105.5082370279224,18.74446243917156,0
105.5082259872754,18.74453017053728,0
105.5082242998848,18.74453329555692,0
105.5080834949312,18.74495915862659,0
105.5080165823187,18.74496794700677,0</coordinates>
        </LineString>
    </Placemark>
</Document>
</kml>