<?xml version="1.0" encoding="UTF-8"?>
<kml xmlns="http://www.opengis.net/kml/2.2">
<Document>
    <name>NA_NDN_HONG_LONG_2-NA_NDN_HONG_LONG.kml</name>
    <Placemark>
        <name>Tuyen_Cap_Chuan_Hoa</name>
        <LineString>
            <tessellate>1</tessellate>
            <coordinates>105.5299280530447,18.6551965730095,0
105.5296708668103,18.65511032540329,0
105.5294525308566,18.6548382584891,0
105.5296153395929,18.65449970990635,0
105.5285311132187,18.65415228983436,0
105.5276861833997,18.65398711715422,0
105.527535605717,18.65465531658789,0
105.5276961641692,18.65609045168687,0
105.5276108186548,18.65805268581025,0
105.5267715057913,18.65951956664924,0
105.5258993106895,18.66153805493218,0
105.5256417158492,18.66216794754512,0
105.5283384191215,18.6635552930338,0
105.530737681447,18.66473646441808,0
105.5316153252219,18.66493284780223,0
105.5321287100559,18.66489767122868,0
105.5324514409534,18.66602407967461,0
105.5334276495992,18.66957122884128,0
105.5339227458533,18.67079206024486,0
105.5332062577056,18.67105454102468,0
105.5337231548473,18.67200787551949,0
105.5338417832336,18.67190744390051,0</coordinates>
        </LineString>
    </Placemark>
</Document>
</kml>