<?xml version="1.0" encoding="UTF-8"?>
<kml xmlns="http://www.opengis.net/kml/2.2">
<Document>
    <name>NA_QLU_QUYNH_LAM_3-NA_QLU_QUYNH_GIANG.kml</name>
    <Placemark>
        <name>Tuyen_Cap_Chuan_Hoa</name>
        <LineString>
            <tessellate>1</tessellate>
            <coordinates>105.6056496189873,19.12942500594126,0
105.6058319867577,19.1296274044847,0
105.6062442322061,19.12978129613212,0
105.6066415439811,19.13007208608192,0
105.6069409551386,19.13029936465964,0
105.6077072463431,19.1307159544399,0
105.6081733137032,19.130832797903,0
105.6084561696885,19.13095076766423,0
105.6083702272071,19.13118952355014,0
105.6077850114134,19.1319669731229,0
105.6075140482317,19.13233215702666,0
105.60713801464,19.13280271073554,0
105.607821100719,19.13347680687332,0
105.6078912371589,19.13366235855154,0
105.607827452208,19.13392788214335,0
105.6074871620437,19.1338389759255,0
105.6069118134197,19.13376588364973,0
105.6063625605792,19.13436230465886,0
105.6045868329048,19.13467282438844,0
105.6028586374893,19.13469238687389,0
105.6009191170001,19.1347674225392,0
105.5992562823597,19.13515369894437,0
105.5972662224662,19.13510389559593,0
105.5943719442365,19.13533968051017,0
105.5909888666102,19.13552211007579,0
105.5885856001327,19.13600232719491,0
105.586320033903,19.13657648062623,0
105.5853020912605,19.13676799362277,0
105.5852463511003,19.13681913506001,0
105.5855141934792,19.13746969514872,0
105.5858941700421,19.13823570921036,0
105.5860546166258,19.13862814289812,0
105.5863290778066,19.13884905873436,0
105.5864793945599,19.13900675552452,0
105.5863842723124,19.13929182849926,0
105.5863772371725,19.13951070507982,0
105.586530370143,19.13979345203296,0
105.586717354072,19.14008825682697,0
105.5869488170886,19.14031309798645,0
105.587095619063,19.14039623453624,0
105.5874822981638,19.14069912061147,0
105.5858961815452,19.14163927587015,0
105.583011516596,19.14309953539249,0
105.5816118767414,19.14381150127886,0
105.5806497357864,19.14427995409699,0
105.5806898470823,19.14451950736453,0
105.58050111445,19.14475090743138,0
105.5801397928521,19.14502607011331,0
105.5799946646131,19.14529021841416,0
105.5795347109003,19.14561497843492,0
105.5791379191882,19.14591603930581,0
105.5789078074447,19.1460550831737,0
105.5787545601641,19.1461361741818,0
105.5786902148779,19.14600153402,0
105.5786747319315,19.14581405457197,0
105.5786386621519,19.14561718234467,0
105.5784958217072,19.14574631467141,0
105.5783488866828,19.14586207273074,0
105.5779501337062,19.1458957846017,0
105.5774765530177,19.14600716080937,0</coordinates>
        </LineString>
    </Placemark>
</Document>
</kml>