<?xml version="1.0" encoding="UTF-8"?>
<kml xmlns="http://www.opengis.net/kml/2.2">
<Document>
    <name>NA_YTH_KIM_THANH-NA_YTH_DONG_THANH.kml</name>
    <Placemark>
        <name>Tuyen_Cap_Chuan_Hoa</name>
        <LineString>
            <tessellate>1</tessellate>
            <coordinates>105.4150316721258,19.03193254645482,0
105.4148895743751,19.03202370956018,0
105.4144389877604,19.03215551104869,0
105.4143042853899,19.03222637447258,0
105.4145120923376,19.03265005861163,0
105.4143684569977,19.03297999731261,0
105.4142299900722,19.03337597057103,0
105.4142132957841,19.03439197992074,0
105.414112862817,19.0351583673085,0
105.4138465264932,19.03599853617138,0
105.4134655808045,19.03652929794992,0
105.4131275543873,19.03740465532843,0
105.4128278978452,19.03771927749106,0
105.4125345254052,19.03833002704593,0
105.4121404775606,19.03863283810844,0
105.4116655015882,19.03876636945856,0
105.4110008727433,19.03854597781761,0
105.4109193408228,19.03853457715564,0
105.4108660897909,19.03852042755851,0
105.4107277896014,19.03851488631039,0
105.4097526602361,19.03832354945058,0
105.4091573698398,19.03789061595913,0
105.4085718948009,19.03774112306204,0
105.4073450653235,19.03755192702523,0
105.4061809669681,19.03654751015978,0
105.405566787575,19.03665348677139,0
105.4045469949301,19.03710771099154,0
105.4043308159208,19.03746852418658,0
105.4046029887403,19.03825114073344,0
105.4048856833729,19.03925866756615,0
105.4049019422221,19.03927967118356,0
105.4050581942253,19.04007621006583,0
105.4043460066598,19.04123510933034,0
105.403957294935,19.04234972451825,0
105.4042797352466,19.04312286996503,0
105.4047637037919,19.04354578752444,0
105.4047941701127,19.04403209154616,0
105.4043863115894,19.04455285650282,0
105.4041633925544,19.04474691681698,0
105.4028303077747,19.0445974215825,0
105.4012768222852,19.04439504869685,0
105.4008948445382,19.04433359901435,0
105.39924906253,19.04487534233937,0
105.3973137888736,19.04569288405718,0
105.3962380878079,19.04607436813982,0
105.3948612469341,19.04660942414553,0
105.3941991739074,19.04689403858811,0
105.3940620884642,19.04733087706405,0
105.3939734066554,19.0476971772647,0
105.3937689645152,19.04792882182585,0
105.3940649072692,19.04823329892938,0
105.3944318612001,19.0484571883195,0</coordinates>
        </LineString>
    </Placemark>
</Document>
</kml>