<?xml version="1.0" encoding="UTF-8"?>
<kml xmlns="http://www.opengis.net/kml/2.2">
<Document>
    <name>NA_NLC_NGHI_TRUONG_2-NA_NLC_NGHI_AN.kml</name>
    <Placemark>
        <name>Tuyen_Cap_Chuan_Hoa</name>
        <LineString>
            <tessellate>1</tessellate>
            <coordinates>105.6870616543261,18.74572050053139,0
105.6868712448533,18.74549247083358,0
105.6865266082336,18.74535850527633,0
105.6871776628143,18.74378952197033,0
105.6877443144602,18.74463383927949,0
105.6886221277229,18.74580374092505,0
105.6912617021407,18.74939108239215,0
105.6902285681196,18.7518082546324,0
105.6897939849759,18.75272965298588,0
105.6921149738032,18.75348076315838,0
105.6932265432645,18.76079201152297,0
105.6937042769097,18.76368842164198,0
105.6915241878036,18.76303536240975,0
105.6909584210763,18.76356820595045,0
105.6900840674969,18.76463365345487,0
105.6909388903929,18.7649503762427,0</coordinates>
        </LineString>
    </Placemark>
</Document>
</kml>