<?xml version="1.0" encoding="UTF-8"?>
<kml xmlns="http://www.opengis.net/kml/2.2">
<Document>
    <name>NA_NDN_NAM_LINH-NA_NDN_NAM_GIANG.kml</name>
    <Placemark>
        <name>Tuyen_Cap_Chuan_Hoa</name>
        <LineString>
            <tessellate>1</tessellate>
            <coordinates>105.5838586590214,18.7032920286337,0
105.5842668493838,18.70326014681886,0
105.5842183856726,18.70142620605505,0
105.58389557421,18.70142167301768,0
105.5832511062774,18.70139864593261,0
105.5829359105655,18.701374450227,0
105.5826570512717,18.70137492032364,0
105.5824695501821,18.7014509982318,0
105.5824256336647,18.70162266286772,0
105.5821128820847,18.70165204538336,0
105.5816025893495,18.70153462240052,0
105.58122613099,18.70138650525882,0
105.5809208775275,18.70110950117318,0
105.5804982016896,18.70102661937862,0
105.5799188852013,18.70114334967851,0
105.5780524972417,18.7015444298314,0
105.5774662301952,18.70158620138662,0
105.576753190584,18.7014747414566,0
105.5762523775304,18.70138631078198,0
105.5762199964015,18.70148656722976,0
105.5761728747377,18.70157710090329,0
105.5759565915845,18.70177947114934,0
105.5756046838917,18.70221955788948,0
105.5750253081008,18.70195944382371,0
105.5748797059602,18.70224822707257,0
105.5744112480465,18.70284533287547,0
105.5735338448794,18.7039153979719,0
105.5723872838934,18.70550183568359,0
105.5710200859318,18.70584417610627,0
105.570419420688,18.70609907351076,0
105.567519219606,18.70767618071944,0
105.5675143729278,18.70810640770662,0
105.567576255606,18.7093877112258,0
105.5676368448974,18.7111082593956,0
105.5677929700387,18.71217785382841,0
105.567129977298,18.71248864173309,0
105.5671050157057,18.71262708668139,0
105.566889511296,18.71265164305054,0
105.5675155309017,18.71348012298783,0
105.5665660024663,18.71409877435045,0
105.5664141912055,18.71406293468758,0
105.5657760008084,18.7144642236275,0
105.5654897569104,18.71406670465939,0
105.5651400014037,18.71348654652031,0
105.5649136205251,18.7131533436233,0
105.5647187268633,18.71314829909233,0
105.5641393253739,18.71286351121535,0
105.563709359226,18.71268445846705,0
105.562742831702,18.71231151319914,0
105.5620881172705,18.71206892332372,0
105.5615499234217,18.71185015221277,0
105.5612771955801,18.71177166798643,0
105.5608732098195,18.71173907716516,0
105.5605396253915,18.71181903602309,0
105.5602167017093,18.71180031251282,0
105.5597648469087,18.71169067556433,0
105.5595829889462,18.71164358044036,0
105.559568335887,18.71151429748744,0
105.5595285688364,18.71141472099132,0</coordinates>
        </LineString>
    </Placemark>
</Document>
</kml>