<?xml version="1.0" encoding="UTF-8"?>
<kml xmlns="http://www.opengis.net/kml/2.2">
<Document>
    <name>NA_YTH_DUC_THANH-NA_YTH_THO_THANH.kml</name>
    <Placemark>
        <name>Tuyen_Cap_Chuan_Hoa</name>
        <LineString>
            <tessellate>1</tessellate>
            <coordinates>105.5318573730736,19.08198787996282,0
105.5309450257093,19.08249868973692,0
105.5304655149,19.0826251350278,0
105.5296603446907,19.0828293946683,0
105.5291229107486,19.08289012863248,0
105.5292202285502,19.08372694343058,0
105.5294237660504,19.08426365699966,0
105.5296682043477,19.08478272684298,0
105.5296871092725,19.08481983522758,0
105.5298150243837,19.08524804032271,0
105.5298085138048,19.08549148058009,0
105.5296167242282,19.08607367036665,0
105.5297504584346,19.08650116522207,0
105.5297647680387,19.0870814206839,0
105.5297164024429,19.08774010434153,0
105.5302604809141,19.08755971628987,0
105.530532952681,19.08750489971763,0
105.5310618251664,19.08714714653596,0
105.5316825203098,19.08680090401018,0
105.5321785812234,19.08649476825745,0
105.5322333102216,19.08646779257564,0
105.5330053737777,19.08634257112668,0
105.5339202641181,19.08644264929056,0
105.5339464736593,19.08644297181981,0
105.5348279685096,19.08661781264897,0
105.5350927535716,19.08679797495327,0
105.5353319606184,19.08712874850985,0
105.5358272430943,19.08710809765989,0
105.5364534081174,19.08699568678601,0
105.5365018338631,19.08697241139411,0
105.5365900716888,19.08695738476226,0
105.5370631019548,19.08689727109153,0
105.5370171621947,19.08656709910435,0
105.5370013788225,19.08655155818718,0
105.5368717450159,19.08603747652655,0
105.5368138918953,19.08566931276248,0
105.5366364218795,19.08498023698171,0
105.5366137090354,19.08494193169309,0
105.5364963202922,19.08412302457712,0
105.5366469563954,19.08363299115286,0
105.5370987068203,19.08250303137271,0
105.5372411918349,19.08212782082762,0
105.5377714048178,19.07950679651606,0
105.5379598680189,19.07869599391694,0
105.5380382010445,19.07861010932966,0
105.5384920384336,19.07761157775942,0
105.5387443140619,19.07728371961185,0
105.5390578065343,19.07653399493656,0
105.5392413697685,19.07608731974744,0
105.5396906379988,19.07507043432762,0
105.5397704773538,19.07463947180231,0
105.5398908195173,19.07409604133269,0
105.5406165457152,19.07413712025339,0
105.54076612213,19.07384060762943,0
105.5410634462088,19.07213196766483,0
105.5415199543881,19.06951452697049,0
105.542849810789,19.06733010611999,0
105.5432601936446,19.06570196170589,0
105.5434800689132,19.06490738020999,0
105.543445893514,19.06353277530299,0
105.5434279501421,19.06297016043102,0
105.5441208014463,19.06231807117897,0
105.5447252271982,19.06192425127748,0
105.545045894702,19.06159420193397,0
105.5454317154846,19.06196268685979,0
105.5458757697346,19.06251725436575,0
105.546355274061,19.0630265814079,0
105.5464171329636,19.0630681741856,0
105.5472433583779,19.06395665501659,0</coordinates>
        </LineString>
    </Placemark>
</Document>
</kml>