<?xml version="1.0" encoding="UTF-8"?>
<kml xmlns="http://www.opengis.net/kml/2.2">
<Document>
    <name>NA_HMA_QUYNH_LAP-NA_HMA_QUYNH_LAP_4.kml</name>
    <Placemark>
        <name>Tuyen_Cap_Chuan_Hoa</name>
        <LineString>
            <tessellate>1</tessellate>
            <coordinates>105.7748008148809,19.26597922698105,0
105.7755291505409,19.26595451151125,0
105.7754671953783,19.26520491595108,0
105.7754689782532,19.26389334617307,0
105.775527014382,19.2635921338884,0
105.7749408173443,19.26152138044169,0
105.7745781120571,19.26059432589135,0
105.7744350799575,19.26048286464244,0
105.7743127240472,19.26050858216055,0
105.7742446999846,19.26054186473023,0
105.7737369977504,19.26059557000752,0
105.7736251381376,19.26058206017267,0
105.7735492878031,19.26050591309004,0
105.7733959594788,19.26022659012652,0
105.7690956880885,19.25836664228591,0
105.7689711736069,19.25824143019992,0
105.7688241933326,19.25799761676201,0
105.7686771265492,19.25759290831013,0
105.7683301027938,19.25716884973705,0
105.7682528210973,19.25714446164853,0
105.7681679399006,19.2571573773613,0
105.7677062692592,19.25745083970897,0
105.7675339291232,19.25748892263358,0
105.7660349290958,19.25780198066232,0
105.7658194117493,19.25802271942905,0
105.7658970030566,19.25928830995654,0
105.7657856944059,19.25965000505248,0
105.7654091319157,19.25950422764343,0
105.7649390219019,19.25928288904123,0
105.7645668105459,19.25949746760769,0
105.7641812153383,19.25936054668845,0
105.7637989023185,19.25893523547063,0
105.7636416472627,19.25897059814979,0</coordinates>
        </LineString>
    </Placemark>
</Document>
</kml>