<?xml version="1.0" encoding="UTF-8"?>
<kml xmlns="http://www.opengis.net/kml/2.2">
<Document>
    <name>NA_TCG_THANH_HUNG-NA_TCG_THANH_THINH.kml</name>
    <Placemark>
        <name>Tuyen_Cap_Chuan_Hoa</name>
        <LineString>
            <tessellate>1</tessellate>
            <coordinates>105.2999593044469,18.76477248646072,0
105.2997875920475,18.76471481551809,0
105.2995862726291,18.76473949214629,0
105.2992868841332,18.76493780127597,0
105.2989696100641,18.76526005969989,0
105.2993009566538,18.76555980332197,0
105.2999288278454,18.76570567748673,0
105.3006378874552,18.76586398935591,0
105.3007042557497,18.76586477377409,0
105.3012244558266,18.76590600428536,0
105.3015247315975,18.76588616139736,0
105.3018362315178,18.76606407791276,0
105.3023036143782,18.76674904557246,0
105.3023384177317,18.76674945599805,0
105.3025167252188,18.76702046749294,0
105.3031457330857,18.76720758403921,0
105.3043371219621,18.76753570910813,0
105.3041587483053,18.76948847897489,0
105.304148568374,18.77062556160746,0
105.3038267762575,18.77128169294283,0
105.3030266862338,18.77250681064729,0
105.3026430038745,18.77377275416789,0
105.3019278204651,18.77488822834112,0
105.3011164989598,18.77570362980676,0
105.3012609307825,18.77643016508374,0
105.3016572024485,18.77811537110588,0
105.3019095499365,18.77956013164232,0
105.3014233276433,18.77982897467296,0
105.300742127228,18.78013462501184,0
105.2992981570166,18.78039560607054,0
105.2974160559396,18.7804617677038,0
105.2954724591574,18.78006796190443,0
105.2934108258407,18.77968629945632,0
105.2916536977559,18.77937342031058,0
105.2907330076338,18.77923545156066,0
105.2897703387725,18.77888803212563,0
105.2888069879282,18.77901838842943,0
105.2881558566064,18.77912807436563,0
105.2872030448751,18.77849808603488,0
105.2859070986455,18.77712159630263,0
105.2847526095115,18.77546443047073,0
105.2838863251178,18.77414991315418,0
105.2834614893328,18.77389410785658,0
105.2825209331341,18.77339227488093,0
105.2819946905926,18.77330295211059,0
105.2813532637299,18.77308688060884,0
105.2804516375884,18.77268873536049,0
105.2804068639536,18.77248419575658,0
105.2802726376268,18.77211228210871,0</coordinates>
        </LineString>
    </Placemark>
</Document>
</kml>