<?xml version="1.0" encoding="UTF-8"?>
<kml xmlns="http://www.opengis.net/kml/2.2">
<Document>
    <name>NA_YTH_HAU_THANH-NA_YTH_VAN_THANH.kml</name>
    <Placemark>
        <name>Tuyen_Cap_Chuan_Hoa</name>
        <LineString>
            <tessellate>1</tessellate>
            <coordinates>105.4756524005175,19.04026911411458,0
105.4754621843288,19.03991705911348,0
105.4757253841124,19.03988044244429,0
105.4760228581842,19.03970045017868,0
105.4786007198916,19.0392999493188,0
105.4791905629459,19.03928460546653,0
105.4805068657387,19.03906386602907,0
105.4808944384919,19.03884539078779,0
105.4813686704789,19.03851824052256,0
105.4826291360517,19.03795741252668,0
105.4832800732786,19.03770267845334,0
105.4819994942209,19.03434093616293,0
105.4808562020331,19.03108143850278,0
105.4796858073467,19.02778035590912,0
105.4782866872899,19.02453058772386,0
105.4779681136304,19.02075641804815,0
105.4779044016396,19.01873876737753,0
105.4778540168996,19.01778144267802,0
105.4778007770431,19.01806690934367,0
105.4782446024983,19.01781680738818,0
105.478636274701,19.0178400805723,0
105.4791968845509,19.01764151744488,0
105.4793037482272,19.01795229011638,0</coordinates>
        </LineString>
    </Placemark>
</Document>
</kml>