<?xml version="1.0" encoding="UTF-8"?>
<kml xmlns="http://www.opengis.net/kml/2.2">
<Document>
    <name>NA_NDN_KDL_EO_GIO-NA_HNN_HUNG_TAY_2.kml</name>
    <Placemark>
        <name>Tuyen_Cap_Chuan_Hoa</name>
        <LineString>
            <tessellate>1</tessellate>
            <coordinates>105.5997409793191,18.71088359035726,0
105.5997494097598,18.71050813585941,0
105.6002859784414,18.7101795772952,0
105.5988572076265,18.70753437919386,0
105.598398667807,18.70700048608563,0
105.5991292402883,18.70641163835167,0
105.5996134476114,18.7047418782469,0
105.5995748442286,18.70415434630566,0
105.5994046546632,18.70380725565864,0
105.6001014548518,18.70224418857434,0
105.6027213487649,18.69989016150656,0
105.6036732390722,18.7002060020614,0
105.6043584883416,18.69999890735264,0</coordinates>
        </LineString>
    </Placemark>
</Document>
</kml>