<?xml version="1.0" encoding="UTF-8"?>
<kml xmlns="http://www.opengis.net/kml/2.2">
<Document>
    <name>NA_NDN_NAM_DAN_2-NA_NDN_NAM_DAN.kml</name>
    <Placemark>
        <name>Tuyen_Cap_Chuan_Hoa</name>
        <LineString>
            <tessellate>1</tessellate>
            <coordinates>105.4919324813058,18.70844246414623,0
105.4916783802358,18.70794281610634,0
105.4916760170701,18.70794981671578,0
105.4914113822257,18.70783153146733,0
105.4912619312387,18.70783576518504,0
105.4909452918552,18.7077193636681,0
105.490648172244,18.70778527898388,0
105.490321405244,18.70801856982976,0
105.4903209384957,18.70802656427773,0
105.4903416150062,18.70759128498445,0
105.4916449483283,18.70672574177801,0
105.4916328259972,18.70672087499582,0
105.4919940470271,18.70644057518259,0
105.4919785285291,18.70646073688441,0
105.4916701906876,18.70596703619459,0
105.4916688718786,18.70596234495331,0
105.4912541510827,18.70462387320188,0
105.491256861115,18.70463991390285,0
105.4907778576586,18.70307465642071,0
105.4907848515329,18.70308145646501,0
105.4925337044301,18.70213065714224,0
105.4936084542008,18.70063615860794,0
105.4935986895227,18.70060324825916,0
105.4936097920087,18.7005111139286,0
105.493611066735,18.70052665414208,0
105.4934862847229,18.69963041628587,0
105.4934796324604,18.69962471712666,0
105.4935934963928,18.69935178161905,0
105.4936144866495,18.69935616307402,0
105.4939814709877,18.69851121236356,0
105.4944542077869,18.69772726275837,0
105.4944335277501,18.69773706803949,0
105.4955897268458,18.69732889999135,0
105.4960586757146,18.69726564999295,0
105.4960588705826,18.69719794188315,0
105.4968286234964,18.69760453878741,0
105.4968356727191,18.69760731952936,0
105.4971382990242,18.69755178170381,0
105.497959482745,18.69765353960551,0
105.4986620355859,18.69763272289957,0
105.499286461931,18.69757435478277,0
105.4998322850018,18.69742430014438,0
105.4998308026887,18.69740733478388,0
105.5000130849886,18.69736274407868,0
105.5000132852406,18.69736220432378,0
105.5005655148822,18.69679240551444,0
105.5005544489552,18.696830977725,0
105.5002621548746,18.69661859920948,0</coordinates>
        </LineString>
    </Placemark>
</Document>
</kml>