<?xml version="1.0" encoding="UTF-8"?>
<kml xmlns="http://www.opengis.net/kml/2.2">
<Document>
    <name>NA_TKY_NGHIA_PHUC-NA_TKY_TAN_AN.kml</name>
    <Placemark>
        <name>Tuyen_Cap_Chuan_Hoa</name>
        <LineString>
            <tessellate>1</tessellate>
            <coordinates>105.2134831393756,19.11830878037349,0
105.2135204129609,19.11857807039431,0
105.2143295995189,19.11881569698279,0
105.2150907415001,19.11868691462885,0
105.2152722156945,19.11877618209302,0
105.2159607716524,19.11854399126711,0
105.2160472093952,19.117942714619,0
105.2159278165883,19.1172251939439,0
105.2154956024486,19.1164925927002,0
105.2157105107106,19.11612070865879,0
105.2136552708367,19.11264193915946,0
105.2129105142564,19.11109764638795,0
105.2119664701771,19.10875759159137,0
105.2104026825452,19.10637616101608,0
105.2094341759247,19.10503764423586,0
105.2082316514907,19.10316600476376,0
105.2069085492568,19.10134470956539,0
105.205831501624,19.09956836467306,0
105.2040081819089,19.09636537780426,0
105.2020671427283,19.09317472731262,0
105.2014146509851,19.08916157164766,0
105.2007765322627,19.08449966778628,0
105.2014205003216,19.07570858913699,0
105.1946611948033,19.07494122116755,0
105.1950750697078,19.07604295402684,0
105.1954066790104,19.07600455588629,0
105.1954645610901,19.07679029033439,0
105.1943099439122,19.07686581972916,0
105.1941427514679,19.07670470818188,0</coordinates>
        </LineString>
    </Placemark>
</Document>
</kml>