<?xml version="1.0" encoding="UTF-8"?>
<kml xmlns="http://www.opengis.net/kml/2.2">
<Document>
    <name>NA_THA_TAY_HIEU - NA_THA_TAY_HIEU_2.kml</name>
    <Placemark>
        <name>Tuyen_Cap_Chuan_Hoa</name>
        <LineString>
            <tessellate>1</tessellate>
            <coordinates>105.4068468268166,19.29923040655818,0
105.4072182378675,19.29955997156972,0
105.4075174132531,19.29955121629477,0
105.4088066080849,19.29889280101753,0
105.4090225730361,19.29858866178589,0
105.410883438528,19.2978180933457,0
105.4108736298252,19.29825384542609,0
105.4110483644421,19.29858594219414,0
105.4113958094819,19.29893819068887,0
105.4112506180295,19.29905553541573,0
105.4112586589971,19.29935639575531,0
105.4116253186135,19.30038674492245,0
105.4116846970168,19.30088107545494,0
105.4126871590669,19.30356379801717,0
105.4150746721,19.30673802335071,0
105.4160244746772,19.30786288108114,0
105.4173403612147,19.30960408273434,0
105.4177979100514,19.30972416585623,0
105.4180389503877,19.30969886593996,0
105.4181292462924,19.3105982746288,0
105.4197193860852,19.31055341027968,0
105.4194760125868,19.31223469048429,0
105.4192988616755,19.31235658676086,0
105.4194234262226,19.31267611368432,0
105.4194475317908,19.31350881658862,0
105.4185882896704,19.31378223248558,0
105.4185666668804,19.3143695216909,0
105.4189070928374,19.31452166767711,0
105.41896335834,19.31479351560226,0
105.4187750965694,19.31481158094594,0</coordinates>
        </LineString>
    </Placemark>
</Document>
</kml>