<?xml version="1.0" encoding="UTF-8"?>
<kml xmlns="http://www.opengis.net/kml/2.2">
<Document>
    <name>NA_NDN_NAM_LINH_2-NA_NDN_KIM_LIEN.kml</name>
    <Placemark>
        <name>Tuyen_Cap_Chuan_Hoa</name>
        <LineString>
            <tessellate>1</tessellate>
            <coordinates>105.5577520653605,18.69319808033319,0
105.5573557689786,18.69343595489054,0
105.5565108731389,18.69372400814618,0
105.5560404807329,18.69382785964078,0
105.5562852323055,18.69498641878466,0
105.5558007583022,18.69514457673706,0
105.5560924485326,18.69584072404038,0
105.5561709031463,18.69681856480268,0
105.5539386346936,18.69689383194783,0
105.5531128495932,18.6967785493448,0
105.5526649206877,18.69666930074497,0
105.5515172705054,18.69663944791763,0
105.5509550124407,18.69653369264653,0
105.5507964268327,18.69679728674292,0
105.5507327243686,18.69713392438975,0
105.5508913099766,18.6978786534093,0
105.5510049685836,18.69860400679754,0
105.5502643436193,18.6989018962117,0
105.5494355410337,18.69853064589123,0
105.5487656593323,18.69817781442148,0
105.5481373518705,18.70048279735726,0
105.5480387806892,18.70060474653092,0
105.5446575209498,18.69928076759837,0
105.5446089059115,18.69961898819535,0
105.5446045473218,18.69995434992287,0
105.5443949997425,18.69991179458895,0
105.5443949997425,18.69991179458895,0</coordinates>
        </LineString>
    </Placemark>
</Document>
</kml>