<?xml version="1.0" encoding="UTF-8"?>
<kml xmlns="http://www.opengis.net/kml/2.2">
<Document>
    <name>NA_NAD_NGHIA_LOC-NA_NAD_NGHIA_LONG.kml</name>
    <Placemark>
        <name>Tuyen_Cap_Chuan_Hoa</name>
        <LineString>
            <tessellate>1</tessellate>
            <coordinates>105.4421531924434,19.22385654191885,0
105.4421342704696,19.22403101287669,0
105.4423483050605,19.22412285709925,0
105.4422182376978,19.22561217625302,0
105.4421223818544,19.22654311016642,0
105.4418715347409,19.22652331557881,0
105.4418484009235,19.22690133115429,0
105.4431829266771,19.22747641504018,0
105.4420004493721,19.23296479681484,0
105.4444016334333,19.23931466375101,0
105.4438758823002,19.24642548634845,0
105.4433744167302,19.2464719691263,0
105.4433333424705,19.25456850179161,0
105.4466937001454,19.25988448051104,0
105.4471610605372,19.25925732662228,0
105.4470223954692,19.25928178891268,0</coordinates>
        </LineString>
    </Placemark>
</Document>
</kml>