<?xml version="1.0" encoding="UTF-8"?>
<kml xmlns="http://www.opengis.net/kml/2.2">
<Document>
    <name>NA_VIH_BV_VINH-NA_VIH_BV_SAN_NHI.kml</name>
    <Placemark>
        <name>Tuyen_Cap_Chuan_Hoa</name>
        <LineString>
            <tessellate>1</tessellate>
            <coordinates>105.702429701569,18.68108776694709,0
105.7021268821408,18.68125545464555,0
105.7020782484372,18.68126481614745,0
105.7020426528252,18.68114379004295,0
105.7018554920786,18.68079213833297,0
105.7018286837707,18.68073234059466,0
105.7020766381665,18.68052967232066,0
105.7021934135864,18.68038943290538,0
105.7024458310985,18.68019483181994,0
105.7027372960419,18.68006456887676,0
105.7030135758726,18.67995257074137,0
105.7032756941913,18.67971230889777,0
105.7036526376238,18.67940015786516,0
105.7040119123159,18.67906337600223,0
105.7038859651411,18.67897594296272,0
105.7034912088876,18.67872791676843,0
105.7030281407729,18.67845854088303,0
105.7028181864908,18.67830093293216,0
105.7023809935921,18.67805990275539,0
105.7019467726952,18.67776585687043,0
105.7013377604011,18.67744564968117,0
105.7012599037533,18.67739746265352,0
105.7012262175467,18.67745636846482,0
105.7009064843883,18.67778230680029,0
105.7006767872629,18.67808836198027,0
105.7002235945259,18.67863374419333,0
105.6998582661,18.67911825751037,0
105.6997999502427,18.67923620589378,0
105.7000331010749,18.67941328619013,0
105.7001036761471,18.67956780325932,0
105.7001862924726,18.67965486453091,0
105.7003863934205,18.67981323196652,0
105.7001101903565,18.68009541283492,0
105.700082362612,18.68015511333233,0
105.6999871933941,18.68003275165201,0
105.6999591461115,18.67992718884888,0</coordinates>
        </LineString>
    </Placemark>
</Document>
</kml>