<?xml version="1.0" encoding="UTF-8"?>
<kml xmlns="http://www.opengis.net/kml/2.2">
<Document>
    <name>NA_NDN_NAM_TAN-NA_NDN_NAM_DAN.kml</name>
    <Placemark>
        <name>Tuyen_Cap_Chuan_Hoa</name>
        <LineString>
            <tessellate>1</tessellate>
            <coordinates>105.4992323226859,18.69725086877314,0
105.4991037103148,18.69769232717266,0
105.4984833434114,18.69769905333907,0
105.4974476360509,18.69764582024172,0
105.4966764510684,18.6974682482646,0
105.4963312209495,18.69721825770453,0
105.4962788102573,18.69696865582467,0
105.4957559105121,18.69637729849634,0
105.4948722082234,18.69538777744673,0
105.4942760955588,18.69465995599283,0
105.4937890475588,18.69411167768408,0
105.4935332731098,18.69395868157153,0
105.4927920609376,18.69377635079212,0
105.4909879888054,18.69324291559382,0
105.4892396649092,18.69288379134972,0
105.4876912164572,18.69225089789759,0
105.486345197033,18.69179109336357,0
105.483963030909,18.69060102340946,0
105.4827000141701,18.68974324587861,0
105.4815433171219,18.68913384097189,0
105.4827129103823,18.68787841892699,0
105.4831926604914,18.68703398862437,0
105.484217533394,18.68645374355448,0
105.4854733446751,18.68561833073206,0
105.4868146434768,18.68421287823693,0
105.4880472232124,18.68265561647319,0
105.4883912916282,18.6820745759409,0
105.4884483312954,18.68151878211261,0
105.4882107619559,18.68127475177252,0
105.4869352969285,18.68080536015924,0
105.4861289407663,18.6805212971982,0
105.4855160362172,18.68106211624836,0
105.4846204901615,18.68198130824742,0
105.4833741323308,18.68271438135807,0
105.4828583911315,18.68235538149864,0
105.4820240331183,18.68176045812612,0
105.4805678303862,18.68283108936184,0
105.4798231273133,18.68230346576888,0</coordinates>
        </LineString>
    </Placemark>
</Document>
</kml>