<?xml version="1.0" encoding="UTF-8"?>
<kml xmlns="http://www.opengis.net/kml/2.2">
<Document>
    <name>NA_NDN_NAM_TRUNG-NA_NDN_NAM_PHUC_2.kml</name>
    <Placemark>
        <name>Tuyen_Cap_Chuan_Hoa</name>
        <LineString>
            <tessellate>1</tessellate>
            <coordinates>105.5839296195842,18.58719934222838,0
105.583501612818,18.58718987103416,0
105.5836925230365,18.5874466738883,0
105.5840458955996,18.58746952727531,0
105.5848085837184,18.58755838257129,0
105.5851836291841,18.58765275539049,0
105.5859616722583,18.58809625995859,0
105.5864256684271,18.58840200182843,0
105.5867782711373,18.58870182832806,0
105.5865177036517,18.58925921339608,0
105.5862467532085,18.58984163929631,0
105.5859273871656,18.59062821300935,0
105.5859834841248,18.59073157071647,0
105.5858761934383,18.59081599729225,0
105.5858696861345,18.59146594957279,0
105.5845466807035,18.59143217137287,0
105.5845520051659,18.59148100408758,0
105.5850208049537,18.59206001243531,0
105.5855150062702,18.59266929085226,0
105.5861409725487,18.59344731957229,0
105.5851097623039,18.59396126020733,0
105.5840831963967,18.59448580716536,0
105.5815597000041,18.59577604497101,0
105.5794486137006,18.59686680685103,0
105.5783461407659,18.59744784897384,0
105.5778265937403,18.59863361241118,0
105.5763862292292,18.60165197231535,0
105.5755469589534,18.60357573431891,0
105.5742402066241,18.60651001912293,0
105.5728952807423,18.60959055507882,0
105.5749486787988,18.60917348678682,0
105.5755631304284,18.60916110490478,0
105.5756660130696,18.60962359173979,0
105.5755760748068,18.61044228962619,0</coordinates>
        </LineString>
    </Placemark>
</Document>
</kml>