<?xml version="1.0" encoding="UTF-8"?>
<kml xmlns="http://www.opengis.net/kml/2.2">
<Document>
    <name>NA_NLC_CN_NAM_CAM-NA_NLC_NGHI_THUAN_2.kml</name>
    <Placemark>
        <name>Tuyen_Cap_Chuan_Hoa</name>
        <LineString>
            <tessellate>1</tessellate>
            <coordinates>105.657421626316,18.81060098115918,0
105.6572351990384,18.81058971022714,0
105.6573768428198,18.81042278373804,0
105.6575660029838,18.81013309545261,0
105.6577604796979,18.80979489786327,0
105.6575178674411,18.80957422015537,0
105.6574051361923,18.80933991400095,0
105.6573228046294,18.8090843648666,0
105.6571964530271,18.80883173406758,0
105.6570617542247,18.8086030053337,0
105.6568109937174,18.80873976585232,0
105.6563592410032,18.8089150172136,0
105.6560041483773,18.80907145318518,0
105.6556133407525,18.80922765647469,0
105.6551609713786,18.80938542301779,0
105.6548360435199,18.80947457046933,0
105.6544182006892,18.80969212091369,0
105.6540053131803,18.80991454452797,0
105.6534389746258,18.8101954983996,0
105.6530215928102,18.81042452629848,0
105.6526559801692,18.81062238887491,0
105.6525626529806,18.80988943406465,0
105.6524363384205,18.80898757076394,0
105.6523130626683,18.80832304402571,0
105.6521221425568,18.80754001844257,0
105.6520911519013,18.80733453875317,0
105.65173276372,18.80739131695997,0
105.6516689225465,18.80697695511672,0
105.6516145244394,18.80667406492255,0
105.6515660825099,18.80640377169706,0
105.6515369234378,18.80628530965094,0
105.6515065621393,18.80609176309033,0
105.6514395848594,18.80579447205532,0
105.6516170310251,18.80575860088221,0
105.6514945593774,18.8048332738831,0
105.6512136372987,18.80370924792461,0
105.6510603922599,18.80297315476628,0
105.6509323839551,18.80239328317965,0
105.6508019835527,18.80186276691531,0
105.6507571339879,18.80167100534583,0
105.6506702469986,18.80131666557281,0
105.6505635024197,18.80093549482456,0
105.6501755105022,18.80108354762826,0
105.6497102537961,18.80120898759728,0
105.6490004570681,18.80143080221683,0
105.6485293424763,18.80155256394641,0
105.6481427916169,18.80167046236429,0
105.6477566331704,18.80177925778546,0
105.6476980718255,18.8015831176022,0
105.6476328946466,18.80138406465931,0
105.647586374409,18.80119260348163,0
105.6475347589099,18.80104287109716,0
105.6474959221433,18.80089351002858,0
105.6476482545067,18.80084979186645,0
105.6478149629874,18.80079676250899,0</coordinates>
        </LineString>
    </Placemark>
</Document>
</kml>