<?xml version="1.0" encoding="UTF-8"?>
<kml xmlns="http://www.opengis.net/kml/2.2">
<Document>
    <name>NA_DCU_MUONG_THANH_DIEN_LAM-NA_DCU_DIEN_LAM_2.kml</name>
    <Placemark>
        <name>Tuyen_Cap_Chuan_Hoa</name>
        <LineString>
            <tessellate>1</tessellate>
            <coordinates>105.516169186629,19.14989451205532,0
105.5162552036144,19.15019135536908,0
105.5161990572379,19.15030701973226,0
105.5160715247089,19.15040520225925,0
105.5158274103513,19.15047772116845,0
105.5155508095314,19.15058327902495,0
105.5153690766444,19.1505913698502,0
105.5149288221505,19.15071301518076,0
105.5148299075255,19.15074029351988,0
105.5147654121235,19.15054179146113,0
105.5145348345633,19.15014309102822,0
105.5140391531442,19.1508392458738,0
105.5135597509872,19.151406061157,0
105.5131629273548,19.15190757709883,0
105.5129709202832,19.152360515138,0
105.5126790111119,19.15299912724982,0
105.5123404439862,19.15351007309253,0
105.5128581483614,19.15370483172122,0
105.5134268050698,19.15391187028854,0
105.5139910277576,19.15446349128183,0
105.5146062662324,19.15518345331624,0
105.5151532557851,19.15697831842339,0
105.5154234959021,19.15736729969264,0
105.5166559098079,19.15842462285355,0
105.5177665247321,19.15954093263898,0
105.5188007860973,19.16038305830366,0
105.5190466181146,19.16090407224614,0
105.5194781565296,19.16160110476673,0
105.5201170021444,19.16218243388529,0
105.5210263258666,19.16223560629822,0
105.5215713019466,19.16166397165455,0
105.5215948896066,19.1613716880881,0
105.5214217724202,19.16117274760454,0
105.5213038187223,19.16095933993115,0
105.5212356425186,19.16081450772256,0
105.5208788459171,19.16055447796485,0
105.5205305085227,19.16028249342536,0
105.5201868885886,19.1602590257989,0</coordinates>
        </LineString>
    </Placemark>
</Document>
</kml>