<?xml version="1.0" encoding="UTF-8"?>
<kml xmlns="http://www.opengis.net/kml/2.2">
<Document>
    <name>NA_CCG_CON_CUONG_4-NA_CCG_CON_CUONG_2.kml</name>
    <Placemark>
        <name>Tuyen_Cap_Chuan_Hoa</name>
        <LineString>
            <tessellate>1</tessellate>
            <coordinates>104.9102399564705,19.03778988934868,0
104.9101320215311,19.03768348278344,0
104.9104079752007,19.03762685295937,0
104.9090523060278,19.03648971335753,0
104.9084891157696,19.03598034604105,0
104.9076829707136,19.03528945168867,0
104.9064146542478,19.03428968499372,0
104.9055312871439,19.03350313665389,0
104.9020788412557,19.03037840954684,0
104.9011521317385,19.03024942704883,0
104.8999493327774,19.02924024115115,0
104.8992449441105,19.02781003486064,0
104.8981319583072,19.02708003338249,0
104.8976691374508,19.02605307187779,0
104.8966364332576,19.02499173392138,0
104.8954255155381,19.02088489684357,0
104.8948237404853,19.01877007820498,0
104.8927914712343,19.01397827699722,0
104.8921986538083,19.01151485743841,0
104.8921566271152,19.0090553010923,0
104.8914705398699,19.00897879855568,0
104.8912465593174,19.01020209754174,0
104.8910900769969,19.01095685118469,0
104.8913421711298,19.0111817619929,0
104.8909276235118,19.01220296050531,0
104.89064374674,19.01217004667564,0
104.8904514348974,19.01242104558309,0
104.889023459157,19.01365491766747,0
104.8878173547174,19.0148783372847,0
104.8875196504691,19.01521536330657,0
104.887309481068,19.01556116328463,0
104.8870264096076,19.01636568064595,0
104.8869437478589,19.01716061879146,0
104.8869408299283,19.01725645125351,0
104.8860432088311,19.01730952347127,0
104.8857755538773,19.01730140483441,0
104.8855987709139,19.01718212785585,0
104.8855479019833,19.01706059079945,0
104.8856637058885,19.01700010508655,0
104.885919529391,19.01660423331995,0
104.8858499185557,19.01641746759324,0
104.8855563793372,19.01628195674641,0
104.8852606646182,19.01608793680383,0</coordinates>
        </LineString>
    </Placemark>
</Document>
</kml>