<?xml version="1.0" encoding="UTF-8"?>
<kml xmlns="http://www.opengis.net/kml/2.2">
<Document>
    <name>NA_HMA_QUYNH_PHUONG-NA_HMA_QUYNH_LIEN_2.kml</name>
    <Placemark>
        <name>Tuyen_Cap_Chuan_Hoa</name>
        <LineString>
            <tessellate>1</tessellate>
            <coordinates>105.7399645718068,19.22748470706875,0
105.7397580340825,19.22765658965316,0
105.7393523382299,19.22704118209895,0
105.7392781577455,19.22704017206608,0
105.7383114482812,19.22678224742353,0
105.7365255659292,19.22632575548904,0
105.7352412787074,19.22597091899383,0
105.7346544552519,19.22548764372264,0
105.7341601441931,19.22487541969897,0
105.7335417467002,19.22400269030972,0
105.7323896296156,19.22237591199966,0
105.7312937606277,19.22087980135785,0
105.7311439086121,19.22071649282784,0
105.7311450482384,19.22073064559212,0
105.7307262051394,19.22007181115847,0
105.7303222811923,19.21950415201128,0
105.72998677569,19.2190756550225,0
105.7297872897155,19.21884579427498,0
105.7296553708199,19.21870847274769,0
105.7294182169124,19.21855701895333,0
105.7291482820639,19.21840097933521,0
105.7287444748295,19.21825460448093,0
105.7281093434691,19.21805248409781,0
105.7276102501261,19.21786488813022,0
105.7270301554268,19.2176510937231,0
105.7262095452005,19.21738807831381,0
105.7257043650648,19.21719879989465,0
105.7254830068112,19.21709106034024,0
105.725330909872,19.21696583294003,0
105.7251826272262,19.21677484294282,0
105.7249523960064,19.21649128894499,0
105.7247978568738,19.21622117846714,0
105.7245971753292,19.21594433616797,0
105.7243911753773,19.21561792171532,0
105.7244086093717,19.21562318655386,0
105.7281294636402,19.21408504806882,0
105.727736218872,19.2133534032571,0
105.7274601354434,19.21338070139544,0</coordinates>
        </LineString>
    </Placemark>
</Document>
</kml>