<?xml version="1.0" encoding="UTF-8"?>
<kml xmlns="http://www.opengis.net/kml/2.2">
<Document>
    <name>NA_DCU_DIEN_MY_2-NA_DCU_DIEN_MY.kml</name>
    <Placemark>
        <name>Tuyen_Cap_Chuan_Hoa</name>
        <LineString>
            <tessellate>1</tessellate>
            <coordinates>105.6180395470297,19.06628530527513,0
105.6181634145143,19.06639523579472,0
105.6185628707901,19.06619075595187,0
105.6190668992096,19.06604364583261,0
105.619227849337,19.06617754336823,0
105.6197371185363,19.06596620523089,0
105.6199681364031,19.06592841128349,0
105.6217351267297,19.06492082458584,0
105.6238497214117,19.06379002684119,0
105.6279841311717,19.06112681178179,0
105.6295372842173,19.06384992567948,0
105.6286095079011,19.06439808817937,0
105.6284121506615,19.06418823419325,0</coordinates>
        </LineString>
    </Placemark>
</Document>
</kml>