<?xml version="1.0" encoding="UTF-8"?>
<kml xmlns="http://www.opengis.net/kml/2.2">
<Document>
    <name>NA_QLU_QUYNH_THANG_3-NA_NAD_NGHIA_HOI.kml</name>
    <Placemark>
        <name>Tuyen_Cap_Chuan_Hoa</name>
        <LineString>
            <tessellate>1</tessellate>
            <coordinates>105.5423857103311,19.31875549359321,0
105.5424018752951,19.31868736343157,0
105.5416625812571,19.31854041233478,0
105.5414778336187,19.31828182069665,0
105.5413869707328,19.31792374830157,0
105.5413562895753,19.31740246290738,0
105.541412012702,19.31689185197146,0
105.5415193937666,19.31586507134362,0
105.5417641154899,19.314950932166,0
105.5406680263647,19.31453539293377,0
105.5407108745249,19.31439252258415,0
105.5410248725866,19.31381068253583,0
105.5416037377006,19.31266188027913,0
105.5419381301772,19.31190018114794,0
105.5422587125646,19.31146249131696,0
105.5425579892693,19.311241314142,0
105.5426034353022,19.31093303731516,0
105.542620475444,19.3106046424875,0
105.543275088288,19.31051745283863,0
105.5436882544507,19.31035093448682,0
105.5458943323361,19.31049054187157,0
105.5467041479793,19.31037147423864,0
105.5474430805784,19.3096999824179,0
105.5483436409404,19.30917048753696,0
105.5491447791247,19.30873231662632,0
105.5500454380633,19.30762442975151,0
105.551529300326,19.30593197945104,0
105.552403219489,19.30478920161705,0
105.5526982828715,19.30439805693702,0
105.5529440591551,19.30427753170764,0
105.5529453142883,19.30385989448979,0
105.5528794482474,19.3034594290121,0
105.5529877813266,19.30294053066004,0
105.5532935898215,19.3025495545165,0
105.5545218922833,19.30139606195315,0
105.5555527451443,19.30035955731823,0
105.5558384761087,19.30007118928167,0
105.5556622950322,19.29887108520292,0
105.555597073543,19.298184597309,0
105.5556907853803,19.29780062036251,0
105.5558398984533,19.29774429781207,0
105.5571760900813,19.29671775877641,0
105.5545920694078,19.29478412822364,0
105.5575306602712,19.29408331815912,0
105.5585196227411,19.29314931836598,0
105.5588951526656,19.29273591655965,0
105.5598118453779,19.29282313690968,0
105.5601526362091,19.29280484602986,0
105.5604171172444,19.29230758141279,0
105.5614174852182,19.29081594525382,0
105.5614781207153,19.29045892956081,0
105.5613224709215,19.29042826724936,0
105.5609484275566,19.29024924643516,0
105.5604585547184,19.28992193655902,0
105.5597310466794,19.28943790647733,0
105.5594102483334,19.28930733979159,0</coordinates>
        </LineString>
    </Placemark>
</Document>
</kml>