<?xml version="1.0" encoding="UTF-8"?>
<kml xmlns="http://www.opengis.net/kml/2.2">
<Document>
    <name>NA_VIH_NGHI_DUC_3-NA_NLC_NGHI_THAI_2.kml</name>
    <Placemark>
        <name>Tuyen_Cap_Chuan_Hoa</name>
        <LineString>
            <tessellate>1</tessellate>
            <coordinates>105.7208617647258,18.72894516292009,0
105.7207508605315,18.72874460474455,0
105.7205144575273,18.72865294581946,0
105.7203631896415,18.72879737348426,0
105.7201045647184,18.72868442713214,0
105.7198922010271,18.72856684960367,0
105.71980017718,18.72842640257308,0
105.7196439200097,18.72824010744597,0
105.7201209330657,18.72803766103132,0
105.7203466494595,18.72770917986822,0
105.7193194734217,18.72677546640113,0
105.7188092166365,18.72742182070103,0
105.7184342611414,18.72790930277625,0
105.7181962244987,18.72792309007912,0
105.715776092903,18.72450401551719,0
105.7159348132081,18.72430907138032,0
105.7149741735067,18.72184431474837,0
105.7148040285952,18.72125083019972,0
105.714456338438,18.72139051923228,0
105.7138747332942,18.71936379873177,0
105.7139908795954,18.71916040748772,0
105.7135224058432,18.71766094395322,0
105.7132259560853,18.71768468361848,0
105.7129312337076,18.71796846574542,0
105.7122228754874,18.71871352607308,0
105.7118634886154,18.71831624525298,0
105.7119066638903,18.71804072447927,0</coordinates>
        </LineString>
    </Placemark>
</Document>
</kml>