<?xml version="1.0" encoding="UTF-8"?>
<kml xmlns="http://www.opengis.net/kml/2.2">
<Document>
    <name>NA_NLC_NGHI_XA-NA_NLC_NGHI_QUANG.kml</name>
    <Placemark>
        <name>Tuyen_Cap_Chuan_Hoa</name>
        <LineString>
            <tessellate>1</tessellate>
            <coordinates>105.6866228834334,18.82501627422475,0
105.6863784991702,18.82486295291513,0
105.6863903998015,18.8246267829613,0
105.6862072412626,18.82448185502589,0
105.685857280937,18.82516943552985,0
105.6856044148623,18.824712114844,0
105.6852914085275,18.82428792399022,0
105.6841944590933,18.82364112247792,0
105.6835650446731,18.82323962298688,0
105.6831143062291,18.82233692464247,0
105.6821226196283,18.8211854995097,0
105.6809925130384,18.81947100540863,0
105.6801871254156,18.81748005298171,0
105.6795499267779,18.81626363735453,0
105.677919004474,18.81421007098901,0
105.6759182519649,18.81209690903269,0
105.6748306682731,18.81358197015038,0
105.6736665470625,18.81468390470467,0
105.6743221215938,18.81558676079015,0
105.6748006570954,18.81613600316606,0
105.67498267959,18.81590344651213,0</coordinates>
        </LineString>
    </Placemark>
</Document>
</kml>