<?xml version="1.0" encoding="UTF-8"?>
<kml xmlns="http://www.opengis.net/kml/2.2">
<Document>
    <name>NA_NLC_NGHI_CONG_NAM_2-NA_NLC_NGHI_CONG_NAM.kml</name>
    <Placemark>
        <name>Tuyen_Cap_Chuan_Hoa</name>
        <LineString>
            <tessellate>1</tessellate>
            <coordinates>105.5632236181368,18.78514865911765,0
105.563406107179,18.78496038838352,0
105.5634310580754,18.78475348035992,0
105.5638232798101,18.78474275996897,0
105.5642134968966,18.78476193117431,0
105.5644954868229,18.78481466420839,0
105.56454561265,18.78521357196518,0
105.5645844614008,18.78559222583596,0
105.5646841171747,18.78598978224505,0
105.5646853741063,18.78600032722822,0
105.5649052387748,18.78664089268448,0
105.5651201027947,18.7872802293992,0
105.5653741363555,18.78779801842933,0
105.5657763411777,18.7884804682,0
105.5657817118229,18.78847891498804,0
105.5662029738456,18.78901834961684,0
105.566620672618,18.78942834858274,0
105.5671250938079,18.78878736254321,0
105.5679932490339,18.78842320749892,0
105.5689943747071,18.78779363158017,0
105.5689923678809,18.78779259061885,0
105.5701282819577,18.78710583458109,0
105.5710747386988,18.78660921591407,0
105.5712158311739,18.78679159758585,0
105.5713242214959,18.78707289948709,0
105.5715136785551,18.78759665172904,0
105.5715221747258,18.78760404560948,0
105.5718144223011,18.78780951237304,0
105.5722032058119,18.78812069005826,0
105.5726330782017,18.78852920531839,0</coordinates>
        </LineString>
    </Placemark>
</Document>
</kml>