<?xml version="1.0" encoding="UTF-8"?>
<kml xmlns="http://www.opengis.net/kml/2.2">
<Document>
    <name>NA_TCG_THANH_LAM-NA_TCG_THANH_GIANG.kml</name>
    <Placemark>
        <name>Tuyen_Cap_Chuan_Hoa</name>
        <LineString>
            <tessellate>1</tessellate>
            <coordinates>105.4182279192731,18.67417771510189,0
105.4181120509256,18.67417792338003,0
105.4175879419899,18.67421628912421,0
105.4180945633386,18.67477534080707,0
105.4193569263759,18.67403301448188,0
105.419452363541,18.67384083790189,0
105.421079987448,18.67275589643205,0
105.4213811496345,18.67262408150589,0
105.4235863724201,18.67145163459229,0
105.4266791216814,18.66980319250963,0
105.4272486559896,18.66951391944047,0
105.4279286031486,18.6688491980021,0
105.4285946453701,18.66812110607329,0
105.4291547415478,18.66751191533743,0
105.4297860256847,18.66680698011476,0
105.430885094921,18.66558051059518,0
105.4309324524774,18.66559474446863,0
105.4318608327584,18.66458101175764,0
105.4322970383786,18.66409572377506,0
105.4314233628164,18.66321840928442,0
105.4308265584272,18.6626306819715,0
105.4305079538687,18.66187784057395,0
105.4297485363668,18.66175320263778,0
105.428726802908,18.66158310719344,0
105.4287334251209,18.65984202274603,0
105.4287340851072,18.65639978826329,0
105.4292401038988,18.65564960166402,0
105.4301185511509,18.65468170719565,0
105.4311141433834,18.65395028222426,0
105.431943983577,18.65334389862283,0
105.4324973612328,18.65295942705098,0
105.4330828502605,18.65257539778215,0
105.4337935936082,18.65212307743898,0
105.4345693590852,18.65139047396848,0
105.4349374479808,18.65104534405084,0
105.4357261842487,18.65042382798672,0
105.4361134811437,18.65011826708095,0
105.4369262265648,18.64946592576972,0
105.4379529981909,18.64896573417994,0
105.4386584580999,18.64861306246206,0
105.4395959312966,18.64794638349307,0
105.4408544930102,18.64703022890164,0
105.4420977082741,18.64607339584139,0
105.4430425060159,18.64534648426861,0
105.4438586239585,18.64470696543151,0
105.4449789692989,18.6438670081976,0
105.4460138668899,18.64313858026447,0
105.4469165201451,18.64250897520643,0
105.4474022422144,18.64218103780333,0
105.4481138792229,18.64168654078875,0
105.4489922714648,18.64163913935836,0
105.4491026967858,18.6419245296756,0
105.4490963048675,18.64218503902784,0
105.4489590830862,18.64246306903921,0
105.4488270083024,18.64272713435281,0
105.4487501122833,18.64290777260714,0
105.448711245788,18.64310053478192,0
105.448865866596,18.64316281501603,0
105.4489870819375,18.64347476206763,0
105.4489586222175,18.64372940279209,0
105.4484936397898,18.6438572612536,0
105.4482222980166,18.64394689404344,0
105.4479032304076,18.64408706323598,0
105.4479983614324,18.64426901586171,0
105.4480926337046,18.64448269452983,0
105.4481458105204,18.64475440763906,0
105.4481961400784,18.64487150185422,0
105.4483757328042,18.64501723112392,0
105.4486428151414,18.64510929466428,0</coordinates>
        </LineString>
    </Placemark>
</Document>
</kml>