<?xml version="1.0" encoding="UTF-8"?>
<kml xmlns="http://www.opengis.net/kml/2.2">
<Document>
    <name>NA_ASN_LINH_SON_2-NA_ASN_LINH_SON.kml</name>
    <Placemark>
        <name>Tuyen_Cap_Chuan_Hoa</name>
        <LineString>
            <tessellate>1</tessellate>
            <coordinates>105.2356826421636,18.92203344613892,0
105.2354939186187,18.92204088216647,0
105.2353573112744,18.92188892734915,0
105.2352004687408,18.92177332554222,0
105.2350487068159,18.92164641374254,0
105.2348471306597,18.92157948524479,0
105.2344528650338,18.92133738232667,0
105.2341710651407,18.92161092310943,0
105.2329507859125,18.92277503390383,0
105.2323864111558,18.92311600185417,0
105.2318424864366,18.92346440595045,0
105.230497323509,18.92430171114685,0
105.2296784564869,18.92477325074416,0
105.2289611764223,18.92521009913332,0
105.2284004641355,18.92538153341563,0
105.2277651953216,18.92558527240514,0
105.226934068199,18.92572142626218,0
105.226333068878,18.92576673563911,0
105.2256514325237,18.92584344427742,0
105.2251243320945,18.92592126706159,0
105.2244800839938,18.92609268302973,0
105.2243712030403,18.92585114938279,0
105.2237422808443,18.92611828645153,0
105.2230883063074,18.92638100820405,0
105.222969454799,18.92622857643754,0
105.2229101607189,18.92605986899051,0
105.2228491032731,18.92587377931773,0
105.2227158800798,18.92584401958049,0
105.2216075992087,18.925892264521,0
105.2206470015801,18.92587371518676,0
105.2200532927183,18.92591747947883,0
105.2194554903992,18.92595058098246,0
105.218858265661,18.92596232428867,0
105.2153676449564,18.92620731018462,0
105.2139303734325,18.92619530485842,0
105.2128740245116,18.92618945850382,0
105.2125489449982,18.92616589196513,0
105.2121905791811,18.92613611609913,0
105.2118569547439,18.92616214407417,0
105.2118343372988,18.92596201241384,0
105.2117817481643,18.92576786934505,0
105.2119489186443,18.92572231033877,0</coordinates>
        </LineString>
    </Placemark>
</Document>
</kml>