<?xml version="1.0" encoding="UTF-8"?>
<kml xmlns="http://www.opengis.net/kml/2.2">
<Document>
    <name>NA_QLU_QUYNH_TAN_4-NA_HMA_HOANG_MAI_2.kml</name>
    <Placemark>
        <name>Tuyen_Cap_Chuan_Hoa</name>
        <LineString>
            <tessellate>1</tessellate>
            <coordinates>105.6754597869964,19.23567738464141,0
105.675673653687,19.23549051160838,0
105.6759868240358,19.2353421902028,0
105.6764582291537,19.23557539007259,0
105.6765155767948,19.23556554598041,0
105.6768968313861,19.23577789338158,0
105.6772012203163,19.23592374745312,0
105.6774504720122,19.23614677477262,0
105.6775328882621,19.2362843141999,0
105.6776004812863,19.23663030745514,0
105.6783190077584,19.239158106144,0
105.677203468491,19.23917518135483,0
105.6769808271775,19.23925938016452,0
105.6766879206188,19.23943841644105,0
105.6764026599219,19.23961202849718,0
105.676126890284,19.23923460858831,0
105.6752193278434,19.23803434328475,0
105.6745796214331,19.23715019230222,0
105.6737594983018,19.23573611508532,0
105.6730903492472,19.23474231590611,0
105.6772451932801,19.23109913920826,0
105.6774321230298,19.23080695554569,0
105.6784511311842,19.22893147112273,0
105.6792035455434,19.22799191098988,0
105.6810766287943,19.22659402570192,0
105.6824239104634,19.22562410088864,0
105.6842788860103,19.2246267471991,0
105.6848469593295,19.22375576931149,0
105.6851972415806,19.22296301054838,0
105.6852314962434,19.22205096031838,0
105.6860776451277,19.22141489670658,0
105.6878266204034,19.221020831756,0
105.6886377980908,19.22078715906247,0
105.6889854745915,19.22066134548963,0
105.6896958866407,19.22041223968474,0
105.6904736773795,19.22003581976297,0
105.6907446602236,19.22013628600846,0
105.69143929781,19.22108082052019,0
105.6925766819372,19.22267284319488,0
105.693686211996,19.22427326322977,0
105.6942290414081,19.22516047054868,0
105.6960377458601,19.22883203874196,0
105.6978005181174,19.23269754046691,0
105.6977177652105,19.23283207455049,0
105.6974921508651,19.23343009782294,0
105.6973605612919,19.23367670106185,0
105.6968459579663,19.23355366715749,0
105.6965266228255,19.23353740897655,0
105.696344854551,19.23359372047642,0</coordinates>
        </LineString>
    </Placemark>
</Document>
</kml>