<?xml version="1.0" encoding="UTF-8"?>
<kml xmlns="http://www.opengis.net/kml/2.2">
<Document>
    <name>NA_QLU_QUYNH_NGHIA_2-NA_QLU_QUYNH_NGHIA.kml</name>
    <Placemark>
        <name>Tuyen_Cap_Chuan_Hoa</name>
        <LineString>
            <tessellate>1</tessellate>
            <coordinates>105.7286286785214,19.13189164482374,0
105.7284416957322,19.13186074176947,0
105.7282978945228,19.13182363877771,0
105.728502588136,19.13009106009596,0
105.7285764293585,19.12955720079687,0
105.7287850285199,19.12778809203761,0
105.7251903940943,19.12727716266728,0
105.7235410835954,19.12729987304549,0
105.7218084495458,19.12735204942054,0
105.7190940219428,19.1275262655169,0
105.7184814796155,19.12894768551324,0
105.7178437609739,19.13017937140421,0
105.7176368042868,19.13043028498456,0
105.7169663757813,19.13039011613964,0
105.7168396813161,19.13036832552742,0
105.7168928462918,19.13021521898535,0
105.7168901256208,19.13009747010769,0
105.7168478677959,19.12998187095688,0
105.7166645303371,19.12982360933732,0</coordinates>
        </LineString>
    </Placemark>
</Document>
</kml>