<?xml version="1.0" encoding="UTF-8"?>
<kml xmlns="http://www.opengis.net/kml/2.2">
<Document>
    <name>NA_TKY_TAN_PHU_2-NA_TKY_NGHIA_DONG.kml</name>
    <Placemark>
        <name>Tuyen_Cap_Chuan_Hoa</name>
        <LineString>
            <tessellate>1</tessellate>
            <coordinates>105.33066,19.18489,0
105.32994,19.18435,0
105.33177,19.17839,0
105.33193,19.17813,0
105.33418,19.17601,0
105.33547,19.17481,0
105.33593,19.17455,0
105.33657,19.17435,0
105.33746,19.17409,0
105.33772,19.17412,0
105.33835,19.17432,0
105.33897,19.17471,0
105.33931,19.17496,0
105.33962,19.17537,0
105.3398,19.17547,0
105.3405,19.17579,0
105.34237,19.17622,0
105.34329,19.17648,0
105.34465,19.17684,0
105.34537,19.17692,0
105.3464,19.1769,0
105.34689,19.1769,0
105.34704,19.17695,0
105.34726,19.17707,0
105.34859,19.17804,0
105.34725,19.18011,0
105.3467,19.17948,0</coordinates>
        </LineString>
    </Placemark>
</Document>
</kml>