<?xml version="1.0" encoding="UTF-8"?>
<kml xmlns="http://www.opengis.net/kml/2.2">
<Document>
    <name>NA_DLG_THUONG_SON_2-NA_DLG_THUONG_SON.kml</name>
    <Placemark>
        <name>Tuyen_Cap_Chuan_Hoa</name>
        <LineString>
            <tessellate>1</tessellate>
            <coordinates>105.4270664602518,18.8753061055579,0
105.4271499440074,18.87532006440822,0
105.4272156581283,18.87547583240915,0
105.4268716648221,18.8756344554792,0
105.4266128316522,18.87537304457958,0
105.4264928027987,18.8750326387556,0
105.4262537509203,18.8747388676564,0
105.426059961319,18.87438608785896,0
105.4259070754051,18.87407740492701,0
105.425748154521,18.87382138483888,0
105.4255080968142,18.87344544385198,0
105.4254510998726,18.87319132630217,0
105.4256385192275,18.87301366586373,0
105.4258862882853,18.87280586636196,0
105.4257173091173,18.87243024034926,0
105.4255899041891,18.87224750306574,0
105.4253843799234,18.8719429404838,0
105.4251624271273,18.87219737717884,0
105.4249411448836,18.87236615542183,0
105.4247755184769,18.87242865408897,0
105.4245109856129,18.8721399544672,0
105.4242645576596,18.87197181050229,0
105.423932634294,18.87159586536681,0
105.4235142096877,18.87119422178412,0
105.4232878983021,18.87090964435036,0
105.4231923446059,18.87070882185719,0
105.4230129718781,18.87033985352145,0
105.4229187592864,18.87002227995276,0
105.4228218644858,18.86963808175428,0
105.4228218644858,18.86963808175428,0
105.4230941087008,18.8693036921844,0
105.4223695769906,18.86869772836112,0
105.4220564290881,18.8683515983043,0
105.4217526689172,18.86805242206988,0
105.4211216792464,18.86738141510633,0
105.4203777015209,18.86655018762616,0
105.4196162894368,18.86577638093609,0
105.4188830405474,18.86498353470716,0
105.4181404039264,18.86418973292647,0
105.4175814986229,18.86353965025214,0
105.4168613255024,18.86281088205208,0
105.4161099717021,18.86204721080138,0
105.4153938218951,18.86119120956181,0
105.4146545380354,18.86048876495487,0
105.4140761867166,18.85994558987237,0
105.4137851670384,18.86023145501533,0
105.41345089674,18.86064296036451,0
105.4131612181663,18.86094786074694,0
105.4128313064575,18.86113124489315,0
105.4129074141383,18.86132795430806,0
105.4130277782679,18.8615072134933,0
105.4129201546311,18.86169281793454,0
105.4127186536789,18.86204721080138,0
105.4125218465924,18.86239367114333,0
105.4122928529978,18.86278169318577,0
105.4121979698539,18.86297046891614,0
105.4120363667607,18.86328424860954,0
105.411873087287,18.86357201167473,0
105.4117537289858,18.86379441696896,0
105.4116303473711,18.86402094645188,0
105.4115223884583,18.86421479706892,0
105.4114047065377,18.8644156273409,0
105.411281324923,18.86462978257921,0
105.4111408442259,18.86489216203169,0
105.4109980165958,18.8651488302887,0
105.4108910635114,18.86533538249594,0
105.4107619822025,18.86555937177667,0
105.4106439650059,18.86578209169965,0
105.4104924201965,18.86606064981942,0
105.4102298989892,18.8665035499317,0
105.4100951179862,18.86677227170749,0
105.4100019112229,18.86706605676884,0
105.4099496081471,18.8673395365685,0
105.4099033400416,18.86761714031726,0
105.4098010808229,18.86791853815261,0
105.409766882658,18.8681060390589,0
105.4096763581038,18.86835350186294,0
105.4100428149104,18.86839918726375,0
105.41035361588,18.86843979649845,0
105.410686545074,18.86846644630338,0
105.4111140221357,18.86848484735669,0
105.4110506549478,18.86819867902319,0
105.4109758883715,18.86804575960259,0
105.4110268503428,18.86793376666044,0
105.411122739315,18.86787412166356,0
105.4115354642272,18.86758858681003,0</coordinates>
        </LineString>
    </Placemark>
</Document>
</kml>