<?xml version="1.0" encoding="UTF-8"?>
<kml xmlns="http://www.opengis.net/kml/2.2">
<Document>
    <name>NA_QLU_QUYNH_LUU-NA_QLU_QUYNH_HAU.kml</name>
    <Placemark>
        <name>Tuyen_Cap_Chuan_Hoa</name>
        <LineString>
            <tessellate>1</tessellate>
            <coordinates>105.6312949450218,19.14843625858967,0
105.6312707693578,19.14841850057908,0
105.6316128799454,19.14810253470278,0
105.631916488875,19.14837919159715,0
105.6323123885916,19.1488064557862,0
105.6334141714396,19.15010894294469,0
105.6350386578489,19.15187282620895,0
105.6365992078113,19.1536088266403,0
105.6374360927795,19.15442217623935,0
105.6370256359289,19.15468473832585,0
105.6354564033056,19.15558848868263,0
105.6360885514661,19.15647065666973,0
105.6367921664564,19.15718092967611,0
105.6381265111945,19.1584378956781,0
105.6394035906021,19.16075645029737,0
105.641869039184,19.15941036040976,0
105.6443959961358,19.16228814919567,0
105.645717949577,19.16113508658922,0
105.6462944649352,19.16162050171697,0</coordinates>
        </LineString>
    </Placemark>
</Document>
</kml>