<?xml version="1.0" encoding="UTF-8"?>
<kml xmlns="http://www.opengis.net/kml/2.2">
<Document>
    <name>NA_TCG_XUAN_TUONG-NA_TCG_CHO_CON.kml</name>
    <Placemark>
        <name>Tuyen_Cap_Chuan_Hoa</name>
        <LineString>
            <tessellate>1</tessellate>
            <coordinates>105.4035127823798,18.71780762736296,0
105.4035504246914,18.71769232376579,0
105.4028845856631,18.71671683261803,0
105.4022890331971,18.71575882398167,0
105.4017505669602,18.71525042863064,0
105.4013860166854,18.71493609715692,0
105.4010237235798,18.71455246493852,0
105.4007655079227,18.71432480188987,0
105.400405146301,18.7141966292719,0
105.4010217712822,18.71319237264063,0
105.4013780140522,18.71237321944682,0
105.401525483327,18.7118612872705,0
105.4017952894336,18.71103051465681,0
105.4021821471964,18.70994483384362,0
105.402327471417,18.70957200840488,0
105.404218929968,18.70830960138099,0
105.4053985372536,18.70759007487815,0
105.4067931333359,18.70688188745629,0
105.4073382255862,18.70631476749778,0
105.4088987225719,18.70524391681426,0
105.4108512234392,18.70368730148664,0
105.4121115652269,18.70279513322152,0
105.4125731866615,18.70254036179201,0
105.4135908312776,18.70222325208983,0
105.4145980854025,18.70199978737848,0
105.4154118470714,18.70181686514554,0
105.4155620473306,18.70173168035922,0
105.4157308949945,18.70158095832763,0
105.4158879991228,18.70133709255288,0
105.4159643260294,18.70110750299897,0
105.416854057907,18.7001406652511,0
105.417068210182,18.69994410379246,0
105.4173821955493,18.69981429419435,0
105.4178052939761,18.69971513220218,0
105.4182209908017,18.69966993138161,0
105.4184548776707,18.69963883715092,0
105.418431487256,18.69923905091322,0</coordinates>
        </LineString>
    </Placemark>
</Document>
</kml>