<?xml version="1.0" encoding="UTF-8"?>
<kml xmlns="http://www.opengis.net/kml/2.2">
<Document>
    <name>NA_NDN_XUAN_HOA_3-NA_NDN_XUAN_HOA.kml</name>
    <Placemark>
        <name>Tuyen_Cap_Chuan_Hoa</name>
        <LineString>
            <tessellate>1</tessellate>
            <coordinates>105.5173109624007,18.69982664746059,0
105.5173566407561,18.6998969339739,0
105.5173847182592,18.69987558522871,0
105.518526004042,18.69960227733057,0
105.5184493083927,18.69915347456812,0
105.5184955867878,18.69914612856014,0
105.5207034022964,18.69835119343006,0
105.5220063857268,18.69837134727921,0
105.5229947109541,18.6983478065718,0
105.524174412598,18.69835278581752,0
105.5250591002887,18.69831629823648,0
105.5271602957143,18.69759392943575,0
105.5291831525341,18.69689216681955,0
105.5304960723943,18.69644645241548,0
105.5340449559414,18.69518474102828,0
105.534553058298,18.69502852360481,0
105.5350336119928,18.69502511950887,0
105.5353852968318,18.69506111663978,0
105.5357406073989,18.69510212302909,0
105.536001213207,18.69524816894235,0
105.5361746918741,18.69612563218403,0
105.5359837267485,18.69623066432831,0
105.5356757042214,18.69690752861166,0
105.5353034211524,18.69679321928411,0
105.5351667179604,18.69658201091384,0
105.5345300091658,18.69668724625309,0
105.5343099636263,18.6967908839209,0
105.5341828180439,18.69658758618976,0
105.5340721543807,18.69633838600489,0
105.5336590191007,18.69631040660216,0</coordinates>
        </LineString>
    </Placemark>
</Document>
</kml>