<?xml version="1.0" encoding="UTF-8"?>
<kml xmlns="http://www.opengis.net/kml/2.2">
<Document>
    <name>NA_TKY_TAN_XUAN-NA_TKY_TAN_KY_2.kml</name>
    <Placemark>
        <name>Tuyen_Cap_Chuan_Hoa</name>
        <LineString>
            <tessellate>1</tessellate>
            <coordinates>105.2873910108301,19.18430370962892,0
105.2880303683477,19.18423665537253,0
105.2880620642535,19.18413065621342,0
105.2881783037893,19.18372821152888,0
105.288216702729,19.18346108685695,0
105.2877082038685,19.18340995207858,0
105.2872437240798,19.18339199473132,0
105.2873146820062,19.18298738488111,0
105.2873080647062,19.18215684865303,0
105.2874364911499,19.18128009177955,0
105.2876622739133,19.17977127149902,0
105.2875496643784,19.17853395717997,0
105.2876112981154,19.17761630345284,0
105.2876222345735,19.17749732140798,0
105.2876334649849,19.17639107575957,0
105.2890488025691,19.17379804049439,0
105.2900494688717,19.17221799734239,0
105.2911636552291,19.17187099666884,0
105.2921846773783,19.17155243206982,0
105.2928970834594,19.17118564067931,0
105.2939579728992,19.17077389089195,0
105.2946983860452,19.17071619880647,0
105.2965629607849,19.16941545656544,0
105.2971325391932,19.16860727677746,0
105.2987560887838,19.1669099669702,0
105.2990898951411,19.16660445003939,0
105.2997760056293,19.16636619004059,0
105.3004837830951,19.16623877048212,0
105.3005327912892,19.16623860641574,0
105.3015916168892,19.16600118287183,0
105.3017138464239,19.16539473863737,0
105.3018426644007,19.16470744767117,0
105.3018584226386,19.16461985761102,0
105.3018902711269,19.16400300037604,0
105.301875358099,19.16380661939112,0
105.3023727959353,19.16364444448108,0
105.3033532265216,19.16346256475306,0
105.3043455143151,19.16332664792978,0
105.3051597832712,19.16354863073128,0
105.306699040103,19.16414269576994,0
105.3074567310301,19.16456007677146,0
105.3077666192932,19.16488479953306,0
105.3078350391629,19.16511035767225,0
105.307607516048,19.16520505409898,0
105.3071568077322,19.16539963151777,0</coordinates>
        </LineString>
    </Placemark>
</Document>
</kml>