<?xml version="1.0" encoding="UTF-8"?>
<kml xmlns="http://www.opengis.net/kml/2.2">
<Document>
    <name>NA_VIH_HUNG_DONG_2-NA_VIH_QUAN_BAU.kml</name>
    <Placemark>
        <name>Tuyen_Cap_Chuan_Hoa</name>
        <LineString>
            <tessellate>1</tessellate>
            <coordinates>105.65041,18.69786,0
105.6512,18.69811,0
105.65096,18.69853,0
105.6602,18.70301,0
105.66201,18.70301,0
105.66454,18.70612,0
105.66778,18.70937,0
105.6694,18.71005,0
105.6722,18.70456,0
105.67496,18.69905,0
105.6746568554996,18.69900476463982,0
105.6740242313715,18.70025253234909,0
105.6736691875606,18.70006176395638,0
105.6736698852942,18.70003332552556,0
105.6736696529529,18.70004279469896,0
105.6736701169944,18.70002386688527,0
105.6737058551034,18.70001395747006,0
105.6737052168898,18.7000423337488,0
105.6736785438814,18.70004267947589,0</coordinates>
        </LineString>
    </Placemark>
</Document>
</kml>