<?xml version="1.0" encoding="UTF-8"?>
<kml xmlns="http://www.opengis.net/kml/2.2">
<Document>
    <name>NA_QPG_MUONG_NGOC-NA_QPG_QUE_PHONG.kml</name>
    <Placemark>
        <name>Tuyen_Cap_Chuan_Hoa</name>
        <LineString>
            <tessellate>1</tessellate>
            <coordinates>104.9255673795973,19.62197640003649,0
104.9254517724271,19.6219271050332,0
104.9253501293055,19.62187765849347,0
104.9254071023731,19.62172556375225,0
104.9253654787778,19.62144698264682,0
104.9255709850233,19.62129272409334,0
104.9258287518858,19.62097680274651,0
104.92601600245,19.62072063635214,0
104.926059739815,19.6204282469565,0
104.9262893726157,19.62006414741203,0
104.9266821338345,19.6202404099848,0
104.9268907366499,19.6203306276986,0
104.9272812129046,19.62051584250284,0
104.9274033984549,19.62010042663188,0
104.9274016446422,19.61984359648341,0
104.9274045585193,19.61930189616197,0
104.9276298819412,19.6191164640336,0
104.9279907006348,19.6187352425629,0
104.9283317690062,19.61828079651143,0
104.9285675708952,19.61805440984098,0
104.9276784093552,19.61705227380615,0
104.9270260270996,19.6163646491926,0
104.9270679926302,19.61615726846648,0
104.9262951419051,19.61549089741392,0
104.9249436797163,19.61433375802764,0
104.9242805030742,19.61348558904117,0
104.9240937880367,19.61306385549836,0
104.9240281476921,19.61274531660425,0
104.9239807734425,19.61246552081805,0
104.9238273270493,19.61111888615223,0
104.9236447849897,19.60984460897075,0
104.9235185978332,19.60947444466689,0
104.9231678910296,19.60852823112848,0
104.9226800229145,19.60733230802313,0
104.9224558031953,19.60657366300259,0
104.9222107847933,19.60573949880308,0
104.921827105541,19.60483137230256,0
104.9211910656044,19.60389857751967,0
104.9208526813281,19.60343001311861,0
104.920697953369,19.60361385642279,0
104.9205499052583,19.60335599406472,0
104.9202890564223,19.60351029371514,0</coordinates>
        </LineString>
    </Placemark>
</Document>
</kml>