<?xml version="1.0" encoding="UTF-8"?>
<kml xmlns="http://www.opengis.net/kml/2.2">
<Document>
    <name>NA_NLC_NGHI_THINH-NA_NLC_QUAN_HANH.kml</name>
    <Placemark>
        <name>Tuyen_Cap_Chuan_Hoa</name>
        <LineString>
            <tessellate>1</tessellate>
            <coordinates>105.6728842952084,18.78807709786867,0
105.6728337947088,18.7880706092941,0
105.6728334317153,18.78799434060351,0
105.6728251757864,18.78776139620943,0
105.6728101580532,18.78733161222151,0
105.672809316854,18.78711294483672,0
105.6728589958492,18.78682278406243,0
105.6728774705301,18.78658613522732,0
105.6729270462016,18.78634731292701,0
105.6729721587933,18.7860311003008,0
105.6728412117561,18.78598907439059,0
105.6726588700862,18.78596550212908,0
105.6724495748327,18.78591829459771,0
105.6721317367491,18.78586958854836,0
105.6719101397581,18.78584295499759,0
105.6716015415197,18.7858107035577,0
105.671402164323,18.78577450575802,0
105.6713079584745,18.78562698854071,0
105.6707527284005,18.78551424554131,0
105.6703395962714,18.78544613967874,0
105.6699347709053,18.78535560517422,0
105.6693882922056,18.78519560857412,0
105.6689875887085,18.78509309671314,0
105.6682287132398,18.78490687256308,0
105.6676853566846,18.78476551287719,0
105.6670862834217,18.78459281122718,0
105.6663549554278,18.78440305453353,0
105.6657816358386,18.78424955860497,0
105.6650540534514,18.78405660770265,0
105.6642134066969,18.78381403030391,0
105.6634609113748,18.78358937627086,0
105.6628609703642,18.78343321651034,0
105.6622812206888,18.78328130834293,0
105.6615859178047,18.7830948608021,0
105.6609932814719,18.78293035224858,0
105.6603106825062,18.78275177503169,0
105.6597782398232,18.7826165036796,0
105.6592465069814,18.78246304244472,0
105.6587037856556,18.78234393848106,0
105.6579989985579,18.7821885138792,0
105.6575610589701,18.78213708617803,0
105.6567905262716,18.78200141286699,0
105.6558923214887,18.78186901502393,0
105.6553235669086,18.78179794266009,0
105.6546754110928,18.78171804999281,0
105.6538580401117,18.78162260597612,0
105.6534850940506,18.78154315102146,0
105.6530544074625,18.78155321354374,0
105.6524966448329,18.78161070048538,0
105.652008351529,18.78163863534298,0
105.6515719752422,18.78162685845579,0
105.6508919256694,18.78144162814158,0
105.6504205331177,18.78130102730191,0
105.6502035107082,18.78122022350508,0
105.6497055061949,18.78098464315279,0
105.6490773194419,18.78072017182768,0
105.6484743681653,18.78043203492507,0
105.647914582322,18.78015114408471,0
105.647246768563,18.77986681264112,0
105.6467288516611,18.77962903397718,0
105.6464984121134,18.77948930395861,0
105.6461757297923,18.77933491203936,0
105.6458742372101,18.77931368377994,0</coordinates>
        </LineString>
    </Placemark>
</Document>
</kml>