<?xml version="1.0" encoding="UTF-8"?>
<kml xmlns="http://www.opengis.net/kml/2.2">
<Document>
    <name>NA_TKY_KY_TAN_2-NA_TKY_TAN_KY_3.kml</name>
    <Placemark>
        <name>Tuyen_Cap_Chuan_Hoa</name>
        <LineString>
            <tessellate>1</tessellate>
            <coordinates>105.2691776164441,19.0424388140977,0
105.268838662436,19.04351394925117,0
105.268441899259,19.04364203114308,0
105.2690379318481,19.04502968982533,0
105.2694299629378,19.04470665822223,0
105.2698829708779,19.04469935202919,0
105.2709253984565,19.04496403445789,0
105.2717006179647,19.04559230760616,0
105.2736080577524,19.04843319472435,0
105.2747353865521,19.04952309565988,0
105.2781322597216,19.0513074072268,0
105.2808315804745,19.05270033747801,0
105.2830605799139,19.05450937944264,0
105.2845981503675,19.05583792584019,0
105.2853025216045,19.05642132400791,0
105.2851746968675,19.05659771273572,0
105.2843343188032,19.05786586293607,0
105.2871268399583,19.05911293645055,0
105.2865510145723,19.06154656236826,0
105.2859600944053,19.06165450664187,0</coordinates>
        </LineString>
    </Placemark>
</Document>
</kml>