<?xml version="1.0" encoding="UTF-8"?>
<kml xmlns="http://www.opengis.net/kml/2.2">
<Document>
    <name>NA_YTH_XUAN_THANH_2-NA_YTH_YEN_THANH.kml</name>
    <Placemark>
        <name>Tuyen_Cap_Chuan_Hoa</name>
        <LineString>
            <tessellate>1</tessellate>
            <coordinates>105.4629181394411,18.99582487290084,0
105.4622941069522,18.99532910104766,0
105.461112643181,18.99433728536417,0
105.4599038288323,18.99579433331193,0
105.4581006339915,18.99781958284229,0
105.4584021494267,18.99836110029036,0
105.4585117753749,18.99864249162392,0
105.4577545396682,18.99973113785372,0
105.4530737194668,19.00531939315467,0
105.4528875509814,19.00542374197978,0
105.4520283903574,19.00530621988943,0
105.4515393509946,19.00519780442319,0
105.4502234879201,19.00672558883209,0
105.4485058518068,19.00489807071955,0
105.4481728690433,19.00509017552156,0
105.4476696984236,19.00558097798283,0
105.4472360062454,19.00397751091995,0
105.4469575981786,19.00266656767476,0
105.4466990183708,19.00160066771181,0
105.446705362104,19.00124101470777,0
105.4471752079139,19.00108590355587,0
105.4476403626709,19.00110895839044,0
105.4476973578969,19.00101670675618,0</coordinates>
        </LineString>
    </Placemark>
</Document>
</kml>