<?xml version="1.0" encoding="UTF-8"?>
<kml xmlns="http://www.opengis.net/kml/2.2">
<Document>
    <name>NA_DCU_DIEN_DONG-NA_DCU_CAU_BUNG.kml</name>
    <Placemark>
        <name>Tuyen_Cap_Chuan_Hoa</name>
        <LineString>
            <tessellate>1</tessellate>
            <coordinates>105.5518917596074,19.00910267292162,0
105.5519121285282,19.00894681245491,0
105.5525088745067,19.00892896778551,0
105.5533549953074,19.008953060841,0
105.5533838567483,19.00885623033606,0
105.5539779591936,19.0088025372408,0
105.555162371793,19.00872607767485,0
105.5564652342394,19.00871694433215,0
105.5582398665751,19.00868932446665,0
105.5600422678617,19.00863747996738,0
105.5611391746549,19.00864516810714,0
105.5623763190291,19.00871176953308,0
105.5645587094468,19.00866035817349,0
105.5659460027513,19.00905935816413,0
105.5659571873999,19.00921024953912,0
105.5671629990273,19.00950243676385,0
105.5680483085863,19.00961733956097,0
105.5691989991598,19.00985573364451,0
105.5694805512709,19.00986935967128,0
105.5724928156828,19.01049002508073,0
105.5734588221111,19.01060595145764,0
105.5740247475442,19.01060586857893,0
105.5738201892571,19.01052138365636,0
105.5745428305716,19.01052862032433,0
105.5765874295803,19.01051361098564,0
105.5784473583627,19.01038157791158,0
105.5796303283357,19.0103610408165,0
105.5808539293205,19.01047237774423,0
105.5815183095304,19.01042616923925,0
105.5816043599929,19.01055252839937,0
105.5815868596063,19.01234863431162,0
105.5820545123505,19.01233448378432,0
105.5821327297115,19.01243562201091,0
105.5821435173496,19.01252969819547,0</coordinates>
        </LineString>
    </Placemark>
</Document>
</kml>