<?xml version="1.0" encoding="UTF-8"?>
<kml xmlns="http://www.opengis.net/kml/2.2">
<Document>
    <name>NA_DCU_DIEN_PHU-NA_DCU_DIEN_AN.kml</name>
    <Placemark>
        <name>Tuyen_Cap_Chuan_Hoa</name>
        <LineString>
            <tessellate>1</tessellate>
            <coordinates>105.5729892033254,18.89637042786283,0
105.5729958210645,18.89649899655801,0
105.573590738421,18.89647981542779,0
105.5745458108523,18.89643999487898,0
105.5754320443396,18.89640796015221,0
105.5769222006565,18.89634768660189,0
105.5782974710634,18.89628401282988,0
105.5794808868405,18.8962218532161,0
105.5803187479745,18.8961916847964,0
105.5815620992089,18.896153928336,0
105.5833482979848,18.89606528332978,0
105.5856239607243,18.89596233652833,0
105.5909976087318,18.89573327663536,0
105.5912386133344,18.8957259323084,0
105.5918913035317,18.89501818660132,0
105.5931513046534,18.89363756783844,0
105.5933620310907,18.89348033032577,0
105.5935165501739,18.89342504891771,0
105.5938142248007,18.89342310466548,0
105.5941611474766,18.89339794757256,0
105.5947715585572,18.8933229556913,0
105.5957197932657,18.89321300621264,0
105.5963308236656,18.89323707328757,0
105.5968723245588,18.89342652323467,0
105.5976218650319,18.89381759858364,0
105.5984721072841,18.8940425943525,0
105.5989454965496,18.89406295263711,0
105.5992984802007,18.89403859057116,0
105.5995469418347,18.89397362732584,0
105.599974521665,18.89409001585033,0
105.6004836731311,18.89420305213269,0
105.6009323603363,18.89422253914529,0
105.6013524136377,18.89418507225075,0
105.6016882388777,18.89415333414428,0
105.601778646481,18.89461381882593,0
105.601910245477,18.89537433326035,0
105.6020747761452,18.89611554565072,0
105.6023782097437,18.89756976906252,0
105.6024677196376,18.89809228016887,0
105.6029030017828,18.89936382828456,0
105.6026437182356,18.89952117435483,0
105.6029972371743,18.90045245319627,0
105.6034263774671,18.90174187317957,0
105.6036735201359,18.90260053273475,0
105.6042082486909,18.90449740751601,0
105.6043350235543,18.90483668875825,0
105.6042352369862,18.90483255327465,0</coordinates>
        </LineString>
    </Placemark>
</Document>
</kml>