<?xml version="1.0" encoding="UTF-8"?>
<kml xmlns="http://www.opengis.net/kml/2.2">
<Document>
    <name>NA_NLC_NGHI_VAN_3-NA_DLG_DAI_SON.kml</name>
    <Placemark>
        <name>Tuyen_Cap_Chuan_Hoa</name>
        <LineString>
            <tessellate>1</tessellate>
            <coordinates>105.4823781285483,18.86130391309748,0
105.4821236007747,18.86136798227342,0
105.4816057481657,18.86142161492699,0
105.4813566164446,18.86154667043099,0
105.4811653510242,18.86177775417256,0
105.4818558186404,18.86226998924184,0
105.4821676310365,18.86279668147425,0
105.4827292745447,18.86390818998925,0
105.4813714703046,18.86439022232322,0
105.4802921993408,18.8645417259083,0
105.4793068817281,18.86460553501059,0
105.47837171095,18.86469165478641,0
105.4774514948762,18.86503237905044,0
105.4765187341264,18.86560340477421,0
105.4762576454325,18.86575818295258,0
105.4756318735637,18.86587042877759,0
105.474166947076,18.86617809382095,0
105.4742380180939,18.86641668816056,0
105.4735145335874,18.86738298889471,0
105.4730969456596,18.86796532348999,0
105.4725618293379,18.86848865072062,0
105.4718174751401,18.86923505585507,0
105.4709726303447,18.86893911062207,0
105.4705726052559,18.86873867965109,0
105.4700887931048,18.86845832508974,0
105.4695694142416,18.86878529085362,0
105.4687726926746,18.8689446861817,0
105.4680911447781,18.86794563897373,0
105.4679060054019,18.8680158307284,0
105.4675275711402,18.86833572469984,0
105.4673882824067,18.86766994490766,0
105.4663854228353,18.86510747490849,0
105.4655285764389,18.8632844801189,0
105.4649662941618,18.86203876126127,0
105.4645019902599,18.860750771438,0
105.4637224027415,18.86004881525967,0
105.4631930973344,18.85942083855139,0
105.4625181342422,18.85865141866894,0
105.4619440752434,18.85703669367006,0
105.4616088786995,18.85619540608321,0
105.4613454403957,18.85530534950295,0
105.4610570658756,18.85446759881682,0
105.4607187374481,18.8533749931044,0
105.4604591333016,18.85277802998803,0
105.4601866401322,18.85197226326643,0
105.4605216145746,18.85170621413645,0
105.4603029310175,18.85038604662455,0
105.4604011168447,18.84931612791837,0
105.4604111852848,18.84815400736804,0
105.4603968256755,18.84673111087586,0
105.4604609304671,18.84606326414115,0
105.46055150437,18.84534289422794,0
105.4607096392325,18.84451658393809,0
105.4610336780812,18.84460993483222,0
105.4613444429623,18.84464805214241,0
105.4615274004478,18.84452532653744,0</coordinates>
        </LineString>
    </Placemark>
</Document>
</kml>