<?xml version="1.0" encoding="UTF-8"?>
<kml xmlns="http://www.opengis.net/kml/2.2">
<Document>
    <name>NA_HNN_HUNG_LOI-NA_HNN_HUNG_PHUC.kml</name>
    <Placemark>
        <name>Tuyen_Cap_Chuan_Hoa</name>
        <LineString>
            <tessellate>1</tessellate>
            <coordinates>105.6823685134675,18.62606941578696,0
105.6824822174692,18.62583965556315,0
105.6827024455577,18.62512945450291,0
105.6818773999982,18.62480845320668,0
105.6817844010689,18.62495707616814,0
105.6814377104165,18.62500048368828,0
105.6810918875588,18.62504460712099,0
105.6809093619867,18.6249949907754,0
105.6806957402452,18.62492654587442,0
105.6805063667832,18.62485182397232,0
105.6802265720295,18.62486217163469,0
105.6799098088853,18.62489799683397,0
105.6795416158642,18.62504473677554,0
105.6793507408582,18.62509068966521,0
105.6789020339909,18.62505050232492,0
105.6783498803938,18.62500869470999,0
105.677946102701,18.62495209307621,0
105.6771757926821,18.62485624196917,0
105.6768088242376,18.624779185097,0
105.6764014069951,18.62467059356754,0
105.6758496590165,18.62465313808776,0
105.6753525331887,18.62445040853129,0
105.6731731840754,18.62337669182048,0
105.6729276189402,18.62320671215796,0
105.6724297866761,18.62289325683692,0
105.6721980685216,18.62272890235611,0
105.6714554586353,18.62287013956095,0
105.670987871418,18.62298258977498,0
105.6707061620286,18.62290185761994,0
105.6659267548723,18.62356792084888,0
105.6655896985467,18.62012917983962,0
105.6653080599155,18.61771454351778,0
105.6652049521586,18.61686469691391,0
105.6649066757448,18.61690725063728,0</coordinates>
        </LineString>
    </Placemark>
</Document>
</kml>