<?xml version="1.0" encoding="UTF-8"?>
<kml xmlns="http://www.opengis.net/kml/2.2">
<Document>
    <name>NA_YTH_MA_THANH_2-NA_YTH_HAU_THANH_2.kml</name>
    <Placemark>
        <name>Tuyen_Cap_Chuan_Hoa</name>
        <LineString>
            <tessellate>1</tessellate>
            <coordinates>105.5038623040329,19.06897366660111,0
105.5034577559655,19.0690809446303,0
105.5031525555402,19.06889448345184,0
105.5039793346191,19.06752128262126,0
105.5047807675319,19.06673926502899,0
105.5048117763231,19.06667695114911,0
105.5051496513238,19.06603623272803,0
105.5051517424101,19.06573608055383,0
105.5047420036242,19.06487915132722,0
105.5043293525293,19.06457610963007,0
105.5037731574394,19.06415450356855,0
105.5032833445157,19.06358991898745,0
105.5032846210757,19.06353149579012,0
105.5030407923917,19.0626587979658,0
105.5030421089297,19.06260137280129,0
105.5026893491728,19.06143860134764,0
105.5026935249716,19.06126968309195,0
105.5024381709947,19.06009260294683,0
105.5024126199368,19.05998179468654,0
105.5023872399906,19.05987097062985,0
105.502247342421,19.0589068769298,0
105.5022520587485,19.05877023956654,0
105.5018998828103,19.05750350040507,0
105.5015509447961,19.05658516570786,0
105.5013953376427,19.05568287402116,0
105.5014025069289,19.05559991655516,0
105.501267062272,19.05523276134717,0
105.5014059478461,19.05477053548858,0
105.5014322116816,19.05469115994824,0
105.5014831588858,19.05455264134278,0
105.5018037907583,19.05378793446527,0
105.5022466424773,19.0532279098924,0
105.5026926750959,19.05279202089156,0
105.5030453408118,19.05217656893513,0
105.5023900022108,19.05170104405072,0
105.5015131230504,19.05101722588899,0
105.5005031428001,19.05034843163502,0
105.4996505244072,19.0499889160911,0
105.4994466662932,19.04980684426982,0
105.4984222902661,19.04884835627895,0
105.4978732133032,19.04838900827041,0
105.4973833818853,19.04806786517289,0
105.4973736114682,19.04804524434473,0
105.4971904889003,19.04801115916034,0
105.4970510618341,19.04812406246935,0
105.496861753945,19.04822628760383,0
105.4968275392513,19.04856090659201,0
105.4965240997315,19.0487961045011,0
105.4961346417673,19.04913162351238,0
105.4958672946005,19.0495601981403,0
105.4957466689408,19.05044826589068,0
105.4957592620816,19.05051708316246,0
105.4957446527147,19.05095331445139,0
105.4955969848119,19.05091713543336,0</coordinates>
        </LineString>
    </Placemark>
</Document>
</kml>