<?xml version="1.0" encoding="UTF-8"?>
<kml xmlns="http://www.opengis.net/kml/2.2">
<Document>
    <name>NA_YTH_VINH_THANH_3-NA_YTH_VINH_THANH_2.kml</name>
    <Placemark>
        <name>Tuyen_Cap_Chuan_Hoa</name>
        <LineString>
            <tessellate>1</tessellate>
            <coordinates>105.5049743048005,18.946213356273,0
105.5058407043255,18.94661472990455,0
105.506282729156,18.9460099312685,0
105.5081803705387,18.94662775147527,0
105.5086756090004,18.94733946621156,0
105.5124555083634,18.93970963681397,0
105.5127275408073,18.9393708812004,0
105.5127177537711,18.93903108475323,0
105.5128292647897,18.93883990249704,0
105.5104833668347,18.93852818896859,0
105.5108247469571,18.9369910150896,0
105.5078494360251,18.93691012387563,0
105.5078156103295,18.93623764672698,0</coordinates>
        </LineString>
    </Placemark>
</Document>
</kml>