<?xml version="1.0" encoding="UTF-8"?>
<kml xmlns="http://www.opengis.net/kml/2.2">
<Document>
    <name>NA_VIH_VINH_TAN-NA_VIH_CHO_VINH_3.kml</name>
    <Placemark>
        <name>Tuyen_Cap_Chuan_Hoa</name>
        <LineString>
            <tessellate>1</tessellate>
            <coordinates>105.67404,18.65819,0
105.67381,18.65876,0
105.67479,18.65905,0
105.67578,18.6595,0
105.67636,18.66006,0
105.67658,18.66038,0
105.67689,18.66125,0
105.67692,18.66224,0
105.67677,18.6631,0
105.6766,18.66385,0
105.67636,18.66561,0
105.67575,18.66562,0
105.67576,18.66689,0
105.67295,18.66695,0
105.67292,18.66673,0
105.67305,18.66673,0
105.67305,18.66592,0
105.67288,18.66565,0
105.67285,18.66507,0
105.67367,18.66506,0
105.67368,18.66517,0</coordinates>
        </LineString>
    </Placemark>
</Document>
</kml>