<?xml version="1.0" encoding="UTF-8"?>
<kml xmlns="http://www.opengis.net/kml/2.2">
<Document>
    <name>NA_NDN_VAN_HOI-NA_NDN_LANG_SEN.kml</name>
    <Placemark>
        <name>Tuyen_Cap_Chuan_Hoa</name>
        <LineString>
            <tessellate>1</tessellate>
            <coordinates>105.5548563610593,18.67188716213174,0
105.5554353127797,18.67274257784645,0
105.5554805234791,18.6727435131675,0
105.5555458784578,18.67283825920697,0
105.555655822404,18.67289210532742,0
105.5558208381773,18.67297203316397,0
105.5559740307382,18.67307029179566,0
105.5561595642111,18.67316919811732,0
105.5563707605899,18.67317564272222,0
105.5565049806604,18.67315545544972,0
105.5566874078492,18.67308963605228,0
105.5570122913866,18.67283066615181,0
105.5571210699171,18.67269368261348,0
105.5573128347368,18.67289356472399,0
105.5600693487172,18.67000749320365,0
105.561209637758,18.67171909461484,0
105.5645935448241,18.67032493492749,0
105.5687608310649,18.67329258363245,0
105.5694653621422,18.67417353389487,0
105.5702783627786,18.67480808925702,0
105.5703744459246,18.67487551615647,0
105.5718484539402,18.67359255800522,0
105.5719282804109,18.67367462823966,0</coordinates>
        </LineString>
    </Placemark>
</Document>
</kml>