<?xml version="1.0" encoding="UTF-8"?>
<kml xmlns="http://www.opengis.net/kml/2.2">
<Document>
    <name>NA_QLU_QUYNH_DOI-NA_QLU_QUYNH_HAU_2.kml</name>
    <Placemark>
        <name>Tuyen_Cap_Chuan_Hoa</name>
        <LineString>
            <tessellate>1</tessellate>
            <coordinates>105.672164224341,19.15218003896268,0
105.6723357864274,19.15228791769445,0
105.6724181742947,19.15218279267189,0
105.6725798313319,19.15204962851123,0
105.6723536102151,19.15172201469943,0
105.6722786067713,19.15161332071655,0
105.6719745123075,19.15106690058166,0
105.671821082325,19.15098224163001,0
105.6713863536568,19.15130443783598,0
105.6708693486496,19.15167726546172,0
105.6703069401558,19.15199376228837,0
105.6697550295558,19.15232526736345,0
105.6697982134925,19.1525198199245,0
105.6687976833865,19.15303809839125,0
105.6686452304787,19.15291189490502,0
105.6677187983037,19.15322188602683,0
105.6674160886767,19.15346896219422,0
105.6664763031949,19.15370482018402,0
105.665465083449,19.15395740417107,0
105.6646706403305,19.15412156004176,0
105.6639496645899,19.15424686620763,0
105.6634116509949,19.15438700265128,0
105.6625791946611,19.15479694971674,0
105.6614305796847,19.15558895296246,0
105.660541398161,19.15611563260556,0
105.6596821516693,19.1566711129495,0
105.6588010280197,19.15719592102139,0
105.6580372665304,19.15743005498609,0
105.6570806417406,19.15767343748643,0
105.656611733169,19.15779789535861,0
105.6560864965622,19.15795135171515,0
105.6557219027538,19.15807972625308,0
105.6554613863909,19.15817048677237,0
105.6555547060439,19.15875789689309,0
105.656188751615,19.15867622210734,0</coordinates>
        </LineString>
    </Placemark>
</Document>
</kml>