<?xml version="1.0" encoding="UTF-8"?>
<kml xmlns="http://www.opengis.net/kml/2.2">
<Document>
    <name>NA_DCU_DIEN_THANG_2-NA_DCU_DIEN_THANG.kml</name>
    <Placemark>
        <name>Tuyen_Cap_Chuan_Hoa</name>
        <LineString>
            <tessellate>1</tessellate>
            <coordinates>105.536195337688,18.9544024787629,0
105.5359101357836,18.95457614452535,0
105.5352811365128,18.95362199210681,0
105.5350885616016,18.95333479853148,0
105.5346861596752,18.95244370869171,0
105.5339825599287,18.95140759626724,0
105.5332096039894,18.95041404320903,0
105.5323823296533,18.94984404775267,0
105.5300561115653,18.94863043936062,0
105.5299410615431,18.94799361902982,0
105.5289703442263,18.94760401106873,0
105.5288820335711,18.94689733304114,0
105.5287037231273,18.94512090187876,0
105.5284969288864,18.94314040653713,0
105.5283131016286,18.9414176203047,0
105.5284080807521,18.94134537008475,0
105.5284740816933,18.9411370550729,0
105.5283568472464,18.94090881706587,0
105.5282927942023,18.94039891445152,0
105.5281703458945,18.9394204940617,0
105.5282540710112,18.93934962429072,0
105.5285941499298,18.93926773346517,0
105.5293040885626,18.93899081161669,0
105.5296332804846,18.9388151588411,0
105.5300866066115,18.93854492529436,0
105.5315068667041,18.93787935027464,0
105.5327788622577,18.93771993246483,0
105.5352692226647,18.93753742853222,0
105.5373334676365,18.93734214790986,0
105.5383774624538,18.9368471505666,0
105.5392465691888,18.93635907499336,0
105.5416482416484,18.93506477811221,0
105.5417624395623,18.93499619130945,0
105.5418688033798,18.93484227968585,0
105.5426711444004,18.93442408073018,0
105.5429660521208,18.93424723562527,0
105.5435583325238,18.93363458903065,0
105.5439755342606,18.93320357095678,0
105.5454071948175,18.93175308937275,0
105.5473420945832,18.92974397985758,0
105.5475502505739,18.92957815293874,0
105.5477881229305,18.92952870002533,0
105.5482459889099,18.92929059674926,0
105.5483599277426,18.92923080290912,0
105.5482731255412,18.92904204158544,0</coordinates>
        </LineString>
    </Placemark>
</Document>
</kml>