<?xml version="1.0" encoding="UTF-8"?>
<kml xmlns="http://www.opengis.net/kml/2.2">
<Document>
    <name>NA_TCG_PHONG_THINH-NA_TCG_CHO_GIANG.kml</name>
    <Placemark>
        <name>Tuyen_Cap_Chuan_Hoa</name>
        <LineString>
            <tessellate>1</tessellate>
            <coordinates>105.2500079316639,18.83817840282975,0
105.2496685420071,18.83736985847484,0
105.2490684440928,18.83754185347966,0
105.249138342011,18.83734123625457,0
105.2507523682208,18.836899960564,0
105.2495309062974,18.83531156907317,0
105.2490650069471,18.8346877899411,0
105.2485035326991,18.83382458478737,0
105.2483418563859,18.83260982535296,0
105.2481242779485,18.83266090029761,0
105.2479842294059,18.83247024923985,0
105.2483662137591,18.83246023002993,0
105.2503283763968,18.83134575500093,0
105.251205906678,18.83088820793288,0
105.2530198938498,18.82992356814555,0
105.255374768362,18.82867324861918,0
105.2577044634954,18.82712608184028,0
105.2595739824053,18.8260961320675,0
105.2609704310213,18.82539451039442,0
105.2636402437196,18.82435500558158,0
105.2656081851705,18.82346738117797,0
105.2705441972098,18.82112270301231,0
105.2737705593123,18.81919758506899,0
105.2756473508466,18.8179812580885,0
105.2776581622384,18.81826184882039,0
105.2777367015793,18.81894943109875,0
105.2775735290903,18.81931548679799,0
105.2782102489001,18.81919332920785,0
105.2792700428491,18.81982578838943,0
105.2802453340784,18.82071419178393,0
105.2818562527466,18.82079924089908,0
105.282011345377,18.82097417553392,0
105.2832102935934,18.82096692376265,0
105.2833447545231,18.82142194416057,0</coordinates>
        </LineString>
    </Placemark>
</Document>
</kml>