<?xml version="1.0" encoding="UTF-8"?>
<kml xmlns="http://www.opengis.net/kml/2.2">
<Document>
    <name>NA_THA_NGHIA_TIEN-NA_THA_NGHIA_QUANG.kml</name>
    <Placemark>
        <name>Tuyen_Cap_Chuan_Hoa</name>
        <LineString>
            <tessellate>1</tessellate>
            <coordinates>105.3906364297653,19.32721994688755,0
105.3907629627551,19.32690500979281,0
105.3881702446281,19.32610619600132,0
105.3845729460872,19.32415642123919,0
105.3834581462965,19.32158949888318,0
105.3880110331718,19.31830537389304,0
105.3910017508585,19.31707140906672,0
105.3932397334383,19.31751135352399,0
105.3977887531085,19.3202829863007,0
105.4023148250955,19.3214464845094,0
105.4076686729637,19.32291365626669,0
105.4170189674874,19.32439059961879,0
105.419882736358,19.32421697726084,0
105.4216334493428,19.32388930819489,0
105.4217983742621,19.32398603667959,0
105.4219635121651,19.3254282564391,0
105.4205540724576,19.32550319468299,0
105.4201843099128,19.32533095315407,0</coordinates>
        </LineString>
    </Placemark>
</Document>
</kml>