<?xml version="1.0" encoding="UTF-8"?>
<kml xmlns="http://www.opengis.net/kml/2.2">
<Document>
    <name>NA_QCU_CHAU_THANG_2-NA_QCU_CHAU_THANG.kml</name>
    <Placemark>
        <name>Tuyen_Cap_Chuan_Hoa</name>
        <LineString>
            <tessellate>1</tessellate>
            <coordinates>105.0070695311501,19.6049155151934,0
105.007023968577,19.60474354511423,0
105.0077179495898,19.6045496132587,0
105.0083614003289,19.60444532217361,0
105.0086818630877,19.60423148053317,0
105.0092078849319,19.60395942495048,0
105.0096219104903,19.60391518640765,0
105.010833742597,19.60308302970443,0
105.0126581597245,19.60160945338671,0
105.0145055835839,19.59948430830303,0
105.0157362567134,19.59772359344926,0
105.0159068885143,19.59741447868821,0
105.0158953083405,19.59699828784761,0
105.0158855663975,19.59674901077086,0
105.0158951744884,19.59648269395682,0
105.0156742095266,19.59653474667158,0
105.0157007706435,19.59629323108861,0
105.015833923742,19.59582101110184,0
105.0158811762424,19.59535860182785,0
105.0159480478368,19.59470416891848,0
105.0158808651634,19.59417649260774,0
105.0159176095705,19.59312118151403,0
105.0137169330068,19.59287765291976,0
105.0138092650291,19.59215955294544,0
105.0140819866254,19.58986417730209,0
105.0141836079773,19.58886750948878,0
105.0142854931439,19.58818133225582,0
105.0141884341345,19.58796768120964,0
105.0142653153795,19.58737776283879,0
105.0144881703399,19.58687537234366,0
105.0147549333512,19.58604523348328,0
105.0152299001111,19.58527010528295,0
105.0158413716174,19.58455251897961,0
105.0165000577599,19.58339064275428,0
105.0166879273299,19.58314385563736,0
105.0166322116166,19.58297474178784,0</coordinates>
        </LineString>
    </Placemark>
</Document>
</kml>