<?xml version="1.0" encoding="UTF-8"?>
<kml xmlns="http://www.opengis.net/kml/2.2">
<Document>
    <name>NA_ASN_HOA_SON-NA_ASN_HOI_SON_2.kml</name>
    <Placemark>
        <name>Tuyen_Cap_Chuan_Hoa</name>
        <LineString>
            <tessellate>1</tessellate>
            <coordinates>105.0636566311358,18.94274039192958,0
105.0636060623852,18.94229026428117,0
105.063875118883,18.94213235794377,0
105.0643411135407,18.94188300527181,0
105.063965419929,18.94164667874297,0
105.063427461335,18.94116488307587,0
105.0632490393162,18.9409860848393,0
105.0624625464887,18.94173213840211,0
105.0617237674999,18.94244337279147,0
105.0611517072469,18.94290569885072,0
105.0602080780176,18.94376698742768,0
105.0603920333905,18.9439344654972,0
105.0600000696692,18.94425560330735,0
105.0587860159376,18.94535456591569,0
105.0572806420669,18.94676935912615,0
105.0565807027132,18.9473049391313,0
105.0564878921913,18.94717056742087,0
105.0555679562114,18.9479994207826,0
105.0550732151706,18.94817908630235,0
105.0541558345243,18.94834247860811,0
105.0533859928102,18.94848670602275,0
105.0531291766101,18.94854768577501,0
105.0528713565081,18.94867730206366,0
105.0525619948871,18.94898733405978,0
105.0521620689088,18.94938954707834,0
105.0518551765555,18.94967843836328,0
105.0516488711932,18.94983466314255,0
105.0514034370616,18.94994155764703,0
105.051103573714,18.94996991996208,0
105.0496083500793,18.95021511602938,0
105.0494987107292,18.95044897618108,0
105.0490655339997,18.95047585953356,0
105.0481525980934,18.95055956422799,0
105.0477460116761,18.95056641193522,0
105.0473458366258,18.9506136305969,0
105.0471155317778,18.95074548739875,0
105.0466307705225,18.95121381675976,0
105.0463000167292,18.95151029836848,0
105.046031237917,18.95172046805725,0
105.0458003646511,18.951915146953,0
105.0455626829101,18.95204246887912,0
105.0452019121037,18.95219857661075,0
105.0445502836213,18.95246987511766,0
105.04343494834,18.95299868642282,0
105.0426043004171,18.9533487238371,0
105.0417218243511,18.95385088269726,0
105.0399673764815,18.95505981510951,0
105.0395240092291,18.95529958526102,0
105.0396998454474,18.95552286151895,0
105.0401860440591,18.95621302273733,0
105.0405808378423,18.95588540373803,0
105.0407483141104,18.95604095398792,0
105.0412079572726,18.95606252720981,0</coordinates>
        </LineString>
    </Placemark>
</Document>
</kml>