<?xml version="1.0" encoding="UTF-8"?>
<kml xmlns="http://www.opengis.net/kml/2.2">
<Document>
    <name>NA_ASN_CAO_SON_2-NA_ASN_CAO_SON.kml</name>
    <Placemark>
        <name>Tuyen_Cap_Chuan_Hoa</name>
        <LineString>
            <tessellate>1</tessellate>
            <coordinates>105.1645673517695,18.89881059929538,0
105.1644307232909,18.89877381103423,0
105.1642014571419,18.89876303709671,0
105.1640322813724,18.89873977058914,0
105.1638142352901,18.89918884840589,0
105.1634809563781,18.90025664725707,0
105.1637994410527,18.9002958921163,0
105.1650472475217,18.89913536690802,0
105.1658143068332,18.89777167893832,0
105.1659623982867,18.89751513960861,0
105.1660540118963,18.89734496628872,0
105.1664847739576,18.89567864366416,0
105.1663160717128,18.89514194997751,0
105.1658205134516,18.8945251755276,0
105.1656228640223,18.89378385719074,0
105.1651728219929,18.89292347279186,0
105.1649632444622,18.89250090386735,0
105.1651992528323,18.89168677514612,0
105.1646079667236,18.89093874194747,0
105.1642842326203,18.89013841165811,0
105.1641091392916,18.88967507672729,0
105.1643314574127,18.88856180714167,0
105.1646158492648,18.88729120963002,0
105.1645709391925,18.88603552016631,0
105.1645279702169,18.88448322802861,0
105.164952972657,18.883481112349,0
105.165878107796,18.88233804967953,0
105.1660433117969,18.88015586264108,0
105.1657860920406,18.87838142322935,0
105.1656352028467,18.87763403696446,0
105.1657648628584,18.87729431050305,0
105.1666979073829,18.87687617360763,0</coordinates>
        </LineString>
    </Placemark>
</Document>
</kml>