<?xml version="1.0" encoding="UTF-8"?>
<kml xmlns="http://www.opengis.net/kml/2.2">
<Document>
    <name>NA_NLC_NGHI_CONG_NAM_2-NA_NLC_NGHI_MY_2.kml</name>
    <Placemark>
        <name>Tuyen_Cap_Chuan_Hoa</name>
        <LineString>
            <tessellate>1</tessellate>
            <coordinates>105.5727591652022,18.7884370634024,0
105.5719696020356,18.78778184950889,0
105.5716782769079,18.78764245022112,0
105.5714000322193,18.7873594734636,0
105.5714002677545,18.78718251063173,0
105.5712592050699,18.78701804678013,0
105.5710986290609,18.78658752445629,0
105.5689186622447,18.78787904583103,0
105.5682547325921,18.78825942515962,0
105.5674075846535,18.78864900839316,0
105.5669164206966,18.78899218834875,0
105.5666611804844,18.78925075591819,0
105.5665100599407,18.7894897067536,0
105.5664160121284,18.78983020372822,0
105.5663002673585,18.79040105867756,0
105.5662911360249,18.79076044985603,0
105.5665752376915,18.79161556256392,0
105.5667183233712,18.79180883369795,0
105.5668318507929,18.79225473610012,0
105.5668723612739,18.79251491059641,0
105.5668426734416,18.79287018989509,0
105.5669757294276,18.79300002161485,0
105.5669704891454,18.79313154905535,0
105.5682257622558,18.79347269918049,0
105.5691412466979,18.79383627546312,0
105.5701439484741,18.79420649403033,0
105.571088840118,18.7946104965688,0
105.5719983156216,18.7949760620669,0
105.5728868907808,18.79544205044765,0
105.5738585996297,18.79477220965931,0
105.5744151280537,18.79514297167868,0
105.5740647565645,18.79584752545383,0
105.5739416390903,18.8000604486486,0
105.5702876485763,18.80584831303715,0
105.568695668282,18.80719787572615,0
105.5675546655197,18.80779051773115,0
105.5669354656106,18.80787519551142,0
105.5668855062187,18.80811086304876,0
105.5673536672316,18.80812667011068,0
105.567695552812,18.80816400143119,0
105.5681183489837,18.80829164886323,0
105.5684444026295,18.80858847435399,0
105.5686184129242,18.80869604151955,0
105.5688502138879,18.80875138119478,0
105.5690327717099,18.80876084147324,0
105.5692638724932,18.80869365957794,0
105.5695208680138,18.80862433653242,0
105.5694518473477,18.80884040504959,0
105.5693204071539,18.80900265404156,0
105.5692959843369,18.80919365544134,0
105.5693434041195,18.80927395766424,0</coordinates>
        </LineString>
    </Placemark>
</Document>
</kml>