<?xml version="1.0" encoding="UTF-8"?>
<kml xmlns="http://www.opengis.net/kml/2.2">
<Document>
    <name>NA_NDN_NAM_NGHIA-NA_NDN_NAM_HUNG_2.kml</name>
    <Placemark>
        <name>Tuyen_Cap_Chuan_Hoa</name>
        <LineString>
            <tessellate>1</tessellate>
            <coordinates>105.4344331210003,18.75839348392552,0
105.4342293031354,18.75857721014769,0
105.4342302805878,18.75858135609592,0
105.4344122336521,18.75899452024543,0
105.4344510155423,18.75959282626848,0
105.4344474398641,18.75959353009428,0
105.4347737132105,18.7596806200103,0
105.4347671539619,18.75968455285448,0
105.434675277531,18.75975595828236,0
105.4346665343296,18.75976345925404,0
105.4354548020559,18.75907342572206,0
105.4360905356334,18.75849474577964,0
105.4360869835028,18.75849515025542,0
105.4367618744668,18.75785862283089,0
105.4369828047732,18.75764294548823,0
105.4369759335145,18.75764703741616,0
105.4369596745997,18.75725453162042,0
105.4369510579326,18.75725897836689,0
105.437085245531,18.75653341285474,0
105.4375492931387,18.75591436771613,0
105.4375403373134,18.75591749667885,0
105.4378830894796,18.75581043137392,0
105.4378796307983,18.75580040166828,0
105.4382797046838,18.75557851877482,0
105.4385731693712,18.75536822924667,0
105.4387579869842,18.75520464822885,0
105.4389289201222,18.75474033547473,0
105.4391525395969,18.75414711467215,0
105.4393527183364,18.75366260266775,0
105.4393220707227,18.75369719922984,0
105.4408789485647,18.75239735511542,0
105.4409886864681,18.75200814178594,0
105.4409813107147,18.75093445828535,0
105.441223205644,18.75045058745228,0
105.4423070881028,18.74952953344601,0
105.4431007065815,18.74883742027153,0
105.4430727948098,18.74887884975106,0
105.4468508246729,18.74574327606062,0
105.4484878886667,18.7447812675375,0
105.4495901617058,18.74412651529216,0
105.4495933703014,18.74412939348829,0
105.4501722726148,18.74410698650197,0
105.4506095426297,18.744077579435,0
105.4513189131185,18.74398776476976,0
105.4521087599469,18.74367217005064,0
105.4526186935423,18.7433631151593,0
105.4526140754687,18.74337734954713,0
105.4551038229821,18.74205356688101,0
105.4550940800259,18.7420534285785,0
105.456472975589,18.74129448886114,0
105.4569667965798,18.74093798064674,0
105.4573411319867,18.740563324333,0
105.4573329297866,18.74054366266703,0
105.4576489088919,18.74073514075845,0
105.4576869408098,18.74073531219463,0</coordinates>
        </LineString>
    </Placemark>
</Document>
</kml>