<?xml version="1.0" encoding="UTF-8"?>
<kml xmlns="http://www.opengis.net/kml/2.2">
<Document>
    <name>MC1. NA_VIH_ROADM_VINH_1 - NA_VIH_ROADM_VINH_2.kml</name>
    <Placemark>
        <name>Tuyen_Cap_Chuan_Hoa</name>
        <LineString>
            <tessellate>1</tessellate>
            <coordinates>105.6674452298686,18.67123698227575,0
105.6673397695737,18.67127427473883,0
105.6673693832796,18.67139508560998,0
105.6674779988012,18.67150114835151,0
105.6673475668658,18.6715400535729,0
105.6672770817132,18.67162275821255,0
105.6659427013106,18.67233669401959,0
105.6651511554294,18.67281259412201,0
105.6647353780653,18.67303942758997,0
105.6645871842494,18.67312183777484,0
105.6647516994993,18.67673397047822,0
105.664952928568,18.67673176446502,0
105.675883616864,18.67635973788987,0
105.6765313488209,18.67602288793369,0
105.6768322638699,18.67615992854448,0
105.6821541326208,18.67161057831624,0
105.6837706206128,18.67291930973465,0
105.6846682746963,18.6716168543289,0
105.6847681217223,18.67101263506787,0
105.6845122948728,18.67093163648596,0
105.6842787541274,18.67083561135481,0
105.6843843894043,18.67051776040615,0
105.6842215977312,18.67047514740379,0
105.6839569917885,18.67045634394427,0</coordinates>
        </LineString>
    </Placemark>
</Document>
</kml>