<?xml version="1.0" encoding="UTF-8"?>
<kml xmlns="http://www.opengis.net/kml/2.2">
<Document>
    <name>MC2. NA_VIH_ROADM_VINH_1 - NA_VIH_ROADM_VINH_2.kml</name>
    <Placemark>
        <name>Tuyen_Cap_Chuan_Hoa</name>
        <LineString>
            <tessellate>1</tessellate>
            <coordinates>105.6674420306367,18.67124001781457,0
105.6673380440615,18.67126182712348,0
105.6672648410987,18.67102027660103,0
105.6670976503616,18.67057460773198,0
105.667083086169,18.67002051439773,0
105.6675456084458,18.66929015516117,0
105.6675978215308,18.66865244297857,0
105.6678659526435,18.66865057713368,0
105.6684398397951,18.66862970721079,0
105.6685410643565,18.66844215919223,0
105.6686625605396,18.66799590814036,0
105.6690907593919,18.66797750987864,0
105.6691435801995,18.6677837394407,0
105.6692049301377,18.66766407566028,0
105.6692235144124,18.6676241577726,0
105.6692511173295,18.66748151200047,0
105.6692083187245,18.66702457180833,0
105.6691058842398,18.66692345318819,0
105.6700973361264,18.66688862044591,0
105.6714732568757,18.66684191183399,0
105.6721216267127,18.66683818018854,0
105.6721257918798,18.66710526304828,0
105.6721565630598,18.66765126326368,0
105.6735304069661,18.66759632327391,0
105.6735167641926,18.66757966013699,0
105.6743155951781,18.66759975364837,0
105.6759145536529,18.66757229009193,0
105.6765061824263,18.66751986339691,0
105.6773226678171,18.66774006802709,0
105.67816141911,18.66800427598544,0
105.6804559420705,18.66868245950004,0
105.6830610543408,18.66951719748089,0
105.6836053210867,18.66972681330864,0
105.6836668850364,18.66981947028668,0
105.6836814876341,18.66999415020491,0
105.6836595794054,18.67017389320363,0
105.683806322866,18.670290038265,0
105.6839605851667,18.67043047006091,0</coordinates>
        </LineString>
    </Placemark>
</Document>
</kml>